{
"type": "FeatureCollection",
"name": "SmallBoy_TOA",
"crs": { "type": "name", "properties": { "name": "urn:ogc:def:crs:OGC:1.3:CRS84" } },
"features": [
{ "type": "Feature", "properties": { "TOA_Hours": 5.0 }, "geometry": { "type": "MultiLineString", "coordinates": [ [ [ -115.211559824094863, 37.446368988074475 ], [ -115.174064213201433, 37.416594445151894 ], [ -115.099072991414602, 37.338041170155023 ], [ -115.010447002030119, 37.234984813735778 ], [ -114.966134007337899, 37.177972086039375 ], [ -114.908186245048057, 37.093731749326707 ], [ -114.863873250355837, 37.01756311703226 ], [ -114.85364717465761, 37.006675643411711 ] ] ] } },
{ "type": "Feature", "properties": { "TOA_Hours": 10.0 }, "geometry": { "type": "MultiLineString", "coordinates": [ [ [ -114.713890806782089, 38.135951446476497 ], [ -114.652534352592866, 38.0930412599363 ], [ -114.601403974101842, 38.017887785455983 ], [ -114.570725747007202, 37.929215012133199 ], [ -114.533230136113787, 37.824281876647539 ], [ -114.488917141421524, 37.711109872677476 ], [ -114.454830222427532, 37.600465467153377 ], [ -114.427560687232315, 37.524808724205585 ], [ -114.413925919634693, 37.478836798392791 ] ] ] } },
{ "type": "Feature", "properties": { "TOA_Hours": 15.0 }, "geometry": { "type": "MultiLineString", "coordinates": [ [ [ -114.018517659303996, 38.505004186899974 ], [ -113.98102204841058, 38.456973457713609 ], [ -113.902622134724311, 38.358143147681368 ], [ -113.800361377742249, 38.213661882080139 ], [ -113.711735388357781, 38.084992793464551 ], [ -113.643561550369753, 37.969534096885582 ], [ -113.595839863778096, 37.880802909000892 ], [ -113.561752944784061, 37.810818102078137 ], [ -113.551526869085876, 37.778495025191297 ] ] ] } }
]
}
