{
"type": "FeatureCollection",
"name": "SmallBoy_Contours_FINAL",
"crs": { "type": "name", "properties": { "name": "urn:ogc:def:crs:OGC:1.3:CRS84" } },
"features": [
{ "type": "Feature", "properties": { "Exposure_rate_mR_per_hr": 0.1 }, "geometry": { "type": "MultiPolygon", "coordinates": [ [ [ [ -115.839611306559931, 36.682060684542556 ], [ -115.641055003419766, 36.714174292273086 ], [ -115.467211716550253, 36.742177333070408 ], [ -115.324898829750182, 36.76880489364811 ], [ -115.219229380868711, 36.813163618114189 ], [ -115.132307737433948, 36.873177572111487 ], [ -115.064133899445878, 36.945404549432425 ], [ -115.000220926332091, 37.0162022681262 ], [ -114.932047088344035, 37.062457456589755 ], [ -114.883473228777575, 37.088973450028611 ], [ -114.782916817745203, 37.116839238583431 ], [ -114.736899477103265, 37.127031477902726 ], [ -114.720708190581064, 37.137222344841256 ], [ -114.712186460832555, 37.154883262778434 ], [ -114.710482114882893, 37.177972086039397 ], [ -114.710482114882893, 37.202411386167675 ], [ -114.706221250008625, 37.228878367519364 ], [ -114.701108212159497, 37.249231264829369 ], [ -114.684916925637381, 37.260083896179516 ], [ -114.648273487718782, 37.275681814538366 ], [ -114.611630049800212, 37.298733687799249 ], [ -114.581803995680431, 37.322456179892825 ], [ -114.560499671309174, 37.346171185938758 ], [ -114.555386633460074, 37.355655091883001 ], [ -114.555386633460074, 37.369201450499268 ], [ -114.561351844284005, 37.379359614608916 ], [ -114.576690957831346, 37.397640843063165 ], [ -114.600551801127153, 37.422685656031987 ], [ -114.616743087649311, 37.461251817886321 ], [ -114.627821336322356, 37.494389294016365 ], [ -114.62526481739782, 37.527512073576958 ], [ -114.606517011951112, 37.566024156249107 ], [ -114.547717076686439, 37.597764763744273 ], [ -114.521299714466082, 37.618017649651442 ], [ -114.509369292818164, 37.649061362528556 ], [ -114.492325833321161, 37.682115398194419 ], [ -114.453125876478012, 37.72256967665195 ], [ -114.419891130458836, 37.74278853562214 ], [ -114.347456427596526, 37.769064797459741 ], [ -114.225595692192925, 37.796678496042048 ], [ -114.170204448827604, 37.801391998832997 ], [ -114.116517551412045, 37.802738658672368 ], [ -114.015961140379645, 37.779842102391939 ], [ -113.942674264542489, 37.756938451656623 ], [ -113.871943907629912, 37.738071295694638 ], [ -113.843822199459822, 37.736049529417834 ], [ -113.813143972365211, 37.74278853562214 ], [ -113.762865766849018, 37.767717523883512 ], [ -113.641005031445403, 37.847837572682359 ], [ -113.589022479979505, 37.894253910162767 ], [ -113.519996469016604, 37.969534096885603 ], [ -113.485057377047738, 38.004459402720585 ], [ -113.452674804003408, 38.054803152759739 ], [ -113.417735712034528, 38.125226263477401 ], [ -113.392170522789016, 38.171467357680477 ], [ -113.345301009172246, 38.210314003431293 ], [ -113.289909765806911, 38.245124412900374 ], [ -113.199579430472781, 38.286607355223772 ], [ -113.111805614063158, 38.326061055896567 ], [ -113.013805721955336, 38.378855279821053 ], [ -113.000170954357742, 38.394218514850749 ], [ -113.003579646257123, 38.414920319815501 ], [ -113.013805721955336, 38.430943451118559 ], [ -113.021475278728971, 38.445628198761987 ], [ -113.010397030055927, 38.464980801755701 ], [ -112.994205743533755, 38.480992822999319 ], [ -112.983127494860696, 38.504337312626603 ], [ -112.986536186760119, 38.521007316854117 ], [ -112.999318781382868, 38.532340714964256 ], [ -113.012953548980477, 38.556334959595496 ], [ -113.026588316578099, 38.60096959774107 ], [ -113.026588316578099, 38.65689024886165 ], [ -113.017214413854731, 38.683503798753101 ], [ -112.995057916508614, 38.706782538662097 ], [ -112.966936208338524, 38.722740724285345 ], [ -112.897058024400806, 38.730053701965204 ], [ -112.756449483550426, 38.728059327738528 ], [ -112.653336553593505, 38.718086621511205 ], [ -112.548519277686879, 38.722075871017459 ], [ -112.496536726220981, 38.730053701965204 ], [ -112.416432466585036, 38.751323562658627 ], [ -112.344849936697585, 38.78321647409517 ], [ -112.326954304225723, 38.790523258210165 ], [ -112.242589179715523, 38.831692943585416 ], [ -112.155667536280731, 38.88942318023998 ], [ -112.060224163097473, 38.955721862111382 ], [ -111.953702541241142, 39.024606755719709 ], [ -111.839511362611148, 39.079534086811265 ], [ -111.765372313799148, 39.111279791003049 ], [ -111.569372529583532, 39.166139675296655 ], [ -111.402346626512809, 39.212373813379934 ], [ -111.149251252982154, 39.270453567875009 ], [ -110.987338387760559, 39.296837557422492 ], [ -110.892747187552132, 39.332440176625148 ], [ -110.861216787482647, 39.363412893508148 ], [ -110.836503771211994, 39.399640128886382 ], [ -110.829686387413176, 39.445720321252054 ], [ -110.83224290633774, 39.483220256031693 ], [ -110.828834214438317, 39.518070484852728 ], [ -110.799008160318564, 39.554874379706973 ], [ -110.790486430570027, 39.583121267533784 ], [ -110.793042949494591, 39.606760973880306 ], [ -110.797303814368874, 39.623829077604555 ], [ -110.810086408991637, 39.630392612226494 ], [ -110.831390733362866, 39.633017851740789 ], [ -110.846729846910179, 39.634986715999467 ], [ -110.858660268558097, 39.638268031900729 ], [ -110.855251576658688, 39.650079480212867 ], [ -110.843321155010798, 39.659920812606849 ], [ -110.816903792790399, 39.680910971853386 ], [ -110.801564679243086, 39.710417592462925 ], [ -110.774295144047898, 39.73008166476469 ], [ -110.730834322330495, 39.755636575705012 ], [ -110.701860441185588, 39.807372605576752 ], [ -110.679703943839471, 39.833553228911335 ], [ -110.635390949147251, 39.864302714764811 ], [ -110.582556224706508, 39.896346022926195 ], [ -110.551025824637023, 39.910727943444925 ], [ -110.463252008227428, 39.943402898436659 ], [ -110.404452072962727, 39.98259225605748 ], [ -110.308156526804609, 40.043943746753101 ], [ -110.231460959068045, 40.075250893774815 ], [ -110.099374147966202, 40.120881361916403 ], [ -109.912748266473898, 40.178201958659443 ], [ -109.863322233932578, 40.191222620057779 ], [ -109.264244632612616, 40.357666282994359 ], [ -109.060575291623323, 40.547663215035115 ], [ -109.022227507755034, 40.628556393613316 ], [ -108.919966750772929, 40.836486344865619 ], [ -108.956610188691528, 41.051478290181315 ], [ -109.016262296931046, 41.229248830006618 ], [ -109.301740243506032, 41.354105061122617 ], [ -109.51307914126896, 41.369455464908754 ], [ -109.74401801745347, 41.384162870709851 ], [ -110.159878429180552, 41.259364238725631 ], [ -110.562956246284926, 41.108648435023476 ], [ -110.772590798098165, 40.933769983542113 ], [ -110.816903792790384, 40.887400920667645 ], [ -110.902973263250303, 40.7945652590398 ], [ -110.91831237679763, 40.733894071927502 ], [ -110.943025393068282, 40.706767769171869 ], [ -110.963477544464666, 40.682861629997745 ], [ -111.007790539156915, 40.65183547888595 ], [ -111.058920917647953, 40.628556393613337 ], [ -111.093007836641988, 40.622088540356401 ], [ -111.131355620510234, 40.624028962100439 ], [ -111.246398972115088, 40.656361024924685 ], [ -111.34951190207201, 40.683507854650443 ], [ -111.447511794179817, 40.700307496374649 ], [ -111.490120442922347, 40.698369292346825 ], [ -111.504607383494829, 40.691908204969089 ], [ -111.514833459193028, 40.680922918446988 ], [ -111.516537805142747, 40.667350358745033 ], [ -111.513129113243323, 40.652482004256363 ], [ -111.491824788872066, 40.563849678252396 ], [ -111.481598713173852, 40.508799738685013 ], [ -111.472224810450484, 40.445274267997469 ], [ -111.489268269947516, 40.4316538478487 ], [ -111.490972615897206, 40.425166963663656 ], [ -111.488416096972657, 40.414137824660976 ], [ -111.486711751022966, 40.40635146147531 ], [ -111.491824788872066, 40.405053646692878 ], [ -111.505459556469688, 40.404404729917729 ], [ -111.524207361916368, 40.399213170505618 ], [ -111.538694302488864, 40.39207412259249 ], [ -111.548920378187049, 40.382986966907481 ], [ -111.559146453885248, 40.36870467381366 ], [ -111.570224702558335, 40.354419353470178 ], [ -111.581302951231393, 40.341430071867755 ], [ -111.602607275602637, 40.333635302188938 ], [ -111.615389870225385, 40.327788633981839 ], [ -111.638398540546362, 40.323240875197087 ], [ -111.652033308143984, 40.318043061405106 ], [ -111.660555037892479, 40.307646233288907 ], [ -111.667372421691269, 40.291397985007748 ], [ -111.670781113590706, 40.280346944235625 ], [ -111.669928940615833, 40.269294096788009 ], [ -111.663111556817029, 40.256288433962183 ], [ -111.654589827068534, 40.240678338272581 ], [ -111.64947678921942, 40.228317792699393 ], [ -111.638398540546362, 40.219208578616175 ], [ -111.628172464848163, 40.206844114664712 ], [ -111.614537697250569, 40.189269680172657 ], [ -111.613685524275695, 40.177550859986823 ], [ -111.611981178326019, 40.152153138784023 ], [ -111.616242043200288, 40.14107936369227 ], [ -111.625615945923656, 40.130003783406544 ], [ -111.64351157839549, 40.131306886543229 ], [ -111.67333763251527, 40.135867550771913 ], [ -111.689528919037429, 40.128700655286153 ], [ -111.692937610936823, 40.115016301678516 ], [ -111.688676746062569, 40.102632846596222 ], [ -111.679302843339215, 40.078511227656904 ], [ -111.67418980549013, 40.069381899425274 ], [ -111.680155016314075, 40.059599118328045 ], [ -111.697198475811106, 40.038072055355649 ], [ -111.721059319106914, 40.018496098960753 ], [ -111.744920162402721, 40.004136827307519 ], [ -111.758554930000329, 39.996303224100956 ], [ -111.774746216522502, 39.988468722210513 ], [ -111.791789676019491, 39.980633321679591 ], [ -111.802015751717718, 39.974103134807045 ], [ -111.813094000390791, 39.960387711283211 ], [ -111.819911384189567, 39.955162064244256 ], [ -111.825876595013526, 39.943402898436659 ], [ -111.827580940963216, 39.930988252698924 ], [ -111.825876595013526, 39.915303375966914 ], [ -111.825024422038695, 39.906805900875881 ], [ -111.823320076088976, 39.898961142105236 ], [ -111.821615730139271, 39.890461639912566 ], [ -111.818207038239862, 39.881307151114989 ], [ -111.823320076088976, 39.875421477131518 ], [ -111.836102670711753, 39.867573126067583 ], [ -111.848885265334516, 39.855798915806446 ], [ -111.861667859957251, 39.845985530658261 ], [ -111.866780897806365, 39.836825105480678 ], [ -111.867633070781196, 39.828972339865885 ], [ -111.866780897806365, 39.820464164040679 ], [ -111.849737438309347, 39.79558807110935 ], [ -111.842067881535698, 39.784456378683721 ], [ -111.836102670711753, 39.772012943859764 ], [ -111.833546151787203, 39.760877437268682 ], [ -111.83184180583747, 39.747774535597124 ], [ -111.833546151787203, 39.731392403554636 ], [ -111.840363535586008, 39.720250329484188 ], [ -111.853998303183587, 39.702550393652928 ], [ -111.865928724831505, 39.688780637331455 ], [ -111.87445045458, 39.675664029929834 ], [ -111.877859146479423, 39.669104791994044 ], [ -111.881267838378818, 39.659920812606863 ], [ -111.894902605976412, 39.621859895809465 ], [ -111.931546043895011, 39.537789283831636 ], [ -111.951998195291438, 39.475985000047444 ], [ -111.97245034668785, 39.419392513265038 ], [ -111.994606844033953, 39.369342273202747 ], [ -112.006537265681843, 39.348257747213793 ], [ -112.024432898153734, 39.331121884181954 ], [ -112.033806800877073, 39.319915394939976 ], [ -112.062780682021994, 39.30738837031776 ], [ -112.109650195638807, 39.287604291591059 ], [ -112.263893504086738, 39.234819418920772 ], [ -112.418136812534726, 39.182655359056305 ], [ -112.514432358692829, 39.150941820331717 ], [ -112.593684445353915, 39.123180745155985 ], [ -112.676345223914424, 39.104005996159565 ], [ -112.719806045631813, 39.09607009115259 ], [ -112.735145159179126, 39.09805415114927 ], [ -112.742814715952804, 39.11061856794511 ], [ -112.73940602405338, 39.135079689082339 ], [ -112.752188618676129, 39.143672120521742 ], [ -112.779458153871374, 39.140367463301828 ], [ -112.810136380966, 39.13111359780946 ], [ -112.843371126985176, 39.116569352124912 ], [ -112.873197181104914, 39.102022103653574 ], [ -112.947336229916928, 39.053730179582502 ], [ -113.047892640949328, 38.99083504073463 ], [ -113.142483841157713, 38.933187261486495 ], [ -113.19531856559847, 38.900698326639564 ], [ -113.357231430820065, 38.797165139380411 ], [ -113.452674804003365, 38.734707025312311 ], [ -113.525961679840492, 38.686164609596545 ], [ -113.604361593526761, 38.632263908095197 ], [ -113.668274566640576, 38.59164524932833 ], [ -113.700657139684878, 38.562332269839736 ], [ -113.699804966710047, 38.542339289774858 ], [ -113.695544101835765, 38.524340854523707 ], [ -113.681909334238142, 38.509005302862072 ], [ -113.673387604489662, 38.501002848634144 ], [ -113.663161528791463, 38.489664516377324 ], [ -113.658900663917208, 38.470985726431657 ], [ -113.660605009866899, 38.446295616314323 ], [ -113.664013701766322, 38.432278551610445 ], [ -113.675091950439366, 38.421597056493418 ], [ -113.710883215383092, 38.382863394887622 ], [ -113.708326696458542, 38.356806677546118 ], [ -113.702361485634569, 38.338093505361726 ], [ -113.706622350508837, 38.320712659293889 ], [ -113.704918004559119, 38.308677324164243 ], [ -113.702361485634569, 38.291958267177975 ], [ -113.702361485634569, 38.273897358282021 ], [ -113.698952793735188, 38.261854256127648 ], [ -113.708326696458542, 38.251816812366151 ], [ -113.754344037100452, 38.254493599610733 ], [ -113.830187431862157, 38.267876056810479 ], [ -113.887283021177169, 38.285269565593886 ], [ -113.947787302391561, 38.304665101883614 ], [ -114.025335043102956, 38.346114028344715 ], [ -114.108847994638325, 38.397557916698574 ], [ -114.187247908324579, 38.454304145503428 ], [ -114.263943476061144, 38.515006559969954 ], [ -114.355978157344992, 38.604965376275516 ], [ -114.455682395402519, 38.681508125689881 ], [ -114.513630157692361, 38.721411011563852 ], [ -114.5545344604852, 38.736036490592163 ], [ -114.582656168655248, 38.736701213952507 ], [ -114.602256147076815, 38.720746145924572 ], [ -114.615038741699564, 38.70811252353981 ], [ -114.626969163347511, 38.686164609596545 ], [ -114.627821336322356, 38.668202216377935 ], [ -114.632934374171441, 38.636923594631469 ], [ -114.639751757970274, 38.602967514818005 ], [ -114.649125660693613, 38.566996498510576 ], [ -114.655090871517544, 38.551003597075415 ], [ -114.65764739044215, 38.535007137467147 ], [ -114.655943044492432, 38.491665528206113 ], [ -114.649977833668473, 38.430275891615501 ], [ -114.645716968794233, 38.391546882320405 ], [ -114.636343066070864, 38.348119020332817 ], [ -114.626116990372651, 38.295302386809404 ], [ -114.617595260624171, 38.257170288256688 ], [ -114.610777876825324, 38.188883933470059 ], [ -114.615038741699564, 38.176826747489109 ], [ -114.632082201196624, 38.146004874214675 ], [ -114.679803887788253, 38.07291843231576 ], [ -114.732638612228996, 37.994386501468846 ], [ -114.779508125845766, 37.920476294256261 ], [ -114.825525466487733, 37.851874936727263 ], [ -114.868134115230248, 37.791291267430253 ], [ -114.901368861249409, 37.743462402500541 ], [ -114.938864472142868, 37.689533668630133 ], [ -114.977212256011128, 37.635565689589669 ], [ -115.000220926332091, 37.607216796776846 ], [ -115.030046980451829, 37.565348677158099 ], [ -115.073507802169189, 37.513318396494483 ], [ -115.106742548188407, 37.472750157911136 ], [ -115.12634252660996, 37.445692425447184 ], [ -115.157020753704572, 37.425392701830035 ], [ -115.20644678624592, 37.390870537481163 ], [ -115.242238051189659, 37.368524190646824 ], [ -115.28058583505792, 37.342106288066667 ], [ -115.295924948605204, 37.329910274247418 ], [ -115.350464018995666, 37.304156631612095 ], [ -115.566063781632877, 37.204447637455203 ], [ -115.652133252092767, 37.161674825357466 ], [ -115.687924517036535, 37.145374050185488 ], [ -115.82853305788683, 37.097130351616499 ], [ -116.016863285328853, 37.029129348704714 ], [ -116.115715350411534, 36.989660843695404 ], [ -116.211158723594806, 36.951533878570139 ], [ -116.246097815563687, 36.928376047666994 ], [ -116.280184734557679, 36.903848321330663 ], [ -116.298932540004415, 36.888855272315197 ], [ -116.310010788677459, 36.878631050291489 ], [ -116.318532518425968, 36.869087207947665 ], [ -116.325349902224787, 36.852723561237774 ], [ -116.327906421149336, 36.838402496259697 ], [ -116.330462940073886, 36.817939179499632 ], [ -116.336428150897845, 36.789281342486071 ], [ -116.33813249684755, 36.767439602566505 ], [ -116.33813249684755, 36.749005793800855 ], [ -116.33813249684755, 36.737397049045434 ], [ -116.335575977923014, 36.729884572678571 ], [ -116.333871631973267, 36.723054410827608 ], [ -116.321089037350518, 36.703926726088099 ], [ -116.300636885954106, 36.685477663431634 ], [ -116.290410810255906, 36.678643553852901 ], [ -116.279332561582848, 36.665657072906299 ], [ -116.265697793985254, 36.649249964383564 ], [ -116.246097815563687, 36.643780151227155 ], [ -116.229906529041514, 36.638993746060862 ], [ -116.160880518078585, 36.639677536435691 ], [ -116.099524063889376, 36.641045098977301 ], [ -116.047541512423493, 36.64719882997327 ], [ -115.839611306559931, 36.682060684542556 ] ] ] ] } },
{ "type": "Feature", "properties": { "Exposure_rate_mR_per_hr": 0.2 }, "geometry": { "type": "MultiPolygon", "coordinates": [ [ [ [ -116.104637101738433, 36.685477663431605 ], [ -116.009193728555161, 36.692311165786364 ], [ -115.962324214938363, 36.699144060873913 ], [ -115.83449826871076, 36.72168830556064 ], [ -115.692185381910718, 36.746274482421192 ], [ -115.402446570461507, 36.799517515391813 ], [ -115.295072775630331, 36.832264075912839 ], [ -115.203038094346454, 36.873859278178372 ], [ -115.116116450911719, 36.939274727130702 ], [ -114.99681223443261, 37.081495518944685 ], [ -114.907334072073297, 37.124313681600213 ], [ -114.838308061110396, 37.135863641880825 ], [ -114.797403758317586, 37.142656912676379 ], [ -114.778655952870864, 37.150128805952868 ], [ -114.773542915021764, 37.156920795615925 ], [ -114.766725531222946, 37.165749470033269 ], [ -114.765021185273227, 37.176614115230237 ], [ -114.753090763625337, 37.216663991468245 ], [ -114.731786439254094, 37.251266252294094 ], [ -114.708777768933132, 37.277038002564403 ], [ -114.668725639115152, 37.312290314126592 ], [ -114.649125660693585, 37.3353309693073 ], [ -114.637195239045681, 37.360396595556338 ], [ -114.636343066070822, 37.37326488122288 ], [ -114.643160449869612, 37.398994830795473 ], [ -114.655943044492375, 37.426746188026904 ], [ -114.655943044492375, 37.447045544583524 ], [ -114.655090871517487, 37.465986642664781 ], [ -114.647421314743866, 37.527512073576922 ], [ -114.636343066070822, 37.575480220369585 ], [ -114.597995282202533, 37.654458945184167 ], [ -114.561351844283948, 37.690208020059934 ], [ -114.527264925289913, 37.722569676651915 ], [ -114.499995390094725, 37.742788535622111 ], [ -114.467612817050394, 37.756938451656595 ], [ -114.448865011603658, 37.769064797459706 ], [ -114.433525898056359, 37.779168566860129 ], [ -114.427560687232415, 37.787250588186836 ], [ -114.42159547640847, 37.798025241815708 ], [ -114.419891130458737, 37.810818102078137 ], [ -114.430969379131795, 37.854566389937148 ], [ -114.457386741352195, 37.915098105551976 ], [ -114.466760644075521, 37.940640999234361 ], [ -114.475282373824015, 37.951393246947163 ], [ -114.499143217119865, 37.974236548690811 ], [ -114.5332301361139, 38.011845317632471 ], [ -114.54686490371148, 38.046750477801858 ], [ -114.560499671309117, 38.074260126449396 ], [ -114.571577919982175, 38.089017137468275 ], [ -114.58009964973067, 38.104441737133399 ], [ -114.585212687579784, 38.113158548972976 ], [ -114.593734417328292, 38.118522223855571 ], [ -114.596290936252842, 38.117851786038514 ], [ -114.600551801127082, 38.115169973217753 ], [ -114.607369184925901, 38.111817568701206 ], [ -114.615038741699522, 38.101088840234567 ], [ -114.626116990372566, 38.092370588243035 ], [ -114.632934374171384, 38.084992793464551 ], [ -114.649125660693585, 38.06084207762153 ], [ -114.682360406712732, 38.013859528921948 ], [ -114.715595152731893, 37.964831343857675 ], [ -114.755647282549887, 37.905685329083106 ], [ -114.793142893443317, 37.851874936727235 ], [ -114.853647174657709, 37.765022903094447 ], [ -114.896255823400239, 37.703693760865868 ], [ -114.951647066765545, 37.629491836909878 ], [ -114.998516580382301, 37.566024156249085 ], [ -115.035160018300843, 37.511290507935726 ], [ -115.066690418370328, 37.465310257482841 ], [ -115.089699088691319, 37.431483197024392 ], [ -115.128899045534411, 37.397640843063115 ], [ -115.165542483453009, 37.359719256228232 ], [ -115.204742440296144, 37.325844496268495 ], [ -115.259281510686563, 37.298733687799206 ], [ -115.364950959568063, 37.247874575985698 ], [ -115.504707327443555, 37.186119398271373 ], [ -115.608672430375307, 37.137222344841234 ], [ -115.730533165778979, 37.094411481979741 ], [ -115.859211284981413, 37.048175773599198 ], [ -115.962324214938334, 37.010758628794271 ], [ -116.073958874643765, 36.97536546987979 ], [ -116.125941426109634, 36.951533878570096 ], [ -116.164289209977937, 36.929738467827022 ], [ -116.196671783022268, 36.916794493225495 ], [ -116.211158723594735, 36.905892599803771 ], [ -116.223941318217484, 36.894307630920387 ], [ -116.246097815563587, 36.873859278178372 ], [ -116.258880410186364, 36.860905822585337 ], [ -116.267402139934845, 36.851359765853026 ], [ -116.273367350758818, 36.840448526903778 ], [ -116.276776042658199, 36.826125162968381 ], [ -116.277628215633086, 36.806340870744833 ], [ -116.274219523733677, 36.776313560047349 ], [ -116.271663004809128, 36.755150888940335 ], [ -116.268254312909718, 36.740128676370865 ], [ -116.261436929110928, 36.730567555451607 ], [ -116.253767372337265, 36.719639102101397 ], [ -116.242689123664206, 36.708709093705302 ], [ -116.223941318217484, 36.699144060873913 ], [ -116.208602204670186, 36.692311165786364 ], [ -116.184741361374336, 36.687527777898509 ], [ -116.145541404531244, 36.68274409246456 ], [ -116.104637101738433, 36.685477663431605 ] ] ] ] } },
{ "type": "Feature", "properties": { "Exposure_rate_mR_per_hr": 0.5 }, "geometry": { "type": "MultiPolygon", "coordinates": [ [ [ [ -114.645716968794133, 37.90097848926176 ], [ -114.673838676964223, 37.898961180039237 ], [ -114.696847347285185, 37.885511038910977 ], [ -114.714742979757062, 37.865331220165558 ], [ -114.763316839323494, 37.814857492291061 ], [ -114.797403758317557, 37.781862672164763 ], [ -114.846829790858905, 37.72054748711016 ], [ -114.877508017953517, 37.681440973182355 ], [ -114.920968839670905, 37.63286626079848 ], [ -114.950794893790658, 37.586285680632699 ], [ -114.993403542533187, 37.511966476910672 ], [ -115.026638288552377, 37.443662700856038 ], [ -115.08543822381705, 37.385453852730073 ], [ -115.141681640157202, 37.331943080732167 ], [ -115.217525034918893, 37.279750305315495 ], [ -115.313820581077024, 37.226842775545933 ], [ -115.434829143505823, 37.165070377841538 ], [ -115.531976862638786, 37.122275270330476 ], [ -115.670881057539447, 37.070617211398556 ], [ -115.814046117314348, 37.018243532346041 ], [ -115.975106809561112, 36.964471953753097 ], [ -116.040724128624603, 36.941318056025374 ], [ -116.077367566543174, 36.927694828455799 ], [ -116.115715350411463, 36.912025106573935 ], [ -116.148950096430625, 36.890218398477067 ], [ -116.176219631625827, 36.873859278178372 ], [ -116.187297880298885, 36.860224000929811 ], [ -116.195819610047394, 36.844540423977918 ], [ -116.197523955997084, 36.822032280688667 ], [ -116.198376128971944, 36.806340870744833 ], [ -116.195819610047394, 36.791328686489685 ], [ -116.193263091122859, 36.78177394641606 ], [ -116.189854399223464, 36.767439602566483 ], [ -116.184741361374336, 36.755150888940335 ], [ -116.171958766751587, 36.744908790274771 ], [ -116.157471826179105, 36.739445778652922 ], [ -116.135315328832988, 36.732616467320106 ], [ -116.106341447688067, 36.727835587909254 ], [ -116.050950204322803, 36.723054410827565 ], [ -116.006637209630526, 36.723054410827565 ], [ -115.942724236516753, 36.730567555451607 ], [ -115.866880841755062, 36.742860206485318 ], [ -115.813193944339488, 36.749688606455216 ], [ -115.653837598042401, 36.778361250521499 ], [ -115.503002981493864, 36.804976248311561 ], [ -115.405855262360888, 36.822032280688667 ], [ -115.325751002724942, 36.844540423977918 ], [ -115.276324970183595, 36.867041943734677 ], [ -115.220933726818274, 36.892263042082021 ], [ -115.184290288899732, 36.920882301546655 ], [ -115.15361206180512, 36.954257866546001 ], [ -115.138272948257764, 36.985576725261708 ], [ -115.063281726470933, 37.114800626045977 ], [ -115.04538609399907, 37.137222344841241 ], [ -115.033455672351153, 37.148091090085451 ], [ -115.021525250703277, 37.156920795615925 ], [ -115.01129917500505, 37.161674825357437 ], [ -114.989994850633778, 37.171861025173563 ], [ -114.954203585690038, 37.186119398271373 ], [ -114.880916709852897, 37.218021242044252 ], [ -114.823821120537914, 37.249231264829355 ], [ -114.769282050147467, 37.290598538926162 ], [ -114.745421206851674, 37.315001346099983 ], [ -114.731786439254037, 37.333298254497358 ], [ -114.719003844631303, 37.363105891735621 ], [ -114.705369077033694, 37.41185649416186 ], [ -114.682360406712732, 37.511966476910672 ], [ -114.662760428291165, 37.572778610271989 ], [ -114.640603930945062, 37.648386637112111 ], [ -114.626969163347425, 37.724591810988585 ], [ -114.621003952523495, 37.785903646005451 ], [ -114.617595260624071, 37.81889666150002 ], [ -114.623560471448044, 37.849856282338919 ], [ -114.622708298473185, 37.860621800397247 ], [ -114.622708298473185, 37.874076487011173 ], [ -114.627821336322256, 37.888201263717477 ], [ -114.645716968794133, 37.90097848926176 ] ] ] ] } },
{ "type": "Feature", "properties": { "Exposure_rate_mR_per_hr": 0.5 }, "geometry": { "type": "MultiPolygon", "coordinates": [ [ [ [ -111.122833890761683, 39.495715743607917 ], [ -111.150955598931731, 39.481247079039683 ], [ -111.173112096277833, 39.460196374712972 ], [ -111.172259923303002, 39.428608377722981 ], [ -111.152659944881421, 39.414125757865456 ], [ -111.126242582661064, 39.409517020487712 ], [ -111.094712182591593, 39.402932581505823 ], [ -111.069999166320912, 39.393054757408066 ], [ -111.041877458150864, 39.371318621227154 ], [ -111.024833998653833, 39.354188413374168 ], [ -111.013755749980774, 39.337054004444276 ], [ -110.999268809408321, 39.337054004444276 ], [ -110.980521003961599, 39.352870531062301 ], [ -110.971147101238273, 39.383834193008319 ], [ -110.96944275528854, 39.423342318683837 ], [ -110.982225349911332, 39.449668634334948 ], [ -111.003529674282575, 39.474011617797359 ], [ -111.035060074352046, 39.491770042759711 ], [ -111.062329609547277, 39.499661220512188 ], [ -111.097268701516157, 39.502948946859817 ], [ -111.122833890761683, 39.495715743607917 ] ] ] ] } },
{ "type": "Feature", "properties": { "Exposure_rate_mR_per_hr": 0.5 }, "geometry": { "type": "MultiPolygon", "coordinates": [ [ [ [ -111.455181350953424, 39.779872217084872 ], [ -111.478190021274358, 39.777252559058716 ], [ -111.494381307796544, 39.772012943859721 ], [ -111.502050864570208, 39.757601945527504 ], [ -111.497789999695925, 39.748429739877601 ], [ -111.487563923997726, 39.743187931164933 ], [ -111.479894367224063, 39.733358465011399 ], [ -111.479894367224063, 39.718939378868818 ], [ -111.472224810450427, 39.711728705051968 ], [ -111.457737869877946, 39.70845087685764 ], [ -111.439842237406083, 39.714350855474549 ], [ -111.42450312385877, 39.726149298867078 ], [ -111.417685740059966, 39.740566877266488 ], [ -111.418537913034839, 39.756946828484757 ], [ -111.42450312385877, 39.768737981817964 ], [ -111.433877026582152, 39.774632801316436 ], [ -111.433877026582152, 39.777252559058716 ], [ -111.436433545506702, 39.778562400536408 ], [ -111.455181350953424, 39.779872217084872 ] ] ] ] } },
{ "type": "Feature", "properties": { "Exposure_rate_mR_per_hr": 0.5 }, "geometry": { "type": "MultiPolygon", "coordinates": [ [ [ [ -110.810086408991523, 39.770047985330599 ], [ -110.799860333293296, 39.770047985330599 ], [ -110.796451641393901, 39.778562400536408 ], [ -110.797303814368732, 39.796242820450452 ], [ -110.804121198167536, 39.815882402213852 ], [ -110.80497337114241, 39.833553228911306 ], [ -110.801564679243015, 39.84794831992059 ], [ -110.787077738670533, 39.86234039315427 ], [ -110.768329933223811, 39.867573126067555 ], [ -110.758956030500485, 39.870189342864627 ], [ -110.732538668280085, 39.87345947355189 ], [ -110.715495208783096, 39.883268930188684 ], [ -110.702712614160347, 39.90419108108167 ], [ -110.69419088441181, 39.924453324056998 ], [ -110.687373500613035, 39.942096199678986 ], [ -110.666069176241763, 39.959081336959784 ], [ -110.643912678895646, 39.960387711283175 ], [ -110.601304030153116, 39.960387711283175 ], [ -110.568921457108772, 39.962347225972138 ], [ -110.546764959762655, 39.970837807368987 ], [ -110.522051943491988, 39.993038957525798 ], [ -110.500747619120745, 40.019148721349111 ], [ -110.473478083925528, 40.04590086485149 ], [ -110.449617240629706, 40.059599118328016 ], [ -110.412121629736262, 40.06807760977788 ], [ -110.343095618773361, 40.086987365195185 ], [ -110.307304353829636, 40.103284663595595 ], [ -110.287704375408097, 40.119578058915344 ], [ -110.251913110464358, 40.146942175381547 ], [ -110.229756613118255, 40.165830015545282 ], [ -110.199930558998474, 40.174295272908466 ], [ -110.186295791400852, 40.175597526482704 ], [ -110.162434948105059, 40.174295272908466 ], [ -110.151356699431986, 40.164527574548295 ], [ -110.129200202085883, 40.159317560673486 ], [ -110.112156742588837, 40.165830015545282 ], [ -110.103635012840343, 40.179504137261532 ], [ -110.097669802016384, 40.199033817253017 ], [ -110.095965456066679, 40.212701247215506 ], [ -110.090000245242734, 40.223763338768237 ], [ -110.069548093846308, 40.226365921368711 ], [ -110.043130731625951, 40.234173069211728 ], [ -110.027791618078652, 40.249134253668998 ], [ -110.023530753204398, 40.269944314294598 ], [ -110.036313347827146, 40.293347981120498 ], [ -110.050800288399586, 40.315444004440309 ], [ -110.055913326248699, 40.338831915364914 ], [ -110.065287228972068, 40.366756853836954 ], [ -110.061026364097827, 40.381688701725622 ], [ -110.049948115424769, 40.39272315822604 ], [ -110.034609001877442, 40.407000359482538 ], [ -110.020974234279848, 40.425815680237413 ], [ -110.016713369405593, 40.447868320878882 ], [ -110.020122061304974, 40.460188704789715 ], [ -110.025235099154102, 40.477044516622854 ], [ -110.032052482952892, 40.487415221087183 ], [ -110.049095942449895, 40.502320301649817 ], [ -110.066991574921772, 40.515278549763963 ], [ -110.092556764167298, 40.528234293964069 ], [ -110.118121953412825, 40.539244707698394 ], [ -110.138574104809237, 40.543777881586387 ], [ -110.190556656275106, 40.56320229485879 ], [ -110.217826191470323, 40.566439149211917 ], [ -110.256173975338612, 40.571617790575708 ], [ -110.296226105156592, 40.572265092568699 ], [ -110.328608678200922, 40.572265092568699 ], [ -110.363547770169788, 40.567086501298022 ], [ -110.390817305365019, 40.556728116548086 ], [ -110.42575639733387, 40.548310748696871 ], [ -110.450469413604537, 40.539244707698394 ], [ -110.474330256900373, 40.527586566224784 ], [ -110.502451965070435, 40.510743447735088 ], [ -110.518643251592607, 40.495840238680877 ], [ -110.540799748938724, 40.474451590164726 ], [ -110.564660592234517, 40.458243531199301 ], [ -110.572330149008195, 40.442680114998339 ], [ -110.589373608505184, 40.42711309461496 ], [ -110.597043165278862, 40.412840160024835 ], [ -110.607269240977061, 40.39272315822604 ], [ -110.615790970725584, 40.37260014489086 ], [ -110.629425738323164, 40.347925025364255 ], [ -110.636243122121968, 40.338182360605202 ], [ -110.643912678895646, 40.330387215717828 ], [ -110.654990927568704, 40.321941459266718 ], [ -110.672886560040567, 40.316743545428267 ], [ -110.686521327638175, 40.315444004440309 ], [ -110.695895230361543, 40.315444004440309 ], [ -110.701008268210614, 40.316743545428267 ], [ -110.709529997959152, 40.323240875197044 ], [ -110.715495208783096, 40.335584079031022 ], [ -110.717199554732787, 40.357666282994337 ], [ -110.715495208783096, 40.368055406742691 ], [ -110.708677824984292, 40.380390411523358 ], [ -110.707825652009461, 40.401160052203743 ], [ -110.713790862833378, 40.407649251233785 ], [ -110.725721284481281, 40.410893616149153 ], [ -110.739356052078904, 40.410244755678285 ], [ -110.747877781827427, 40.407000359482538 ], [ -110.761512549425007, 40.399862137327396 ], [ -110.774295144047798, 40.397266232505856 ], [ -110.785373392720842, 40.397266232505856 ], [ -110.796451641393901, 40.401160052203743 ], [ -110.799860333293296, 40.40959588895128 ], [ -110.799860333293296, 40.41478664759461 ], [ -110.799008160318465, 40.431653847848658 ], [ -110.793895122469351, 40.440085861883063 ], [ -110.790486430569956, 40.455649878802895 ], [ -110.792190776519661, 40.470562012726852 ], [ -110.801564679243015, 40.477692732591294 ], [ -110.80923423601665, 40.477692732591294 ], [ -110.816903792790299, 40.47834094230123 ], [ -110.825425522538822, 40.475099831166858 ], [ -110.84843419285977, 40.470562012726852 ], [ -110.860364614507674, 40.457595127486847 ], [ -110.873147209130465, 40.449165309775054 ], [ -110.885077630778355, 40.441383000955149 ], [ -110.896155879451413, 40.43814010634626 ], [ -110.908938474074191, 40.437491508653075 ], [ -110.926834106546053, 40.445274267997434 ], [ -110.933651490344857, 40.456298301288641 ], [ -110.940468874143633, 40.46796883593661 ], [ -110.951547122816706, 40.477692732591294 ], [ -110.961773198514919, 40.476396294395961 ], [ -110.971147101238287, 40.469913727916598 ], [ -110.981373176936472, 40.458891928653927 ], [ -110.99330359858439, 40.440085861883063 ], [ -111.001825328332885, 40.41478664759461 ], [ -111.015460095930507, 40.39272315822604 ], [ -111.038468766251484, 40.370652437498464 ], [ -111.067442647396405, 40.354419353470156 ], [ -111.110903469113794, 40.338182360605202 ], [ -111.170555577353326, 40.321941459266718 ], [ -111.191859901724598, 40.314794224567208 ], [ -111.206346842297052, 40.31089541402234 ], [ -111.214868572045546, 40.303097117659362 ], [ -111.214868572045546, 40.295297920965794 ], [ -111.211459880146165, 40.287497823982228 ], [ -111.203790323372488, 40.277746436781911 ], [ -111.200381631473107, 40.266693164251031 ], [ -111.198677285523374, 40.249784664947796 ], [ -111.193564247674274, 40.233522507931418 ], [ -111.188451209825203, 40.210748925938702 ], [ -111.191859901724598, 40.19512833112573 ], [ -111.191859901724598, 40.181457358306311 ], [ -111.196972939573683, 40.177550859986781 ], [ -111.202938150397628, 40.186014655401664 ], [ -111.209755534196432, 40.21009813968189 ], [ -111.22679899369345, 40.232871940401338 ], [ -111.246398972115031, 40.247833412360407 ], [ -111.272816334335388, 40.260190395343621 ], [ -111.302642388455169, 40.264742399212977 ], [ -111.328207577700681, 40.266693164251031 ], [ -111.354624939921067, 40.264742399212977 ], [ -111.37848578321686, 40.257589112758609 ], [ -111.393824896764173, 40.24132883080388 ], [ -111.40660749138695, 40.21920857861614 ], [ -111.418537913034839, 40.19512833112573 ], [ -111.421094431959403, 40.181457358306311 ], [ -111.426207469808517, 40.165178798170409 ], [ -111.436433545506702, 40.143685120240889 ], [ -111.453477005003734, 40.127397502182191 ], [ -111.463703080701933, 40.114364597091551 ], [ -111.482450886148655, 40.098721813457537 ], [ -111.495233480771418, 40.084379435270861 ], [ -111.510572594318702, 40.06090357030542 ], [ -111.519094324067211, 40.043291361568201 ], [ -111.520798670016944, 40.03024234694562 ], [ -111.51568563216783, 40.019801337495764 ], [ -111.508868248369012, 40.008053291890768 ], [ -111.483303059123486, 40.000220138042394 ], [ -111.455181350953438, 39.998914525025683 ], [ -111.430468334682772, 40.000872935189264 ], [ -111.407459664361781, 40.002178510759833 ], [ -111.387007512965369, 40.001525726095075 ], [ -111.371668399418056, 39.995650383267517 ], [ -111.362294496694702, 39.983898181107769 ], [ -111.348659729097122, 39.971490885336451 ], [ -111.343546691248008, 39.959081336959791 ], [ -111.337581480424021, 39.952549090981421 ], [ -111.330764096625245, 39.945362899781934 ], [ -111.313720637128228, 39.944709572239013 ], [ -111.295825004656365, 39.951242566914871 ], [ -111.270259815410824, 39.953855590091273 ], [ -111.253216355913835, 39.957774937678693 ], [ -111.228503339643169, 39.957121728679084 ], [ -111.209755534196432, 39.952549090981421 ], [ -111.196120766598852, 39.941442840942003 ], [ -111.179077307101821, 39.938829343606919 ], [ -111.163738193554522, 39.938175953676492 ], [ -111.145842561082659, 39.942096199678986 ], [ -111.128799101585656, 39.945362899781934 ], [ -111.100677393415566, 39.949936017891851 ], [ -111.066590474421531, 39.94666953615102 ], [ -111.043581804100597, 39.942096199678986 ], [ -111.020573133779621, 39.935562331568896 ], [ -110.99074707965984, 39.921839177932632 ], [ -110.957512333640665, 39.896999812076473 ], [ -110.930242798445434, 39.876075465852395 ], [ -110.914051511923276, 39.855144733776612 ], [ -110.893599360526849, 39.832898834893847 ], [ -110.868886344256182, 39.813918696494838 ], [ -110.810086408991523, 39.770047985330599 ] ] ] ] } },
{ "type": "Feature", "properties": { "Exposure_rate_mR_per_hr": 1.0 }, "geometry": { "type": "MultiPolygon", "coordinates": [ [ [ [ -110.85099071178432, 40.423220776402466 ], [ -110.869738517231042, 40.417381876766271 ], [ -110.889338495652609, 40.406351461475282 ], [ -110.905529782174767, 40.391425080703392 ], [ -110.917460203822699, 40.37260014489086 ], [ -110.935355836294548, 40.355068751883366 ], [ -110.957512333640665, 40.337532799591948 ], [ -110.997564463458644, 40.319992288473976 ], [ -111.064886128471841, 40.297897753231219 ], [ -111.127094755635937, 40.280346944235603 ], [ -111.164590366529353, 40.270594525550123 ], [ -111.181633826026385, 40.260840700363076 ], [ -111.182485999001202, 40.245231654739918 ], [ -111.167999058428762, 40.227016551395124 ], [ -111.160329501655099, 40.210098139681897 ], [ -111.156920809755718, 40.195779261101315 ], [ -111.155216463805985, 40.178201958659436 ], [ -111.161181674629958, 40.159968834272696 ], [ -111.164590366529353, 40.151501790222085 ], [ -111.18759903685033, 40.142382254459356 ], [ -111.200381631473078, 40.137170541479364 ], [ -111.211459880146123, 40.134564535079789 ], [ -111.21998160989466, 40.134564535079789 ], [ -111.223390301794041, 40.139776447939745 ], [ -111.223390301794041, 40.155409787891642 ], [ -111.223390301794041, 40.175597526482704 ], [ -111.225946820718605, 40.199684709737959 ], [ -111.23617289641679, 40.217256444811895 ], [ -111.25747722078809, 40.23352250793144 ], [ -111.278781545159319, 40.239377334459853 ], [ -111.298381523580915, 40.245231654739918 ], [ -111.317129329027608, 40.247182982330663 ], [ -111.348659729097079, 40.236775251834864 ], [ -111.363146669669561, 40.223112677494541 ], [ -111.37848578321686, 40.20879654842156 ], [ -111.388711858915059, 40.195128331125758 ], [ -111.392972723789313, 40.178853051084353 ], [ -111.389564031889918, 40.161922617587877 ], [ -111.385303167015678, 40.143685120240889 ], [ -111.384450994040805, 40.126094324094929 ], [ -111.387007512965369, 40.113712886259265 ], [ -111.396381415688737, 40.107195434447746 ], [ -111.414277048160585, 40.101981023351868 ], [ -111.430468334682772, 40.098069952744304 ], [ -111.449216140129451, 40.094158657326346 ], [ -111.456033523928255, 40.085683412721558 ], [ -111.46029438880251, 40.072642514279316 ], [ -111.461998734752243, 40.062207997309521 ], [ -111.470520464500737, 40.054381060689273 ], [ -111.484155232098345, 40.047205579036699 ], [ -111.494381307796544, 40.043291361568215 ], [ -111.497789999695968, 40.032199858318975 ], [ -111.479894367224091, 40.028284779392827 ], [ -111.461146561777369, 40.033504834690056 ], [ -111.439842237406083, 40.032199858318975 ], [ -111.407459664361781, 40.029589830670155 ], [ -111.383598821065974, 40.023716903297796 ], [ -111.363146669669561, 40.017190835458848 ], [ -111.352920593971334, 40.008706014143556 ], [ -111.347807556122248, 39.998914525025683 ], [ -111.340137999348585, 39.988468722210477 ], [ -111.33161626960009, 39.979980331073044 ], [ -111.323094539851581, 39.972797022551653 ], [ -111.309459772253931, 39.970837807368987 ], [ -111.294972831681491, 39.970184723161651 ], [ -111.271111988385684, 39.974756181574719 ], [ -111.242138107240763, 39.980633321679576 ], [ -111.205494669322178, 39.977368306244934 ], [ -111.186746863875456, 39.970837807368987 ], [ -111.168851231403593, 39.96953163271445 ], [ -111.146694734057476, 39.970184723161651 ], [ -111.104938258289806, 39.974103134807017 ], [ -111.061477436572432, 39.977368306244934 ], [ -111.035060074352046, 39.971490885336451 ], [ -111.012903577005943, 39.961694060648668 ], [ -110.968590582313723, 39.934908910445664 ], [ -110.947286257942437, 39.925106844992968 ], [ -110.936208009269379, 39.912688880522957 ], [ -110.916608030847826, 39.900268664272332 ], [ -110.89530370647654, 39.885884548309697 ], [ -110.871442863180732, 39.876075465852402 ], [ -110.850138538809489, 39.870189342864634 ], [ -110.833947252287317, 39.868227189620654 ], [ -110.814347273865764, 39.87476748217442 ], [ -110.793042949494478, 39.882615010067212 ], [ -110.776851662972305, 39.885884548309697 ], [ -110.756399511575921, 39.886538437248589 ], [ -110.742764743978313, 39.895038425914677 ], [ -110.730834322330395, 39.908113273348697 ], [ -110.715495208783096, 39.936869155099821 ], [ -110.701008268210614, 39.955162064244234 ], [ -110.687373500613006, 39.966266086881532 ], [ -110.676295251939948, 39.97671528443751 ], [ -110.644764851870463, 39.978674331139352 ], [ -110.615790970725556, 39.978021321812221 ], [ -110.590225781480044, 39.978021321812221 ], [ -110.568069284133941, 39.985204081196557 ], [ -110.558695381410573, 39.994997536193289 ], [ -110.554434516536318, 40.006095087684692 ], [ -110.559547554385404, 40.027632244391022 ], [ -110.562956246284827, 40.05372877539029 ], [ -110.574886667932716, 40.082423422263261 ], [ -110.581704051731535, 40.10849897477145 ], [ -110.585964916605775, 40.142382254459356 ], [ -110.58426057065607, 40.164527574548295 ], [ -110.58255622470638, 40.189920666382498 ], [ -110.58085187875669, 40.212701247215506 ], [ -110.569773630083631, 40.24132883080388 ], [ -110.558695381410573, 40.262791577916779 ], [ -110.548469305712359, 40.274495661808977 ], [ -110.539947575963851, 40.288797902664584 ], [ -110.523756289441678, 40.307646233288878 ], [ -110.51438238671831, 40.329737579663679 ], [ -110.518643251592593, 40.348574486317816 ], [ -110.524608462416552, 40.357016909597917 ], [ -110.53653888406447, 40.36156239203271 ], [ -110.545912786787795, 40.362211721648862 ], [ -110.562956246284827, 40.360913056162147 ], [ -110.568069284133941, 40.359614365657983 ], [ -110.576591013882449, 40.354419353470156 ], [ -110.596190992303988, 40.345976604980265 ], [ -110.605564895027356, 40.338182360605202 ], [ -110.61749531667526, 40.330387215717828 ], [ -110.629425738323164, 40.318692810014241 ], [ -110.643912678895646, 40.309595760486538 ], [ -110.666069176241749, 40.304396896243908 ], [ -110.681408289789061, 40.303097117659362 ], [ -110.695895230361529, 40.302447218988625 ], [ -110.711234343908842, 40.302447218988625 ], [ -110.718903900682477, 40.30894592433981 ], [ -110.733390841254945, 40.317393306543075 ], [ -110.742764743978313, 40.331036845518689 ], [ -110.746173435877708, 40.345976604980265 ], [ -110.74106039802858, 40.357666282994337 ], [ -110.746173435877708, 40.370003189191536 ], [ -110.756399511575921, 40.37389858521189 ], [ -110.774295144047755, 40.371301679550683 ], [ -110.788782084620223, 40.36935393462992 ], [ -110.80838206304179, 40.367406133417127 ], [ -110.819460311714863, 40.367406133417127 ], [ -110.829686387413062, 40.37389858521189 ], [ -110.830538560387893, 40.388828850592795 ], [ -110.833947252287317, 40.403755806886643 ], [ -110.835651598237007, 40.411542470363891 ], [ -110.836503771211881, 40.418679453813937 ], [ -110.838208117161571, 40.423220776402466 ], [ -110.85099071178432, 40.423220776402466 ] ] ] ] } },
{ "type": "Feature", "properties": { "Exposure_rate_mR_per_hr": 1.0 }, "geometry": { "type": "MultiPolygon", "coordinates": [ [ [ [ -111.081077414994013, 39.480589340935552 ], [ -111.099825220440692, 39.48124707903969 ], [ -111.121129544811993, 39.474669418100518 ], [ -111.144990388107786, 39.465459647869785 ], [ -111.156068636780844, 39.449010597701097 ], [ -111.148399080007209, 39.437164874923639 ], [ -111.133059966459868, 39.430583047269508 ], [ -111.114312161013174, 39.425975397945017 ], [ -111.093007836641917, 39.425317137456219 ], [ -111.071703512270645, 39.424000597825597 ], [ -111.052103533849092, 39.418075861719075 ], [ -111.032503555427496, 39.404249519036803 ], [ -111.021425306754452, 39.391737608516046 ], [ -111.013755749980774, 39.375929882412187 ], [ -111.011199231056253, 39.362754042466619 ], [ -111.004381847257449, 39.353529475325537 ], [ -110.998416636433461, 39.360118576151102 ], [ -110.99500794453408, 39.375271149460765 ], [ -111.000973155358025, 39.398323104322373 ], [ -111.006086193207139, 39.418734190600745 ], [ -111.014607922955634, 39.43848116583721 ], [ -111.022277479729311, 39.449010597701097 ], [ -111.029947036502946, 39.458880494231622 ], [ -111.055512225748487, 39.475327212183878 ], [ -111.081077414994013, 39.480589340935552 ] ] ] ] } },
{ "type": "Feature", "properties": { "Exposure_rate_mR_per_hr": 1.0 }, "geometry": { "type": "MultiPolygon", "coordinates": [ [ [ [ -115.384550937989587, 36.873177572111445 ], [ -115.327455348674576, 36.886810537435167 ], [ -115.291664083730893, 36.901122531497535 ], [ -115.258429337711704, 36.920201015376882 ], [ -115.235420667390713, 36.936550203371681 ], [ -115.215820688969146, 36.950852866353955 ], [ -115.19792505649734, 36.972642237008174 ], [ -115.183438115924844, 36.99578661019018 ], [ -115.168099002377559, 37.018243532346041 ], [ -115.148499023955992, 37.054296824017612 ], [ -115.126342526609889, 37.08353502785787 ], [ -115.109299067112843, 37.108684459106357 ], [ -115.082029531917641, 37.138581023401322 ], [ -115.05902086159665, 37.156241624104609 ], [ -115.036864364250548, 37.175256120011326 ], [ -114.989142677658919, 37.20037507994433 ], [ -114.954203585690038, 37.215985357022987 ], [ -114.912447109922368, 37.240412350727361 ], [ -114.892847131500815, 37.255336062336966 ], [ -114.875803672003727, 37.266865996822837 ], [ -114.851942828707919, 37.291276501600393 ], [ -114.825525466487576, 37.325166845215705 ], [ -114.795699412367796, 37.360396595556338 ], [ -114.769282050147424, 37.401025766527468 ], [ -114.754795109574928, 37.427422921949663 ], [ -114.739455996027658, 37.456516693270999 ], [ -114.721560363555767, 37.498445934277981 ], [ -114.708777768933018, 37.533594251468202 ], [ -114.699403866209664, 37.567375096055727 ], [ -114.687473444561775, 37.601140627688089 ], [ -114.686621271586915, 37.621392594459579 ], [ -114.682360406712647, 37.654458945184153 ], [ -114.687473444561775, 37.67941766135668 ], [ -114.688325617536606, 37.703019532085122 ], [ -114.691734309436015, 37.714480587264326 ], [ -114.697699520259974, 37.727961912202275 ], [ -114.702812558109045, 37.738745205517411 ], [ -114.711334287857568, 37.74481011785214 ], [ -114.718151671656386, 37.746831644865964 ], [ -114.727525574379754, 37.746831644865964 ], [ -114.736899477103108, 37.747505474933462 ], [ -114.748829898750998, 37.742788535622097 ], [ -114.757351628499535, 37.737397379737054 ], [ -114.781212471795328, 37.725939869876363 ], [ -114.801664623191755, 37.706390614659874 ], [ -114.828934158386986, 37.682115398194398 ], [ -114.858760212506738, 37.648386637112111 ], [ -114.88006453687801, 37.622742529485443 ], [ -114.901368861249267, 37.593038296893972 ], [ -114.91926449372113, 37.562646699543741 ], [ -114.941420991067261, 37.518049922189348 ], [ -114.957612277589419, 37.484246729319722 ], [ -114.972099218161887, 37.452457776393857 ], [ -114.986586158734312, 37.419978512363592 ], [ -115.008742656080457, 37.386808060607024 ], [ -115.045386093999014, 37.34888099560505 ], [ -115.073507802169104, 37.323811524776531 ], [ -115.123786007685283, 37.283818576184814 ], [ -115.153612061805063, 37.260083896179481 ], [ -115.184290288899675, 37.237698631080114 ], [ -115.214116343019413, 37.215985357022987 ], [ -115.266951067460184, 37.193586995789019 ], [ -115.322342310825462, 37.169823895044708 ], [ -115.526863824789658, 37.080815670446768 ], [ -115.579698549230386, 37.059737343258085 ], [ -115.6589506358915, 37.0298096604336 ], [ -115.699854938684311, 37.014841394848986 ], [ -115.770585295596931, 36.991702820682185 ], [ -115.882219955302361, 36.956300793593691 ], [ -115.947837274365824, 36.935187904964621 ], [ -115.995558960957482, 36.920882301546641 ], [ -116.029645879951516, 36.90793682350278 ], [ -116.058619761096423, 36.897715157277823 ], [ -116.073958874643765, 36.891581500298805 ], [ -116.090150161165923, 36.882039276414609 ], [ -116.100376236864093, 36.870450687004293 ], [ -116.110602312562335, 36.858178499464223 ], [ -116.121680561235394, 36.844540423977897 ], [ -116.124237080159944, 36.821350112358928 ], [ -116.122532734210253, 36.808387758795853 ], [ -116.119976215285675, 36.798152771366894 ], [ -116.119124042310816, 36.786551465378572 ], [ -116.112306658512026, 36.779043801856751 ], [ -116.102080582813784, 36.772218014995332 ], [ -116.094411026040163, 36.765391620363616 ], [ -116.085037123316795, 36.758564618004378 ], [ -116.075663220593455, 36.755833646906581 ], [ -116.066289317870087, 36.751054213535085 ], [ -116.054358896222183, 36.749005793800812 ], [ -116.039871955649687, 36.748322975070153 ], [ -116.025385015077262, 36.744225935087542 ], [ -116.004932863680835, 36.744225935087542 ], [ -115.982776366334733, 36.744225935087542 ], [ -115.966585079812546, 36.744225935087542 ], [ -115.937611198667625, 36.744908790274756 ], [ -115.900967760749054, 36.749688606455202 ], [ -115.80808090649036, 36.765391620363616 ], [ -115.384550937989587, 36.873177572111445 ] ] ] ] } }
]
}
