{
  "type": "FeatureCollection",
  "name": "Plumbbob Doppler \u2014 H+12 dose-rate contours (hand-traced from DASA-1251 Fig. 202)",
  "description": "Plumbbob Doppler \u2014 H+12 dose-rate contours (hand-traced from DASA-1251 Fig. 202).  GZ = (37.0867, -116.0237).  Pixel-to-mile calibration: X = [704, 2618] px -> [-80.0, 140.0] mi; Y = [2645, 150] px -> [-20.0, 220.0] mi.  Mile-to-lonlat via local equirectangular at GZ. Dose values are mR/h at H+12 derived from r/hr at H+1 via Hicks UCRL-53152 Pt.6 (105:1 decay).",
  "crs": {
    "type": "name",
    "properties": {
      "name": "urn:ogc:def:crs:OGC:1.3:CRS84"
    }
  },
  "features": [
    {
      "type": "Feature",
      "geometry": {
        "type": "Polygon",
        "coordinates": [
          [
            [
              -116.05699450493753,
              37.06141034245595
            ],
            [
              -116.06979365895926,
              37.083142056965194
            ],
            [
              -116.04999489224706,
              37.11340001915899
            ],
            [
              -116.00349161879384,
              37.17316593998145
            ],
            [
              -115.94384936763667,
              37.23048679664198
            ],
            [
              -115.87718444225024,
              37.321847438576896
            ],
            [
              -115.76529287675497,
              37.48339238022964
            ],
            [
              -115.63863516524283,
              37.70717031443233
            ],
            [
              -115.47910384730078,
              38.023774036225326
            ],
            [
              -115.29763721246312,
              38.27710633200305
            ],
            [
              -115.16090383225466,
              38.40521484458996
            ],
            [
              -115.07707999074682,
              38.51196693977044
            ],
            [
              -115.1065573012579,
              38.57725980943505
            ],
            [
              -115.22435166901062,
              38.62706564560485
            ],
            [
              -115.48902193905724,
              38.69989009856919
            ],
            [
              -115.63175466460075,
              38.84875476205017
            ],
            [
              -115.65117817001791,
              38.99869261845033
            ],
            [
              -115.60374536953556,
              39.08754602030587
            ],
            [
              -115.53727038246515,
              39.160268530178776
            ],
            [
              -115.4335325152239,
              39.23216851888619
            ],
            [
              -115.36396602696273,
              39.322025251972846
            ],
            [
              -115.23349089321665,
              39.50720168684125
            ],
            [
              -115.10421015995243,
              39.665043004601486
            ],
            [
              -114.94343064773982,
              39.79429027701975
            ],
            [
              -114.8033488946607,
              39.89619861656461
            ],
            [
              -114.5809153928479,
              39.994115928229895
            ],
            [
              -114.49282123144646,
              40.04592857689278
            ],
            [
              -114.27911392119366,
              40.123339836780914
            ],
            [
              -114.02560036431642,
              40.12197617385133
            ],
            [
              -113.89582822436026,
              40.057651310886015
            ],
            [
              -113.76199825641757,
              39.94153946741551
            ],
            [
              -113.65144735094223,
              39.75557695914049
            ],
            [
              -113.57450284857136,
              39.608883376459346
            ],
            [
              -113.63416018825403,
              39.5751165598576
            ],
            [
              -113.83999951218723,
              39.512716850554895
            ],
            [
              -114.08112852188887,
              39.43451204423554
            ],
            [
              -114.25630328545184,
              39.35955964911069
            ],
            [
              -114.3812056831736,
              39.29700999445291
            ],
            [
              -114.47258595592481,
              39.22008921975629
            ],
            [
              -114.4882409649363,
              39.138603734219636
            ],
            [
              -114.46872433901466,
              39.08575742659951
            ],
            [
              -114.44673774677352,
              38.98760391887487
            ],
            [
              -114.44482514938244,
              38.941641056534344
            ],
            [
              -114.43441120907296,
              38.895081212371856
            ],
            [
              -114.42877414412449,
              38.850966103998445
            ],
            [
              -114.43898221518101,
              38.64847737827898
            ],
            [
              -114.45568399731282,
              38.594298768228725
            ],
            [
              -114.47642120019367,
              38.50922613779485
            ],
            [
              -114.50247655656733,
              38.45674371419115
            ],
            [
              -114.54276463820128,
              38.38739000336018
            ],
            [
              -114.57752494125509,
              38.349010771013596
            ],
            [
              -114.63276342602751,
              38.30736258705113
            ],
            [
              -114.68175688095258,
              38.28554193041281
            ],
            [
              -114.76340355783302,
              38.28257677058375
            ],
            [
              -114.84863528742686,
              38.27146416459555
            ],
            [
              -114.97755365798952,
              38.239126195016404
            ],
            [
              -115.04055905990006,
              38.20925378944644
            ],
            [
              -115.10297154209697,
              38.16735074125022
            ],
            [
              -115.16267252175719,
              38.114352678467895
            ],
            [
              -115.28240464191543,
              37.99687301958269
            ],
            [
              -115.33560232572981,
              37.93593513609654
            ],
            [
              -115.3997764887492,
              37.862978853599984
            ],
            [
              -115.43720042857662,
              37.817130734111615
            ],
            [
              -115.48259425031921,
              37.75366874243006
            ],
            [
              -115.5209861357906,
              37.69296385842524
            ],
            [
              -115.57040701339156,
              37.61117706735327
            ],
            [
              -115.6273861505808,
              37.55396161837416
            ],
            [
              -115.66777408809676,
              37.49395063308931
            ],
            [
              -115.70244621126173,
              37.44235828752192
            ],
            [
              -115.74095119702532,
              37.39080018655063
            ],
            [
              -115.76459781343183,
              37.350296006650105
            ],
            [
              -115.79989265623333,
              37.303529756702865
            ],
            [
              -115.84453366988323,
              37.255281555628166
            ],
            [
              -115.87970547908492,
              37.21941043502867
            ],
            [
              -115.90540509524831,
              37.18438520286337
            ],
            [
              -115.93083360762967,
              37.15587474709988
            ],
            [
              -115.95877611818538,
              37.12889108430822
            ],
            [
              -115.97164770983646,
              37.104742451880426
            ],
            [
              -115.99358672676209,
              37.08448428703264
            ],
            [
              -116.0094176889246,
              37.0602968596994
            ],
            [
              -116.03627125336966,
              37.050410538624604
            ],
            [
              -116.05699450493753,
              37.06141034245595
            ]
          ]
        ]
      },
      "properties": {
        "Contours": 0.0019047619047619048,
        "level_r_per_hr_H1": 0.0002,
        "level_mR_per_hr_H12": 0.0019047619047619048,
        "source": "DASA-1251 Vol I Fig. 202 \u2014 hand-traced in trace_doppler.py",
        "calibration_correction": "calibration_correction: per-point affine remap true_X_mi=-20.3371+0.98315*buggy_X_mi, true_Y_mi=-1.3460+0.99526*buggy_Y_mi (empirical gridlines PX_X0=694, PX_Y0=2644). Applied 2026-05-20."
      }
    },
    {
      "type": "Feature",
      "geometry": {
        "type": "Polygon",
        "coordinates": [
          [
            [
              -115.4469667209623,
              37.91446201964599
            ],
            [
              -115.45791977193845,
              37.95919800886059
            ],
            [
              -115.42043529784085,
              38.034630536645786
            ],
            [
              -115.32940195997273,
              38.16597864164598
            ],
            [
              -115.249711672719,
              38.27116370663744
            ],
            [
              -115.16822311550747,
              38.35708266529058
            ],
            [
              -115.09859455003001,
              38.41763828174511
            ],
            [
              -115.0608892245758,
              38.47464407053009
            ],
            [
              -115.03463566676558,
              38.52541101554838
            ],
            [
              -115.02962965729951,
              38.577624349337825
            ],
            [
              -115.06563833314704,
              38.62635593418386
            ],
            [
              -115.145022597557,
              38.675164364138126
            ],
            [
              -115.23312087061196,
              38.71005693954012
            ],
            [
              -115.30357321807125,
              38.73670501115374
            ],
            [
              -115.38941268020588,
              38.7819924633379
            ],
            [
              -115.4523831703159,
              38.83824796416342
            ],
            [
              -115.48984560897159,
              38.89447321059194
            ],
            [
              -115.51406022468834,
              38.94339592602191
            ],
            [
              -115.52537359405491,
              38.989395041193
            ],
            [
              -115.52590642016182,
              39.03379603330588
            ],
            [
              -115.51634561156332,
              39.070864929019784
            ],
            [
              -115.49275306197602,
              39.092669369317235
            ],
            [
              -115.4548415913436,
              39.10852861935798
            ],
            [
              -115.40544458853468,
              39.122972831672584
            ],
            [
              -115.36226766612494,
              39.12543845725166
            ],
            [
              -115.31916255688226,
              39.13114894888525
            ],
            [
              -115.25718851984733,
              39.1292274986709
            ],
            [
              -115.20748451393402,
              39.12346314802786
            ],
            [
              -115.17750146382308,
              39.14202279556833
            ],
            [
              -115.17196320914529,
              39.15954298744694
            ],
            [
              -115.1980817088254,
              39.18079551216273
            ],
            [
              -115.22070902845371,
              39.24208659582044
            ],
            [
              -115.22936320489485,
              39.29466876267409
            ],
            [
              -115.21986077626228,
              39.338243134801886
            ],
            [
              -115.21909835133415,
              39.36613524105364
            ],
            [
              -115.2033716308123,
              39.399262079468954
            ],
            [
              -115.1923935831903,
              39.43497517650332
            ],
            [
              -115.16854696457217,
              39.47703886328525
            ],
            [
              -115.14596219551602,
              39.5163654102268
            ],
            [
              -115.1223798842063,
              39.54706868117357
            ],
            [
              -115.10610871967388,
              39.56799086867676
            ],
            [
              -115.08380902492894,
              39.57306285105181
            ],
            [
              -115.0540695151236,
              39.56485332483463
            ],
            [
              -115.04819840750577,
              39.53781349269604
            ],
            [
              -115.03804232656817,
              39.50713587587734
            ],
            [
              -115.03091924460648,
              39.47525963955695
            ],
            [
              -115.02256626231791,
              39.45148462505475
            ],
            [
              -114.99623762380526,
              39.42073834312983
            ],
            [
              -114.98638491537713,
              39.39898159019158
            ],
            [
              -114.97095750109848,
              39.3892763550101
            ],
            [
              -114.94397346759523,
              39.400940216902384
            ],
            [
              -114.91287698664166,
              39.434220804172135
            ],
            [
              -114.87943124532339,
              39.47386622459591
            ],
            [
              -114.81756285859994,
              39.55390417229102
            ],
            [
              -114.77021002594111,
              39.611727873317044
            ],
            [
              -114.70726436910017,
              39.663801971158804
            ],
            [
              -114.63422478710626,
              39.729413942959496
            ],
            [
              -114.53821126126383,
              39.78953617153332
            ],
            [
              -114.44844407634719,
              39.848483787240085
            ],
            [
              -114.34641579157238,
              39.89574748685616
            ],
            [
              -114.27785200696596,
              39.93135260200057
            ],
            [
              -114.18614681049394,
              39.96157898469568
            ],
            [
              -114.10537333525309,
              39.99049391370406
            ],
            [
              -114.00963466405105,
              40.01710585976458
            ],
            [
              -113.94421956959602,
              40.0090730254383
            ],
            [
              -113.87919703321408,
              39.960567425515926
            ],
            [
              -113.81724518592134,
              39.90002929509833
            ],
            [
              -113.79490312894133,
              39.85326204867146
            ],
            [
              -113.74346554119475,
              39.75214584475257
            ],
            [
              -113.71731419597644,
              39.6887218539812
            ],
            [
              -113.7964169667494,
              39.65755730440347
            ],
            [
              -113.90883644978727,
              39.613799688503725
            ],
            [
              -113.9850315270289,
              39.58419136506221
            ],
            [
              -114.06809634332036,
              39.552011061356374
            ],
            [
              -114.14576239238995,
              39.51326928193993
            ],
            [
              -114.20703804819074,
              39.47535312566245
            ],
            [
              -114.26143944115303,
              39.46422648282383
            ],
            [
              -114.32558127463253,
              39.42090570816561
            ],
            [
              -114.39408577843166,
              39.369565727936646
            ],
            [
              -114.4623026710414,
              39.32264845067148
            ],
            [
              -114.54976256751934,
              39.23957133630187
            ],
            [
              -114.61765554299073,
              39.158561039889015
            ],
            [
              -114.64389354029817,
              39.081547576461176
            ],
            [
              -114.6549342361042,
              39.02758400352706
            ],
            [
              -114.64141296469965,
              38.95792846470786
            ],
            [
              -114.64352055340065,
              38.92404909634555
            ],
            [
              -114.64015473665609,
              38.846085513960055
            ],
            [
              -114.66045656948882,
              38.78361885736985
            ],
            [
              -114.68348914859958,
              38.71361882025935
            ],
            [
              -114.71671221193826,
              38.66091493373017
            ],
            [
              -114.7524137383205,
              38.60487943537726
            ],
            [
              -114.79703374958939,
              38.54503213397999
            ],
            [
              -114.85262836849162,
              38.475846615435884
            ],
            [
              -114.92592298843137,
              38.40006088528022
            ],
            [
              -114.98752624188607,
              38.34163441027984
            ],
            [
              -115.0375986692238,
              38.297589708194984
            ],
            [
              -115.10316863124235,
              38.24181557226648
            ],
            [
              -115.1426173139066,
              38.210558307753665
            ],
            [
              -115.1677891076036,
              38.182798937793
            ],
            [
              -115.2089013401947,
              38.14163688929591
            ],
            [
              -115.23935891132763,
              38.103427012492574
            ],
            [
              -115.28701444029764,
              38.05887896267159
            ],
            [
              -115.30772570779693,
              38.035265483051695
            ],
            [
              -115.3327943982717,
              38.00650754906117
            ],
            [
              -115.34736031662948,
              37.98244569483674
            ],
            [
              -115.36628266522193,
              37.95795310322083
            ],
            [
              -115.39409883674809,
              37.929621898164264
            ],
            [
              -115.42456888805097,
              37.922893301384974
            ],
            [
              -115.4469667209623,
              37.91446201964599
            ]
          ]
        ]
      },
      "properties": {
        "Contours": 0.09523809523809523,
        "level_r_per_hr_H1": 0.01,
        "level_mR_per_hr_H12": 0.09523809523809523,
        "source": "DASA-1251 Vol I Fig. 202 \u2014 hand-traced in trace_doppler.py",
        "calibration_correction": "calibration_correction: per-point affine remap true_X_mi=-20.3371+0.98315*buggy_X_mi, true_Y_mi=-1.3460+0.99526*buggy_Y_mi (empirical gridlines PX_X0=694, PX_Y0=2644). Applied 2026-05-20."
      }
    },
    {
      "type": "Feature",
      "geometry": {
        "type": "Polygon",
        "coordinates": [
          [
            [
              -115.16970589822282,
              38.28771738126381
            ],
            [
              -115.16650870559273,
              38.32894788963411
            ],
            [
              -115.13111884649221,
              38.355905833795894
            ],
            [
              -115.09348936416538,
              38.38524470093559
            ],
            [
              -115.06546434834063,
              38.419866486021114
            ],
            [
              -115.03648003857957,
              38.45290159993394
            ],
            [
              -115.00901876337728,
              38.499176149668926
            ],
            [
              -114.9878208089594,
              38.5584595779122
            ],
            [
              -114.99177852045528,
              38.61176896599929
            ],
            [
              -115.01055123748279,
              38.66523869238685
            ],
            [
              -115.04774178088672,
              38.71019168803841
            ],
            [
              -115.09240490546999,
              38.75332481649305
            ],
            [
              -115.14693562392047,
              38.79906061121408
            ],
            [
              -115.20921312422975,
              38.83866235731723
            ],
            [
              -115.28721950090734,
              38.88428156106272
            ],
            [
              -115.3415440923326,
              38.917182210695664
            ],
            [
              -115.3958747650043,
              38.97630801264629
            ],
            [
              -115.4033697651071,
              39.011808744808455
            ],
            [
              -115.39961972363928,
              39.04246627077998
            ],
            [
              -115.37324907914368,
              39.071131094028885
            ],
            [
              -115.33592819738296,
              39.09005057369949
            ],
            [
              -115.27772631213878,
              39.08884999715431
            ],
            [
              -115.22803789963054,
              39.08175278262224
            ],
            [
              -115.17752470672684,
              39.082876140241915
            ],
            [
              -115.1348329044071,
              39.101054178962386
            ],
            [
              -115.10793890965725,
              39.1316969354859
            ],
            [
              -115.09486241449146,
              39.162926603486646
            ],
            [
              -115.10026764417226,
              39.199446244318445
            ],
            [
              -115.12658255903624,
              39.26186034446921
            ],
            [
              -115.14126740774086,
              39.303395074149726
            ],
            [
              -115.13348486452229,
              39.352629377289546
            ],
            [
              -115.13146461999256,
              39.377694816423194
            ],
            [
              -115.1113338789443,
              39.41392610485542
            ],
            [
              -115.09973757731748,
              39.43488340186532
            ],
            [
              -115.08169769586969,
              39.43480838186509
            ],
            [
              -115.06368213940769,
              39.42214216921038
            ],
            [
              -115.05995297386052,
              39.38360402493284
            ],
            [
              -115.05267417568375,
              39.35887040362148
            ],
            [
              -115.04381643178682,
              39.32665790764978
            ],
            [
              -115.02462383645963,
              39.30927969134519
            ],
            [
              -114.99623621496967,
              39.30309939199929
            ],
            [
              -114.95598362783062,
              39.314909526400115
            ],
            [
              -114.9283272081527,
              39.34406932772585
            ],
            [
              -114.89641246372152,
              39.36857968482545
            ],
            [
              -114.87998892312132,
              39.392839364445
            ],
            [
              -114.86044561232718,
              39.41374725893399
            ],
            [
              -114.84311732747896,
              39.43851771224352
            ],
            [
              -114.81548686655452,
              39.46525657015153
            ],
            [
              -114.79590198544885,
              39.48720228406742
            ],
            [
              -114.76930279500453,
              39.50909949335688
            ],
            [
              -114.72674570738653,
              39.554315323796544
            ],
            [
              -114.68356077384225,
              39.59378309751484
            ],
            [
              -114.62892032066107,
              39.6324889064079
            ],
            [
              -114.56470913714627,
              39.66899056472666
            ],
            [
              -114.50313545318514,
              39.70020828866931
            ],
            [
              -114.44108064449027,
              39.719723678804264
            ],
            [
              -114.366710886273,
              39.7406621787253
            ],
            [
              -114.30500814600896,
              39.76573729942912
            ],
            [
              -114.23176443948982,
              39.774833921115345
            ],
            [
              -114.18012738175413,
              39.76796217229716
            ],
            [
              -114.16060974323689,
              39.7470565274118
            ],
            [
              -114.17370363973056,
              39.687031271974874
            ],
            [
              -114.19756522831254,
              39.65961442470859
            ],
            [
              -114.21246130389365,
              39.64151731273682
            ],
            [
              -114.23746708296623,
              39.62306721885976
            ],
            [
              -114.27347986138602,
              39.58482813758026
            ],
            [
              -114.30087247296234,
              39.54455143136744
            ],
            [
              -114.34218024712538,
              39.5070352925793
            ],
            [
              -114.3829241445187,
              39.464275450012536
            ],
            [
              -114.42014454956566,
              39.43601193062425
            ],
            [
              -114.4636876356236,
              39.390661708286
            ],
            [
              -114.50771608683665,
              39.35960935612119
            ],
            [
              -114.54559317573539,
              39.31861818244146
            ],
            [
              -114.58540809465975,
              39.283034257606836
            ],
            [
              -114.61968386033408,
              39.245220164445485
            ],
            [
              -114.65260791014627,
              39.21336451739531
            ],
            [
              -114.68060853291155,
              39.14382827027166
            ],
            [
              -114.69945597212025,
              39.101610279538605
            ],
            [
              -114.70845746488384,
              39.0376196303079
            ],
            [
              -114.70574234718227,
              38.994805914072174
            ],
            [
              -114.68953253516533,
              38.95544377752524
            ],
            [
              -114.69319728034432,
              38.9144761506702
            ],
            [
              -114.69662841943301,
              38.86937124593168
            ],
            [
              -114.70473565129132,
              38.84054379383517
            ],
            [
              -114.71614163077808,
              38.79599685318873
            ],
            [
              -114.7378112902378,
              38.747791601261355
            ],
            [
              -114.75876481485433,
              38.70570275157659
            ],
            [
              -114.78870905390582,
              38.659419268707715
            ],
            [
              -114.79916312499599,
              38.62843398376345
            ],
            [
              -114.82096643573027,
              38.598308249542534
            ],
            [
              -114.8532971101892,
              38.559397259162175
            ],
            [
              -114.86904163877904,
              38.537457115856945
            ],
            [
              -114.89019756906099,
              38.51298958282686
            ],
            [
              -114.92175764975329,
              38.48588233163969
            ],
            [
              -114.94952807011096,
              38.45028970272589
            ],
            [
              -114.98847210008469,
              38.40951393210011
            ],
            [
              -115.0270641892657,
              38.37444024954853
            ],
            [
              -115.06777529784887,
              38.337935524759764
            ],
            [
              -115.09729634568282,
              38.318392301613756
            ],
            [
              -115.12114799267489,
              38.30061316626049
            ],
            [
              -115.14355454944234,
              38.28385222492614
            ],
            [
              -115.16970589822282,
              38.28771738126381
            ]
          ]
        ]
      },
      "properties": {
        "Contours": 0.19047619047619047,
        "level_r_per_hr_H1": 0.02,
        "level_mR_per_hr_H12": 0.19047619047619047,
        "source": "DASA-1251 Vol I Fig. 202 \u2014 hand-traced in trace_doppler.py",
        "calibration_correction": "calibration_correction: per-point affine remap true_X_mi=-20.3371+0.98315*buggy_X_mi, true_Y_mi=-1.3460+0.99526*buggy_Y_mi (empirical gridlines PX_X0=694, PX_Y0=2644). Applied 2026-05-20."
      }
    }
  ]
}