{
"type": "FeatureCollection",
"name": "Trinity_TOA",
"crs": { "type": "name", "properties": { "name": "urn:ogc:def:crs:OGC:1.3:CRS84" } },
"features": [
{ "type": "Feature", "properties": { "TOA_hrs": 1 }, "geometry": { "type": "MultiLineString", "coordinates": [ [ [ -107.218525877489142, 33.654739224361037 ], [ -107.06918937338655, 33.700418625615946 ], [ -106.923366669380485, 33.735556626581264 ], [ -106.73713526426431, 33.772451527594846 ], [ -106.580771159968648, 33.786506727980971 ], [ -106.398053554949001, 33.788263628029235 ], [ -106.253987750991215, 33.775965327691374 ], [ -106.141546147902204, 33.749611826967389 ], [ -106.015049344427055, 33.707446225809008 ], [ -105.951800942689488, 33.67406512489196 ] ] ] } },
{ "type": "Feature", "properties": { "TOA_hrs": 2 }, "geometry": { "type": "MultiLineString", "coordinates": [ [ [ -107.107841174448396, 33.846241329622011 ], [ -106.90931146899436, 33.877865530490794 ], [ -106.682671362768062, 33.902462131166516 ], [ -106.489412357458832, 33.918274231600904 ], [ -106.315479252680518, 33.930572531938765 ], [ -106.164385848529648, 33.920031131649168 ], [ -106.020320044571861, 33.897191431021717 ], [ -105.855171440034866, 33.847998229670274 ], [ -105.783138538055965, 33.819887828898018 ], [ -105.748000537090661, 33.798805028318831 ] ] ] } },
{ "type": "Feature", "properties": { "TOA_hrs": 3 }, "geometry": { "type": "MultiLineString", "coordinates": [ [ [ -107.072703173483077, 33.993820933676332 ], [ -106.860118267642918, 34.025445134545123 ], [ -106.626450561223564, 34.057069335413907 ], [ -106.362915553983683, 34.065853835655233 ], [ -106.146816848046996, 34.07639523594483 ], [ -105.969369943172154, 34.057069335413907 ], [ -105.818276539021284, 34.023688234496852 ], [ -105.705834935932273, 33.98679333348327 ], [ -105.621503733615512, 33.951655332517959 ], [ -105.607448533229388, 33.942870832276625 ] ] ] } },
{ "type": "Feature", "properties": { "TOA_hrs": 4 }, "geometry": { "type": "MultiLineString", "coordinates": [ [ [ -106.995399571359386, 34.141400537730661 ], [ -106.791599165760545, 34.167754038454653 ], [ -106.575500459823857, 34.194107539178638 ], [ -106.315479252680518, 34.21870413985436 ], [ -106.109921947033413, 34.225731740047422 ], [ -105.934231942206836, 34.215190339757825 ], [ -105.75678503733198, 34.187079938985576 ], [ -105.617989933518984, 34.146671237875459 ], [ -105.516089730719571, 34.104505636717079 ], [ -105.452841328982004, 34.064096935606969 ] ] ] } },
{ "type": "Feature", "properties": { "TOA_hrs": 5 }, "geometry": { "type": "MultiLineString", "coordinates": [ [ [ -106.951477070152734, 34.294250841929788 ], [ -106.703754163347256, 34.318847442605509 ], [ -106.450760556396986, 34.338173343136432 ], [ -106.210065249784563, 34.353985443570828 ], [ -105.967613043123876, 34.362769943812154 ], [ -105.788409238200771, 34.346957843377766 ], [ -105.605691633181124, 34.304792242219385 ], [ -105.479194829705989, 34.264383541109268 ], [ -105.377294626906576, 34.223974839999158 ], [ -105.338642825844715, 34.202892039419964 ] ] ] } },
{ "type": "Feature", "properties": { "TOA_hrs": 6 }, "geometry": { "type": "MultiLineString", "coordinates": [ [ [ -106.912825269090888, 34.427775245597992 ], [ -106.735378364216047, 34.450614946225443 ], [ -106.406838055190335, 34.492780547383823 ], [ -106.080054646212901, 34.515620248011281 ], [ -105.897337041193254, 34.52089094815608 ], [ -105.665426234822164, 34.494537447432094 ], [ -105.524874230960904, 34.46115634651504 ], [ -105.352698026230854, 34.396151044729208 ], [ -105.257825423624496, 34.348714743426029 ], [ -105.206875322224789, 34.325875042798572 ] ] ] } },
{ "type": "Feature", "properties": { "TOA_hrs": 7 }, "geometry": { "type": "MultiLineString", "coordinates": [ [ [ -106.881201068222097, 34.563056549314453 ], [ -106.742405964409102, 34.587653149990174 ], [ -106.536848658761997, 34.619277350858958 ], [ -106.338318953307962, 34.649144651679478 ], [ -106.132761647660857, 34.664956752113866 ], [ -105.934231942206821, 34.677255052451727 ], [ -105.753271237235438, 34.666713652162137 ], [ -105.612719233374179, 34.640360151438145 ], [ -105.510819030574766, 34.610492850617632 ], [ -105.382565327051353, 34.566570349410981 ], [ -105.270123723962342, 34.51386334796301 ], [ -105.198090821983442, 34.478725346997692 ], [ -105.141870020438944, 34.450614946225443 ] ] ] } },
{ "type": "Feature", "properties": { "TOA_hrs": 8 }, "geometry": { "type": "MultiLineString", "coordinates": [ [ [ -106.835521666967182, 34.687796452741324 ], [ -106.642262661657938, 34.731718953947968 ], [ -106.492926157555345, 34.758072454671954 ], [ -106.322506852873573, 34.779155255251148 ], [ -106.125734047467802, 34.798481155782071 ], [ -105.890309441000184, 34.810779456119931 ], [ -105.69705043569094, 34.807265656023397 ], [ -105.500277630285169, 34.770370755009814 ], [ -105.31228932512073, 34.712393053417046 ], [ -105.157682120873332, 34.652658451776006 ], [ -105.054025018025655, 34.605222150472834 ], [ -105.004831816674212, 34.582382449845376 ] ] ] } },
{ "type": "Feature", "properties": { "TOA_hrs": 9 }, "geometry": { "type": "MultiLineString", "coordinates": [ [ [ -106.795112965857072, 34.833619156747389 ], [ -106.594826360354773, 34.877541657954033 ], [ -106.417379455479917, 34.910922758871081 ], [ -106.2539877509912, 34.933762459498539 ], [ -106.092352946550747, 34.949574559932927 ], [ -105.885038740855379, 34.963629760319058 ], [ -105.705834935932273, 34.961872860270788 ], [ -105.560012231926208, 34.946060759836399 ], [ -105.431758528402796, 34.916193459015879 ], [ -105.261339223721023, 34.867000257664436 ], [ -105.096190619184028, 34.810779456119931 ], [ -104.976721415901963, 34.761586254768488 ], [ -104.897660913729993, 34.72644825380317 ] ] ] } },
{ "type": "Feature", "properties": { "TOA_hrs": 10 }, "geometry": { "type": "MultiLineString", "coordinates": [ [ [ -106.719566263781644, 35.002281561380904 ], [ -106.491169257507082, 35.037419562346223 ], [ -106.27331365152213, 35.077828263456333 ], [ -106.060728745681956, 35.10066796408379 ], [ -105.837602439552199, 35.118236964566449 ], [ -105.653127934484289, 35.111209364373387 ], [ -105.459868929175059, 35.093640363890728 ], [ -105.305261724927661, 35.056745462877146 ], [ -105.108488919521889, 34.981198760801718 ], [ -104.9486110151297, 34.912679658919345 ], [ -104.841440112185495, 34.859972657471374 ], [ -104.765893410110067, 34.819563956361257 ] ] ] } },
{ "type": "Feature", "properties": { "TOA_hrs": 11 }, "geometry": { "type": "MultiLineString", "coordinates": [ [ [ -106.668616162381937, 35.1410766651939 ], [ -106.445489856252181, 35.158645665676559 ], [ -106.218849750025882, 35.184999166400551 ], [ -105.981668243510001, 35.221894067414134 ], [ -105.704078035883995, 35.239463067896786 ], [ -105.47216722951292, 35.232435467703723 ], [ -105.245527123286621, 35.179728466255753 ], [ -105.08740611894271, 35.112966264421651 ], [ -104.918743714309187, 35.030391962153161 ], [ -104.774677910351386, 34.953088360029462 ], [ -104.707915708517291, 34.910922758871081 ] ] ] } },
{ "type": "Feature", "properties": { "TOA_hrs": 12 }, "geometry": { "type": "MultiLineString", "coordinates": [ [ [ -106.529821058568928, 35.30271146963436 ], [ -106.336562053259684, 35.344877070792741 ], [ -106.157358248336564, 35.369473671468462 ], [ -105.939502642351613, 35.371230571516726 ], [ -105.695293535642662, 35.383528871854587 ], [ -105.459868929175045, 35.434478973254294 ], [ -105.247284023334885, 35.429208273109495 ], [ -105.08213541879789, 35.381771971806323 ], [ -104.864279812812939, 35.244733768041591 ], [ -104.685076007889819, 35.084855863649402 ], [ -104.591960305331739, 34.998767761284377 ] ] ] } },
{ "type": "Feature", "properties": { "TOA_hrs": 12 }, "geometry": { "type": "MultiLineString", "coordinates": [ [ [ -105.46513962931985, 33.974495033145409 ], [ -105.285935824396731, 33.997334733772867 ], [ -104.98901971623981, 34.013146834207255 ], [ -104.753595109772192, 34.067610735703497 ], [ -104.613043105910933, 34.155455738116785 ], [ -104.45140830147048, 34.311819842412447 ], [ -104.330182198140136, 34.478725346997699 ], [ -104.203685394665001, 34.629818751148555 ], [ -104.112326592155171, 34.742260354237565 ] ] ] } },
{ "type": "Feature", "properties": { "TOA_hrs": 14 }, "geometry": { "type": "MultiLineString", "coordinates": [ [ [ -106.347103453549266, 35.513539475426256 ], [ -106.159115148384828, 35.532865375957179 ], [ -105.825304139214325, 35.56448957682597 ], [ -105.433515428451045, 35.587329277453421 ], [ -105.117273419763194, 35.596113777694754 ], [ -104.945097215033144, 35.557461976632901 ], [ -104.799274511027093, 35.483672174605736 ], [ -104.674534607600208, 35.395827172192448 ], [ -104.628855206345307, 35.353661571034067 ] ] ] } },
{ "type": "Feature", "properties": { "TOA_hrs": 16 }, "geometry": { "type": "MultiLineString", "coordinates": [ [ [ -106.178441048915758, 35.69450018039764 ], [ -106.044916645247554, 35.722610581169889 ], [ -105.899093941241489, 35.733151981459486 ], [ -105.653127934484274, 35.754234782038679 ], [ -105.387836027196144, 35.761262382231742 ], [ -105.164709721066373, 35.755991682086943 ], [ -104.992533516336337, 35.743693381749083 ], [ -104.871307413005994, 35.72436748121816 ], [ -104.720214008855123, 35.692743280349376 ], [ -104.604258605669585, 35.659362179432321 ] ] ] } },
{ "type": "Feature", "properties": { "TOA_hrs": 16 }, "geometry": { "type": "MultiLineString", "coordinates": [ [ [ -105.688265935449579, 33.737313526629528 ], [ -105.556498431829638, 33.749611826967389 ], [ -105.382565327051324, 33.760153227256986 ], [ -105.198090821983413, 33.772451527594846 ], [ -104.925771314502214, 33.795291228222304 ], [ -104.720214008855109, 33.816374028801491 ], [ -104.526955003545879, 33.844484429573747 ], [ -104.414513400456855, 33.888406930780391 ], [ -104.293287297126525, 33.969224333000618 ], [ -104.17557499389271, 34.086936636234427 ], [ -104.085973091431157, 34.17829543874425 ] ] ] } },
{ "type": "Feature", "properties": { "TOA_hrs": 20 }, "geometry": { "type": "MultiLineString", "coordinates": [ [ [ -104.94509721503313, 33.317414415093999 ], [ -104.765893410110024, 33.357823116204116 ], [ -104.577905104945586, 33.415800817796885 ], [ -104.428568600842993, 33.475535419437925 ], [ -104.305585597464386, 33.538783821175493 ], [ -104.19490089442364, 33.626628823588781 ], [ -104.112326592155142, 33.719744526146869 ], [ -104.101785191865545, 33.733799726533 ] ] ] } }
]
}
