{
"type": "FeatureCollection",
"name": "Triniyt_exposurrate_H12",
"crs": { "type": "name", "properties": { "name": "urn:ogc:def:crs:OGC:1.3:CRS84" } },
"features": [
{ "type": "Feature", "properties": { "Trinity_contours": 2.0 }, "geometry": { "type": "MultiPolygon", "coordinates": [ [ [ [ -105.273198299046769, 35.692743280349362 ], [ -105.274955199095047, 35.743693381749068 ], [ -105.260899998708908, 35.778831382714387 ], [ -105.238060298081464, 35.828024584065822 ], [ -105.206436097212674, 35.868433285175939 ], [ -105.162513596006022, 35.908841986286056 ], [ -105.116834194751121, 35.945736887299638 ], [ -105.076425493640997, 35.966819687878825 ], [ -105.043044392723957, 35.973847288071887 ], [ -104.999121891517305, 35.975604188120151 ], [ -104.958713190407195, 35.966819687878825 ], [ -104.897221688717892, 35.95100758744443 ], [ -104.821674986642464, 35.912355786382584 ], [ -104.733829984229175, 35.852621184741544 ], [ -104.709233383553453, 35.819240083824496 ], [ -104.579222779981777, 35.631251778660058 ], [ -104.512460578147682, 35.531108475908901 ], [ -104.456239776603169, 35.420423772868155 ], [ -104.42812937583092, 35.329064970358338 ], [ -104.407046575251726, 35.225407867510654 ], [ -104.39650517496213, 35.177971566207475 ], [ -104.389477574769089, 35.058502362925417 ], [ -104.398262075010422, 34.958359060174267 ], [ -104.43340007597574, 34.872270957809242 ], [ -104.538814078871681, 34.722934453706642 ], [ -104.700448883312134, 34.566570349410988 ], [ -104.821674986642478, 34.4734546468529 ], [ -104.941144189924557, 34.39088034458441 ], [ -104.958713190407195, 34.383852744391341 ], [ -104.967497690648528, 34.378582044246542 ], [ -104.971011490745056, 34.37155444405348 ], [ -104.974525290841584, 34.364526843860418 ], [ -104.965740790600265, 34.348714743426022 ], [ -104.956956290358931, 34.343444043281224 ], [ -104.944657990021071, 34.334659543039898 ], [ -104.93235968968321, 34.322361242702037 ], [ -104.920061389345349, 34.30127844212285 ], [ -104.900735488814419, 34.267897341205796 ], [ -104.886680288428295, 34.253842140819671 ], [ -104.876138888138698, 34.220461039902624 ], [ -104.870868187993906, 34.201135139371694 ], [ -104.853299187511254, 34.183566138889041 ], [ -104.804105986159811, 34.162483338309848 ], [ -104.76018348495316, 34.148428137923723 ], [ -104.677609182684662, 34.102748736668815 ], [ -104.609090080802304, 34.051798635269101 ], [ -104.551112379209528, 33.981522633338471 ], [ -104.501919177858085, 33.898948331069974 ], [ -104.493134677616752, 33.851512029766802 ], [ -104.500162277809821, 33.811103328656685 ], [ -104.514217478195945, 33.782992927884436 ], [ -104.531786478678612, 33.767180827450041 ], [ -104.565167579595652, 33.753125627063916 ], [ -104.630172881381498, 33.744341126822583 ], [ -104.742614484470508, 33.746098026870854 ], [ -104.849785387414713, 33.75488252711218 ], [ -104.937630389828001, 33.767180827450041 ], [ -105.018447792048235, 33.779479127787901 ], [ -105.102778994364996, 33.786506727980964 ], [ -105.183596396585216, 33.795291228222297 ], [ -105.274955199095047, 33.800561928367095 ], [ -105.373341601797932, 33.811103328656685 ], [ -105.445374503776833, 33.816374028801484 ], [ -105.547274706576246, 33.823401628994546 ], [ -105.633362808941271, 33.825158529042817 ], [ -105.693097410582311, 33.825158529042817 ], [ -105.76161651246467, 33.821644728946282 ], [ -105.824864914202237, 33.816374028801484 ], [ -105.877571915650222, 33.798805028318824 ], [ -105.935549617242984, 33.781236027836165 ], [ -105.998798018980551, 33.749611826967381 ], [ -106.077858521152521, 33.71447382600207 ], [ -106.139350022841825, 33.689877225326349 ], [ -106.213139824868989, 33.663523724602356 ], [ -106.269360626413487, 33.645954724119704 ], [ -106.332609028151055, 33.628385723637045 ], [ -106.369503929164637, 33.616087423299184 ], [ -106.416940230467816, 33.600275322864789 ], [ -106.487216232398453, 33.596761522768261 ], [ -106.613713035873587, 33.607302923057858 ], [ -106.699801138238612, 33.619601223395719 ], [ -106.784132340555374, 33.626628823588781 ], [ -106.887789443403051, 33.630142623685309 ], [ -107.001987946540339, 33.64244092402317 ], [ -107.052938047940046, 33.670551324795426 ], [ -107.063479448229629, 33.686363425229814 ], [ -107.061722548181365, 33.703932425712473 ], [ -107.056451848036573, 33.725015226291667 ], [ -107.037125947505643, 33.746098026870854 ], [ -106.956308545285424, 33.826915429091081 ], [ -106.887789443403051, 33.883136230635586 ], [ -106.798187540941498, 33.969224333000611 ], [ -106.729668439059125, 34.028958934641651 ], [ -106.655878637031961, 34.100991836620544 ], [ -106.597900935439199, 34.169510938502917 ], [ -106.555735334280811, 34.234516240288748 ], [ -106.536409433749895, 34.269654241254067 ], [ -106.504785232881105, 34.332902642991641 ], [ -106.467890331867522, 34.411963145163604 ], [ -106.436266130998746, 34.468183946708109 ], [ -106.399371229985164, 34.513863347963017 ], [ -106.364233229019845, 34.561299649266196 ], [ -106.323824527909736, 34.59292385013498 ], [ -106.27814512665482, 34.629818751148562 ], [ -106.21841052501378, 34.679011952500005 ], [ -106.160432823421004, 34.726448253803184 ], [ -106.090156821490382, 34.791453555589015 ], [ -106.040963620138939, 34.83537605679566 ], [ -106.016367019463218, 34.881055458050575 ], [ -106.005825619173621, 34.923221059208956 ], [ -106.002311819077093, 34.989983261043051 ], [ -105.998798018980551, 35.053231662780625 ], [ -105.995284218884024, 35.10769556427686 ], [ -105.991770418787496, 35.162159465773101 ], [ -105.984742818594427, 35.251761368234654 ], [ -105.970687618208302, 35.380015071758059 ], [ -105.960146217918705, 35.483672174605744 ], [ -105.946091017532581, 35.546920576343311 ], [ -105.935549617242984, 35.583815477356893 ], [ -105.916223716712054, 35.601384477839552 ], [ -105.905682316422457, 35.610168978080878 ], [ -105.900411616277665, 35.608412078032615 ], [ -105.886356415891541, 35.603141377887816 ], [ -105.877571915650208, 35.592599977598226 ], [ -105.868787415408875, 35.555705076584644 ], [ -105.849461514877959, 35.488942874750542 ], [ -105.824864914202237, 35.425694473012975 ], [ -105.777428612899058, 35.350147770937539 ], [ -105.722964711402824, 35.27987176900691 ], [ -105.675528410099645, 35.232435467703731 ], [ -105.631605908892993, 35.200811266834947 ], [ -105.594711007879411, 35.195540566690148 ], [ -105.556059206817565, 35.207838867028009 ], [ -105.505109105417858, 35.241219967945064 ], [ -105.431319303390694, 35.285142469151708 ], [ -105.334689800736072, 35.329064970358353 ], [ -105.271441398998505, 35.35190467098581 ], [ -105.248601698371047, 35.381771971806323 ], [ -105.243330998226256, 35.395827172192455 ], [ -105.239817198129714, 35.427451373061238 ], [ -105.259143098660644, 35.508268775281465 ], [ -105.269684498950241, 35.576787877163831 ], [ -105.276712099143296, 35.625981078515274 ], [ -105.276712099143296, 35.657605279384057 ], [ -105.273198299046769, 35.692743280349362 ] ] ] ] } },
{ "type": "Feature", "properties": { "Trinity_contours": 9.0 }, "geometry": { "type": "MultiPolygon", "coordinates": [ [ [ [ -106.422210930612621, 33.61257362320265 ], [ -106.360719428923318, 33.626628823588781 ], [ -106.293957227089209, 33.65473922436103 ], [ -106.213139824868989, 33.693391025422876 ], [ -106.151648323179685, 33.719744526146869 ], [ -106.012853219366676, 33.788263628029235 ], [ -105.909196116518999, 33.842727529525476 ], [ -105.849461514877959, 33.877865530490787 ], [ -105.772157912754267, 33.948141532421424 ], [ -105.733506111692435, 33.983279533386735 ], [ -105.712423311113241, 34.01666063430379 ], [ -105.679042210196187, 34.072881435848295 ], [ -105.661473209713535, 34.116803937054939 ], [ -105.638633509086077, 34.15896953821332 ], [ -105.596467907927703, 34.18883683903384 ], [ -105.550788506672788, 34.208162739564763 ], [ -105.452402103969902, 34.236273140337012 ], [ -105.350501901170489, 34.287223241736726 ], [ -105.215220597454021, 34.357499243667355 ], [ -105.039530592627443, 34.459399446466769 ], [ -104.872625088042184, 34.580625549797112 ], [ -104.751398984711841, 34.689553352789595 ], [ -104.640714281671094, 34.823077756457792 ], [ -104.589764180271388, 34.947817659884663 ], [ -104.582736580078333, 35.0180936618153 ], [ -104.596791780464457, 35.084855863649402 ], [ -104.62665908128497, 35.142833565242171 ], [ -104.642471181719372, 35.167430165917892 ], [ -104.688150582974274, 35.200811266834947 ], [ -104.732073084180911, 35.227164767558932 ], [ -104.83924398712513, 35.265816568620785 ], [ -104.904249288910961, 35.285142469151708 ], [ -105.01142019185518, 35.297440769489569 ], [ -105.151972195716439, 35.293926969393034 ], [ -105.26441379880545, 35.269330368717313 ], [ -105.33644670078435, 35.235949267800265 ], [ -105.411993402859778, 35.204325066931482 ], [ -105.443617603728569, 35.172700866062698 ], [ -105.471728004500818, 35.142833565242178 ], [ -105.489297004983484, 35.121750764662984 ], [ -105.505109105417873, 35.083098963601138 ], [ -105.529705706093594, 35.014579861718772 ], [ -105.550788506672788, 34.956602160126003 ], [ -105.577142007396773, 34.90740895877456 ], [ -105.638633509086077, 34.810779456119938 ], [ -105.701881910823644, 34.742260354237573 ], [ -105.749318212126823, 34.69306715288613 ], [ -105.789726913236933, 34.652658451776013 ], [ -105.824864914202251, 34.617520450810702 ], [ -105.86000291516757, 34.598194550279779 ], [ -105.928522017049929, 34.573597949604057 ], [ -105.998798018980565, 34.566570349410995 ], [ -106.033936019945884, 34.566570349410995 ], [ -106.077858521152521, 34.561299649266196 ], [ -106.104212021876506, 34.557785849169662 ], [ -106.1252948224557, 34.543730648783537 ], [ -106.169217323662352, 34.517377148059552 ], [ -106.200841524531128, 34.49102364733556 ], [ -106.214896724917253, 34.468183946708109 ], [ -106.246520925786044, 34.427775245597985 ], [ -106.274631326558307, 34.390880344584403 ], [ -106.318553827764944, 34.329388842895099 ], [ -106.35720562882679, 34.276681841447129 ], [ -106.394100529840372, 34.213433439709561 ], [ -106.420454030564358, 34.155455738116785 ], [ -106.432752330902218, 34.127345337344536 ], [ -106.4696472319158, 34.079909036041357 ], [ -106.546950834039507, 34.021931334448581 ], [ -106.626011336211462, 33.967467432952347 ], [ -106.720883938817821, 33.900705231118245 ], [ -106.787646140651916, 33.847998229670267 ], [ -106.835082441955095, 33.821644728946282 ], [ -106.912386044078787, 33.760153227256978 ], [ -106.951037845140632, 33.723258326243396 ], [ -106.965093045526757, 33.689877225326349 ], [ -106.956308545285438, 33.677578924988488 ], [ -106.940496444851036, 33.667037524698891 ], [ -106.889546343451329, 33.661766824554093 ], [ -106.819270341520706, 33.658253024457565 ], [ -106.74899433959007, 33.651225424264496 ], [ -106.645337236742392, 33.635413323830107 ], [ -106.580331934956547, 33.626628823588774 ], [ -106.543437033942965, 33.619601223395712 ], [ -106.499514532736328, 33.610816723154386 ], [ -106.422210930612621, 33.61257362320265 ] ] ] ] } },
{ "type": "Feature", "properties": { "Trinity_contours": 37.0 }, "geometry": { "type": "MultiPolygon", "coordinates": [ [ [ [ -106.446807531288357, 33.628385723637045 ], [ -106.381802229502512, 33.638927123926635 ], [ -106.327338328006277, 33.656496124409294 ], [ -106.243007125689516, 33.702175525664209 ], [ -106.135836222745297, 33.760153227256978 ], [ -106.002311819077107, 33.837456829380677 ], [ -105.852975314974501, 33.930572531938765 ], [ -105.784456213092142, 33.988550233531534 ], [ -105.737019911788963, 34.060583135510434 ], [ -105.701881910823644, 34.132616037489328 ], [ -105.677285310147923, 34.173024738599445 ], [ -105.612280008362092, 34.232759340240484 ], [ -105.510379805562678, 34.30127844212285 ], [ -105.373341601797947, 34.380338944294813 ], [ -105.255629298564131, 34.44183044598411 ], [ -105.173054996295633, 34.498051247528622 ], [ -105.092237594075414, 34.580625549797112 ], [ -105.039530592627443, 34.663199852065603 ], [ -105.014933991951736, 34.728205153851441 ], [ -105.013177091903472, 34.854701957326583 ], [ -105.041287492675721, 34.930248659402011 ], [ -105.081696193785831, 34.958359060174267 ], [ -105.118591094799413, 34.970657360512128 ], [ -105.173054996295662, 34.963629760319066 ], [ -105.236303398033229, 34.926734859305483 ], [ -105.304822499915588, 34.879298558002304 ], [ -105.375098501846225, 34.828348456602598 ], [ -105.46118660421125, 34.791453555589015 ], [ -105.531462606141886, 34.77564145515462 ], [ -105.587683407686384, 34.747531054382371 ], [ -105.622821408651703, 34.717663753561851 ], [ -105.642147309182633, 34.687796452741331 ], [ -105.677285310147951, 34.650901551727749 ], [ -105.710666411064992, 34.612249750665903 ], [ -105.761616512464698, 34.578868649748848 ], [ -105.828378714298807, 34.547244448880065 ], [ -105.91798061676036, 34.517377148059545 ], [ -105.967173818111803, 34.494537447432094 ], [ -106.011096319318455, 34.462913246563303 ], [ -106.046234320283759, 34.411963145163597 ], [ -106.079615421200813, 34.36101304376389 ], [ -106.114753422166132, 34.325875042798572 ], [ -106.162189723469311, 34.29073704183326 ], [ -106.199084624482893, 34.262626641061004 ], [ -106.253548525979127, 34.220461039902624 ], [ -106.285172726847918, 34.178295438744243 ], [ -106.30976932752364, 34.137886737634133 ], [ -106.325581427958028, 34.109776336861877 ], [ -106.339636628344152, 34.065853835655233 ], [ -106.339636628344152, 34.037743434882984 ], [ -106.343150428440694, 34.011389934158991 ], [ -106.346664228537222, 33.995577833724603 ], [ -106.36247632897161, 33.985036433435006 ], [ -106.383559129550804, 33.974495033145409 ], [ -106.429238530805705, 33.970981233048882 ], [ -106.452078231433163, 33.970981233048882 ], [ -106.478431732157148, 33.967467432952347 ], [ -106.488973132446745, 33.962196732807548 ], [ -106.497757632688078, 33.958682932711021 ], [ -106.508299032977675, 33.951655332517959 ], [ -106.522354233363799, 33.941113932228362 ], [ -106.550464634136034, 33.914760431504376 ], [ -106.578575034908297, 33.891920730876919 ], [ -106.585602635101353, 33.867324130201197 ], [ -106.60844233572881, 33.847998229670274 ], [ -106.629525136308004, 33.826915429091081 ], [ -106.64885103683892, 33.795291228222297 ], [ -106.645337236742392, 33.735556626581264 ], [ -106.622497536114935, 33.702175525664209 ], [ -106.583845735053089, 33.667037524698898 ], [ -106.545193933991243, 33.652982324312767 ], [ -106.51532663317073, 33.638927123926642 ], [ -106.480188632205412, 33.63189952373358 ], [ -106.446807531288357, 33.628385723637045 ] ] ] ] } },
{ "type": "Feature", "properties": { "Trinity_contours": 90.0 }, "geometry": { "type": "MultiPolygon", "coordinates": [ [ [ [ -106.494243832591522, 33.647711624167968 ], [ -106.478431732157134, 33.64244092402317 ], [ -106.452078231433148, 33.637170223878371 ], [ -106.409912630274761, 33.640684023974906 ], [ -106.388829829695581, 33.649468524216232 ], [ -106.325581427958014, 33.681092725085016 ], [ -106.237736425544711, 33.735556626581257 ], [ -106.111239622069576, 33.811103328656685 ], [ -105.97947211844965, 33.893677630925183 ], [ -105.842433914684904, 33.999091633821131 ], [ -105.772157912754281, 34.088693536282683 ], [ -105.717694011258033, 34.173024738599445 ], [ -105.615793808458619, 34.290737041833253 ], [ -105.520921205852261, 34.350471643474293 ], [ -105.413750302908056, 34.422504545453187 ], [ -105.317120800253434, 34.49102364733556 ], [ -105.218734397550548, 34.601708350376306 ], [ -105.158999795909523, 34.707122353272254 ], [ -105.13088939513726, 34.761586254768496 ], [ -105.129132495088996, 34.791453555589015 ], [ -105.13088939513726, 34.80550875597514 ], [ -105.139673895378593, 34.814293256216466 ], [ -105.151972195716453, 34.821320856409528 ], [ -105.164270496054314, 34.824834656506063 ], [ -105.180082596488703, 34.824834656506063 ], [ -105.192380896826563, 34.824834656506063 ], [ -105.215220597454021, 34.817807056313001 ], [ -105.252115498467603, 34.810779456119938 ], [ -105.299551799770782, 34.786182855444217 ], [ -105.373341601797947, 34.756315554623697 ], [ -105.473484904549096, 34.71590685351358 ], [ -105.503352205369623, 34.701851653127456 ], [ -105.531462606141872, 34.682525752596533 ], [ -105.531462606141872, 34.673741252355207 ], [ -105.550788506672788, 34.650901551727749 ], [ -105.578898907445051, 34.626304951052028 ], [ -105.661473209713535, 34.564813449362724 ], [ -105.735263011740699, 34.529675448397406 ], [ -105.77918551294735, 34.517377148059545 ], [ -105.823108014153988, 34.499808147576886 ], [ -105.8793288156985, 34.482239147094234 ], [ -105.942577217436067, 34.44358734603238 ], [ -105.977715218401386, 34.418990745356659 ], [ -106.007582519221899, 34.387366544487875 ], [ -106.019880819559759, 34.366283743908689 ], [ -106.033936019945884, 34.338173343136432 ], [ -106.035692919994162, 34.322361242702044 ], [ -106.047991220332023, 34.29073704183326 ], [ -106.063803320766411, 34.264383541109268 ], [ -106.072587821007744, 34.253842140819678 ], [ -106.100698221779993, 34.236273140337019 ], [ -106.153405223227963, 34.222217939950887 ], [ -106.193813924338073, 34.192350639130375 ], [ -106.218410525013795, 34.171267838551181 ], [ -106.227195025255128, 34.15896953821332 ], [ -106.234222625448197, 34.148428137923723 ], [ -106.244764025737794, 34.139643637682397 ], [ -106.251791625930849, 34.11856083710321 ], [ -106.262333026220446, 34.090450436330954 ], [ -106.262333026220446, 34.07639523594483 ], [ -106.258819226123919, 34.053555535317372 ], [ -106.262333026220446, 34.021931334448588 ], [ -106.278145126654834, 33.993820933676332 ], [ -106.30449862737882, 33.963953632855819 ], [ -106.32382452790975, 33.95692603266275 ], [ -106.339636628344138, 33.953412232566222 ], [ -106.358962528875068, 33.949898432469688 ], [ -106.413426430371302, 33.939357032180098 ], [ -106.445050631240093, 33.934086332035299 ], [ -106.466133431819287, 33.918274231600904 ], [ -106.474917932060606, 33.911246631407842 ], [ -106.478431732157134, 33.90421903121478 ], [ -106.480188632205412, 33.881379330587322 ], [ -106.47667483210887, 33.863810330104663 ], [ -106.478431732157134, 33.846241329622011 ], [ -106.492486932543272, 33.812860228704956 ], [ -106.494243832591536, 33.797048128270568 ], [ -106.506542132929397, 33.781236027836172 ], [ -106.522354233363771, 33.747854926919118 ], [ -106.525868033460313, 33.710960025905536 ], [ -106.527624933508577, 33.675822024940217 ], [ -106.51708353321898, 33.658253024457558 ], [ -106.511812833074188, 33.649468524216232 ], [ -106.494243832591522, 33.647711624167968 ] ] ] ] } },
{ "type": "Feature", "properties": { "Trinity_contours": 200.0 }, "geometry": { "type": "MultiPolygon", "coordinates": [ [ [ [ -106.47931018218128, 33.651225424264496 ], [ -106.450321331384899, 33.650346974240364 ], [ -106.41123030531098, 33.65473922436103 ], [ -106.391025954755932, 33.666598299686825 ], [ -106.355009503766482, 33.68899877530221 ], [ -106.304059402366775, 33.721062201183067 ], [ -106.249156275858468, 33.756200202148378 ], [ -106.199963074507025, 33.789581303065432 ], [ -106.131443972624652, 33.836139154344473 ], [ -106.063803320766425, 33.885771580707981 ], [ -105.990452743751334, 33.943749282300757 ], [ -105.898654716229444, 34.021492109436522 ], [ -105.831892514395349, 34.094403461439555 ], [ -105.812566613864419, 34.12295308722387 ], [ -105.758541937380258, 34.187079938985562 ], [ -105.677724535160038, 34.274924941398858 ], [ -105.601299383060478, 34.348275518413956 ], [ -105.569235957179615, 34.377264369210337 ], [ -105.470849554476715, 34.458960221454696 ], [ -105.374659276834166, 34.531871573457728 ], [ -105.317120800253463, 34.574915624640241 ], [ -105.282422024300203, 34.619716575871017 ], [ -105.278468999191603, 34.63069720117268 ], [ -105.27056294897443, 34.655733026860482 ], [ -105.268366823914093, 34.673302027343141 ], [ -105.271002173986489, 34.687796452741331 ], [ -105.274955199095089, 34.696580952982657 ], [ -105.281543574276085, 34.700533978091258 ], [ -105.292963424589814, 34.704047778187793 ], [ -105.30394404989147, 34.70536545322399 ], [ -105.318438475289668, 34.703608553175719 ], [ -105.337764375820598, 34.69921630305506 ], [ -105.360604076448041, 34.687357227729265 ], [ -105.394424402377169, 34.668470552210408 ], [ -105.440982253656202, 34.634650226281288 ], [ -105.496324605176582, 34.59292385013498 ], [ -105.537172531298765, 34.565691899386856 ], [ -105.584169607589871, 34.53538537355427 ], [ -105.678602985184156, 34.480921472058029 ], [ -105.731309986632127, 34.45281107128578 ], [ -105.787970013188712, 34.420308420392864 ], [ -105.818715764033357, 34.4053747699826 ], [ -105.873179665529605, 34.374189794125883 ], [ -105.909196116519041, 34.352228543522557 ], [ -105.94828714259296, 34.328949617883033 ], [ -105.985182043606542, 34.305670692243517 ], [ -106.006264844185736, 34.285466341688455 ], [ -106.028226094789062, 34.258234390940338 ], [ -106.035253694982117, 34.243739965542147 ], [ -106.04008517011485, 34.22704941508362 ], [ -106.051944245440652, 34.212115764673364 ], [ -106.081372321249091, 34.206845064528565 ], [ -106.104651246888622, 34.201135139371701 ], [ -106.141546147902204, 34.187079938985569 ], [ -106.151209098167669, 34.178295438744243 ], [ -106.182394074024387, 34.152381163032331 ], [ -106.211822149832841, 34.12558843729628 ], [ -106.229391150315493, 34.101431061632624 ], [ -106.237736425544753, 34.077273685968969 ], [ -106.239054100580958, 34.064096935606976 ], [ -106.240811000629222, 34.014464509243467 ], [ -106.245203250749881, 33.988111008519475 ], [ -106.249156275858482, 33.975812708181614 ], [ -106.26936062641353, 33.951655332517959 ], [ -106.289564976968592, 33.935843232083563 ], [ -106.314161577644313, 33.930572531938765 ], [ -106.357205628826833, 33.927937181866369 ], [ -106.382241454514613, 33.929694081914633 ], [ -106.413426430371331, 33.923544931745703 ], [ -106.434948455962584, 33.910807406395776 ], [ -106.445050631240122, 33.898948331069981 ], [ -106.446368306276312, 33.884014680659725 ], [ -106.442415281167712, 33.871716380321864 ], [ -106.439779931095316, 33.855465054875403 ], [ -106.438462256059125, 33.83394302928415 ], [ -106.440219156107389, 33.809346428608428 ], [ -106.448125206324576, 33.791777428125769 ], [ -106.457788156590041, 33.781236027836172 ], [ -106.467011881843433, 33.76586315241385 ], [ -106.48018863220544, 33.748733376943257 ], [ -106.492486932543301, 33.728529026388202 ], [ -106.502149882808766, 33.705689325760744 ], [ -106.507859807965616, 33.680653500072957 ], [ -106.505663682905293, 33.668794424747162 ], [ -106.499075307724297, 33.657374574433433 ], [ -106.493365382567433, 33.652103874288635 ], [ -106.47931018218128, 33.651225424264496 ] ] ] ] } },
{ "type": "Feature", "properties": { "Trinity_contours": 370.0 }, "geometry": { "type": "MultiPolygon", "coordinates": [ [ [ [ -105.979472118449706, 34.144035887803064 ], [ -105.964977693051509, 34.15282038804439 ], [ -105.959267767894644, 34.162483338309855 ], [ -105.957950092858454, 34.180052338792514 ], [ -105.962781567991186, 34.191911414118309 ], [ -105.969809168184241, 34.202452814407899 ], [ -105.979911343461765, 34.213872664721627 ], [ -105.991331193775494, 34.223096389975026 ], [ -105.997041118932358, 34.228806315131891 ], [ -105.99791956895649, 34.236712365349085 ], [ -105.993088093823772, 34.246814540626616 ], [ -105.986938943654835, 34.256477490892074 ], [ -105.978154443413501, 34.265701216145473 ], [ -105.968491493148051, 34.277560291471268 ], [ -105.956632417822249, 34.29073704183326 ], [ -105.942137992424051, 34.300839217110784 ], [ -105.911831466591465, 34.312259067424513 ], [ -105.865273615312432, 34.331584967955436 ], [ -105.837602439552242, 34.341247918220901 ], [ -105.794558388369722, 34.364966068872491 ], [ -105.772157912754338, 34.382974294367216 ], [ -105.75502813728373, 34.398347169789545 ], [ -105.720329361330485, 34.421186870417003 ], [ -105.694854310630632, 34.433485170754864 ], [ -105.675089185087643, 34.436998970851391 ], [ -105.655763284556713, 34.434363620778996 ], [ -105.647418009327453, 34.428214470610065 ], [ -105.646100334291262, 34.4185515203446 ], [ -105.650053359399848, 34.400982519861941 ], [ -105.65795940961705, 34.386927319475816 ], [ -105.681677560268639, 34.364966068872498 ], [ -105.708909511016756, 34.344761718317436 ], [ -105.735263011740741, 34.318847442605517 ], [ -105.756345812319935, 34.301278442122857 ], [ -105.774793262826734, 34.277999516483341 ], [ -105.793240713333518, 34.254281365831751 ], [ -105.807735138731715, 34.230563215180162 ], [ -105.819594214057503, 34.210358864625107 ], [ -105.8340886394557, 34.185323038937312 ], [ -105.846386939793561, 34.164679463370192 ], [ -105.852536089962484, 34.157212638165063 ], [ -105.874936565577883, 34.125588437296273 ], [ -105.905243091410469, 34.092207336379225 ], [ -105.927204342013781, 34.063657710594903 ], [ -105.952240167701575, 34.036425759846779 ], [ -105.976836768377296, 34.007436909050398 ], [ -106.000994144040945, 33.981083408326413 ], [ -106.023833844668403, 33.961318282783417 ], [ -106.037010595030395, 33.953412232566222 ], [ -106.058093395609589, 33.934964782059431 ], [ -106.080933096237047, 33.918274231600904 ], [ -106.101137446792094, 33.902462131166516 ], [ -106.127490947516094, 33.882257780611461 ], [ -106.181515624000269, 33.849755129718538 ], [ -106.213579049881119, 33.826476204079015 ], [ -106.255744651039493, 33.786506727980971 ], [ -106.300984827282335, 33.74434112682259 ], [ -106.342271978416591, 33.711399250917609 ], [ -106.373017729261235, 33.689438000314283 ], [ -106.395857429888693, 33.671868999831624 ], [ -106.410791080298949, 33.663084499590298 ], [ -106.424846280685074, 33.656935349421367 ], [ -106.437583806035008, 33.655617674385169 ], [ -106.452956681457337, 33.655178449373103 ], [ -106.460862731674524, 33.654299999348972 ], [ -106.46613343181933, 33.654739224361037 ], [ -106.475357157072722, 33.656496124409301 ], [ -106.481067082229586, 33.657374574433433 ], [ -106.488094682422656, 33.660888374529968 ], [ -106.49380460757952, 33.666598299686832 ], [ -106.496439957651916, 33.679335825036759 ], [ -106.498636082712238, 33.685484975205689 ], [ -106.495122282615711, 33.69997940060388 ], [ -106.490290807482978, 33.712716925953806 ], [ -106.482384757265791, 33.726772126339931 ], [ -106.469647231915857, 33.74214500176226 ], [ -106.432313105890188, 33.778161452751704 ], [ -106.413865655383404, 33.798805028318824 ], [ -106.388829829695609, 33.823401628994546 ], [ -106.347981903573427, 33.857221954923666 ], [ -106.278584351666936, 33.908611281335439 ], [ -106.251352400918805, 33.931450981962897 ], [ -106.223681225158629, 33.952533782542083 ], [ -106.215775174941442, 33.96746743295234 ], [ -106.214457499905237, 33.987232558495329 ], [ -106.21050447479665, 34.002166208905585 ], [ -106.203476874603581, 34.024127459508911 ], [ -106.193813924338116, 34.05004173522083 ], [ -106.175366473831332, 34.070685310787951 ], [ -106.154283673252138, 34.09045043633094 ], [ -106.134957772721208, 34.104944861729138 ], [ -106.113874972142028, 34.119000062115262 ], [ -106.096305971659362, 34.126027662308324 ], [ -106.080933096237047, 34.132616037489321 ], [ -106.059850295657853, 34.138325962646185 ], [ -106.041402845151055, 34.140522087706522 ], [ -105.979472118449706, 34.144035887803064 ] ] ] ] } }
]
}
