{
"type": "FeatureCollection",
"name": "Harry_TOA_hrs",
"crs": { "type": "name", "properties": { "name": "urn:ogc:def:crs:OGC:1.3:CRS84" } },
"features": [
{ "type": "Feature", "properties": { "TOA_Harry_hrs": 1 }, "geometry": { "type": "MultiLineString", "coordinates": [ [ [ -115.885292470131148, 37.35807495480713 ], [ -115.817118632143107, 37.325554766405887 ], [ -115.704631799462817, 37.271323165023915 ], [ -115.592144966782527, 37.214337911673738 ], [ -115.486475517901084, 37.146442163271836 ], [ -115.3705799933214, 37.081204849559697 ], [ -115.285362695836312, 37.021354618817711 ], [ -115.138788944162016, 36.92331611170124 ], [ -115.039936879079349, 36.852432017015559 ], [ -114.961536965393094, 36.797861019148939 ], [ -114.896771819304462, 36.74325111372729 ], [ -114.866093592209822, 36.718663968528361 ] ] ] } },
{ "type": "Feature", "properties": { "TOA_Harry_hrs": 2 }, "geometry": { "type": "MultiLineString", "coordinates": [ [ [ -115.759170869853236, 37.685199093825283 ], [ -115.633049269575366, 37.628528376128671 ], [ -115.530788512593304, 37.577217606909777 ], [ -115.445571215108245, 37.525871455420905 ], [ -115.397849528516602, 37.496128570807997 ], [ -115.33649307432735, 37.44472658696592 ], [ -115.271727928238718, 37.385164352865779 ], [ -115.217188857848242, 37.352655901391444 ], [ -115.135380252262607, 37.320133365969291 ], [ -115.04334557097873, 37.2821726132781 ], [ -114.958128273493685, 37.260472153107749 ], [ -114.917223970700874, 37.238765438945222 ], [ -114.811554521819346, 37.16002619475799 ], [ -114.699067689139071, 37.075765870018728 ], [ -114.583172164559414, 36.996856832152247 ], [ -114.508180942772569, 36.93694012184325 ], [ -114.433189720985695, 36.876976266665345 ], [ -114.365015882997668, 36.814236404794777 ], [ -114.296842045009612, 36.74325111372729 ], [ -114.259346434116182, 36.707733821396602 ], [ -114.221850823222766, 36.661263351890007 ] ] ] } },
{ "type": "Feature", "properties": { "TOA_Harry_hrs": 3 }, "geometry": { "type": "MultiLineString", "coordinates": [ [ [ -115.247867084942882, 37.784942216437443 ], [ -115.172875863156037, 37.728347744408417 ], [ -115.094475949469768, 37.682501469134294 ], [ -115.002441268185905, 37.617729050111258 ], [ -114.883137051706797, 37.552900155180623 ], [ -114.797919754221766, 37.523168046596005 ], [ -114.6888416134409, 37.493424084529714 ], [ -114.624076467352239, 37.482605160086948 ], [ -114.542267861766604, 37.45825685169001 ], [ -114.433189720985695, 37.412243967375922 ], [ -114.303659428808416, 37.339106556305445 ], [ -114.153676985234711, 37.214337911673738 ], [ -113.952564163169967, 37.05672636918645 ], [ -113.863938173785485, 36.988689148789511 ], [ -113.751451341105195, 36.890608553874308 ], [ -113.69691227071479, 36.846976668689926 ] ] ] } },
{ "type": "Feature", "properties": { "TOA_Harry_hrs": 4 }, "geometry": { "type": "MultiLineString", "coordinates": [ [ [ -114.664980770145064, 37.98133832480849 ], [ -114.572946088861215, 37.946402013127631 ], [ -114.436598412885118, 37.911449082242008 ], [ -114.27979858551258, 37.865716335578504 ], [ -114.109363990542491, 37.817262473021017 ], [ -113.976425006465774, 37.755302892467142 ], [ -113.836668638590268, 37.650122321212976 ], [ -113.700320962614185, 37.52046453980843 ], [ -113.62873843272672, 37.436607253423574 ], [ -113.502616832448808, 37.306578153863683 ], [ -113.376495232170953, 37.208908497789743 ], [ -113.260599707591254, 37.121984757376673 ], [ -113.154930258709783, 37.045844508845818 ], [ -113.066304269325315, 36.975074394070276 ], [ -112.998130431337245, 36.920591017481946 ] ] ] } },
{ "type": "Feature", "properties": { "TOA_Harry_hrs": 5 }, "geometry": { "type": "MultiLineString", "coordinates": [ [ [ -113.509434216247612, 37.965215938696176 ], [ -113.40376476736617, 37.903380661683528 ], [ -113.342408313176918, 37.854951561600991 ], [ -113.250373631893055, 37.774165655048861 ], [ -113.195834561502593, 37.722955536949542 ], [ -113.114025955916958, 37.647423421323744 ], [ -113.015173890834291, 37.552900155180623 ], [ -112.889052290556364, 37.458256851689995 ], [ -112.776565457876117, 37.385164352865779 ], [ -112.64021778190002, 37.295732224446901 ], [ -112.483417954527482, 37.184471300956723 ], [ -112.374339813746616, 37.108393894001821 ], [ -112.316392051456788, 37.062166714225107 ], [ -112.251626905368141, 37.002301467071078 ] ] ] } },
{ "type": "Feature", "properties": { "TOA_Harry_hrs": 6 }, "geometry": { "type": "MultiLineString", "coordinates": [ [ [ -112.80383499307132, 38.056529295200178 ], [ -112.718617695586246, 37.986711666588668 ], [ -112.616356938604198, 37.906070233507407 ], [ -112.507278797823318, 37.833417297359375 ], [ -112.428878884137035, 37.782248223380819 ], [ -112.340252894752581, 37.704079719472851 ], [ -112.275487748663934, 37.655519826756034 ], [ -112.19367914307827, 37.57991905596419 ], [ -112.159592224084264, 37.550197726118007 ] ] ] } }
]
}
