{
"type": "FeatureCollection",
"name": "Harry_exposure_contours",
"crs": { "type": "name", "properties": { "name": "urn:ogc:def:crs:OGC:1.3:CRS84" } },
"features": [
{ "type": "Feature", "properties": { "Contours": 4.0 }, "geometry": { "type": "MultiPolygon", "coordinates": [ [ [ [ -115.830753399740786, 37.330975775723033 ], [ -115.805188210495245, 37.354010701423114 ], [ -115.765988253652097, 37.404121110445196 ], [ -115.737014372507176, 37.45149202525576 ], [ -115.689292685915575, 37.500185116590991 ], [ -115.626231885776633, 37.548846474841305 ], [ -115.578510199184976, 37.562357885214219 ], [ -115.53419720449277, 37.552900155180623 ], [ -115.494997247649621, 37.531277979172835 ], [ -115.443866869158583, 37.500185116590991 ], [ -115.42682340966158, 37.500185116590991 ], [ -115.396145182566968, 37.509649533080854 ], [ -115.334788728377703, 37.542089851016136 ], [ -115.287067041786059, 37.544792574033309 ], [ -115.258093160641167, 37.531277979172835 ], [ -115.229119279496231, 37.509649533080854 ], [ -115.19844105240162, 37.488014818169304 ], [ -115.186510630753716, 37.452845039492303 ], [ -115.186510630753716, 37.423073073223073 ], [ -115.188214976703406, 37.381101566796652 ], [ -115.183101938854307, 37.347236456754935 ], [ -115.16094544150819, 37.303866818146197 ], [ -115.131971560363269, 37.291664597680402 ], [ -115.087658565671035, 37.312000532009897 ], [ -115.033119495280559, 37.364848221391654 ], [ -114.968354349191955, 37.420365943561009 ], [ -114.908702240952394, 37.466373835706825 ], [ -114.854163170561975, 37.50153724954825 ], [ -114.7893980244733, 37.523168046595984 ], [ -114.702476381038551, 37.536684111044487 ], [ -114.647937310648089, 37.53938703001905 ], [ -114.561015667213354, 37.55695361504295 ], [ -114.479207061627662, 37.598826454807543 ], [ -114.417850607438453, 37.648772883527904 ], [ -114.347972423500693, 37.689245346906453 ], [ -114.303659428808473, 37.712169944338001 ], [ -114.242302974619193, 37.736435319484166 ], [ -114.136633525737736, 37.763387522650042 ], [ -114.013920617359247, 37.788983021901004 ], [ -113.926998973924498, 37.803797418166418 ], [ -113.872459903534036, 37.802450777631471 ], [ -113.792355643898091, 37.794370418813457 ], [ -113.746338303256138, 37.788983021901004 ], [ -113.64919058412319, 37.770124039493879 ], [ -113.560564594738736, 37.756650392189862 ], [ -113.441260378259642, 37.739130981536476 ], [ -113.286164896836823, 37.725651689751558 ], [ -113.200947599351764, 37.717562936919663 ], [ -113.098686842369702, 37.708124942301161 ], [ -113.021991274633137, 37.704079719472851 ], [ -112.999834777287035, 37.708124942301161 ], [ -112.428878884137134, 37.664964517400684 ], [ -111.856218645037529, 37.616379024051312 ], [ -111.280149714038515, 37.543441224772359 ], [ -110.317194252457284, 37.394643330951823 ], [ -110.162098771034465, 37.313356065442797 ], [ -110.109264046593736, 37.202121181044745 ], [ -110.093924933046424, 37.113830532090866 ], [ -110.138237927738658, 37.00774571210674 ], [ -110.189368306229696, 36.941026850042959 ], [ -110.230272609022521, 36.917865825871942 ], [ -110.267768219915936, 36.886519123269203 ], [ -110.35639420930039, 36.834700711716437 ], [ -110.492741885276516, 36.804684522086689 ], [ -110.625680869353189, 36.784212189523807 ], [ -110.947802253846746, 36.771926164020172 ], [ -111.581818947135602, 36.756907236470703 ], [ -111.893714255930902, 36.751445079037765 ], [ -112.21413129447474, 36.750079478914685 ], [ -112.432287576036501, 36.756907236470703 ], [ -112.969156550192423, 36.75281065485526 ], [ -113.197538907452397, 36.759638169346708 ], [ -113.42080822686323, 36.767830384580016 ], [ -113.652599276022613, 36.762369004992095 ], [ -113.824738216942436, 36.765099743404114 ], [ -113.877572941383164, 36.761003599323395 ], [ -113.98324239026465, 36.761003599323395 ], [ -114.046303190403592, 36.769195668703567 ], [ -114.094024876995235, 36.778751976867767 ], [ -114.1553813311845, 36.796496245608324 ], [ -114.19969432587672, 36.804684522086681 ], [ -114.247416012468335, 36.810142886698124 ], [ -114.296842045009669, 36.812871923083414 ], [ -114.337746347802494, 36.816965295253191 ], [ -114.404215839840873, 36.818329703999567 ], [ -114.462163602130715, 36.818329703999567 ], [ -114.511589634672049, 36.819694088423603 ], [ -114.552493937464845, 36.816965295253191 ], [ -114.579763472660076, 36.816965295253191 ], [ -114.65986773229605, 36.814236404794777 ], [ -114.72974591623381, 36.814236404794777 ], [ -114.792806716372723, 36.808778332024858 ], [ -114.849050132712875, 36.803319870135638 ], [ -114.918928316650636, 36.796496245608317 ], [ -114.971763041091364, 36.792401779086532 ], [ -115.009258651984766, 36.789672013158786 ], [ -115.021189073632698, 36.786942149970287 ], [ -115.080841181872216, 36.78148213182206 ], [ -115.140493290111777, 36.78148213182206 ], [ -115.275136620138198, 36.777386862921773 ], [ -115.35694522572382, 36.777386862921773 ], [ -115.457501636756191, 36.785577181904124 ], [ -115.581918891084413, 36.792401779086532 ], [ -115.656910112871273, 36.803319870135638 ], [ -115.760875215803026, 36.816965295253191 ], [ -115.830753399740786, 36.833336594860562 ], [ -115.892109853930037, 36.842884901985094 ], [ -115.939831540521681, 36.857886976047986 ], [ -115.977327151415068, 36.875612904085855 ], [ -115.999483648761228, 36.886519123269203 ], [ -116.02164014610733, 36.90423840705536 ], [ -116.06595314079955, 36.947837576650656 ], [ -116.088109638145653, 36.9764359791724 ], [ -116.10174440574329, 37.013189567238001 ], [ -116.106857443592389, 37.048565120207279 ], [ -116.105153097642699, 37.079845141253884 ], [ -116.093222675994781, 37.116548704768434 ], [ -116.06424879484986, 37.166817295304362 ], [ -116.019935800157597, 37.208908497789736 ], [ -115.830753399740786, 37.330975775723033 ] ] ] ] } },
{ "type": "Feature", "properties": { "Contours": 10.0 }, "geometry": { "type": "MultiPolygon", "coordinates": [ [ [ [ -115.805188210495274, 37.259115666681396 ], [ -115.788144750998256, 37.2821726132781 ], [ -115.777918675300029, 37.306578153863668 ], [ -115.748944794155136, 37.328265319955648 ], [ -115.701223107563493, 37.35536547700314 ], [ -115.660318804770654, 37.393289264605947 ], [ -115.624527539826943, 37.437960536859407 ], [ -115.592144966782612, 37.465021066229639 ], [ -115.556353701838873, 37.477195110302475 ], [ -115.522266782844824, 37.475842536655236 ], [ -115.506927669297525, 37.466373835706811 ], [ -115.483066826001732, 37.429840469188662 ], [ -115.464319020555024, 37.397351390260013 ], [ -115.440458177259202, 37.375684176294939 ], [ -115.41489298801369, 37.371620876622544 ], [ -115.396145182566968, 37.378392920460392 ], [ -115.375693031170542, 37.395997372836604 ], [ -115.368875647371752, 37.413597691238145 ], [ -115.367171301422033, 37.433900613139791 ], [ -115.367171301422033, 37.454198029254307 ], [ -115.35012784192503, 37.470431997271113 ], [ -115.326266998629208, 37.470431997271113 ], [ -115.3126322310316, 37.46366827227515 ], [ -115.293884425584878, 37.447432835702017 ], [ -115.281954003936988, 37.414951390634904 ], [ -115.27343227418848, 37.375684176294939 ], [ -115.26831923633938, 37.341816620917847 ], [ -115.258093160641167, 37.313356065442782 ], [ -115.23082362544595, 37.269966874043782 ], [ -115.20014539835131, 37.241479120185843 ], [ -115.171171517206389, 37.230623809045007 ], [ -115.131971560363269, 37.219766934858015 ], [ -115.074023798073398, 37.226552664385494 ], [ -115.024597765532107, 37.248262895841378 ], [ -114.961536965393123, 37.280816517764684 ], [ -114.901884857153604, 37.31877795475009 ], [ -114.835415365115253, 37.362138988118062 ], [ -114.77576325687572, 37.390581058532241 ], [ -114.70418072698827, 37.406828827278545 ], [ -114.642824272799018, 37.416305065565886 ], [ -114.572946088861272, 37.424426601352764 ], [ -114.48432009947679, 37.443373425888687 ], [ -114.422963645287567, 37.465021066229639 ], [ -114.370128920846824, 37.486662440371866 ], [ -114.315589850456391, 37.519112749679401 ], [ -114.284911623361779, 37.53668411104448 ], [ -114.225259515122218, 37.567761763391971 ], [ -114.170720444731757, 37.592074363746711 ], [ -114.09913791484432, 37.617729050111237 ], [ -114.036077114705392, 37.627178546174235 ], [ -113.961085892918504, 37.631227962493504 ], [ -113.860529481886161, 37.6298781815685 ], [ -113.713955730211836, 37.628528376128649 ], [ -113.582721092084853, 37.628528376128649 ], [ -113.465121221555449, 37.632577718903335 ], [ -113.286164896836823, 37.639326133214396 ], [ -113.180495447955352, 37.642025327322017 ], [ -113.085052074772094, 37.6339274507977 ], [ -113.045852117928945, 37.616379024051298 ], [ -112.99301739348823, 37.592074363746711 ], [ -112.947000052846306, 37.574516059843482 ], [ -112.87882621485825, 37.567761763391971 ], [ -112.810652376870181, 37.575866845627949 ], [ -112.751000268630648, 37.573165249556645 ], [ -112.667487317095279, 37.558304719334068 ], [ -112.595904787207829, 37.54073845276492 ], [ -112.519209219471293, 37.523168046595977 ], [ -112.459557111231732, 37.51370534426902 ], [ -111.961888093918972, 37.450138986544985 ], [ -111.644879747274572, 37.417658716030779 ], [ -111.269923638340273, 37.377038560606152 ], [ -110.934167486249152, 37.337751487326855 ], [ -110.58136787466097, 37.286240753208403 ], [ -110.424568047288503, 37.252332868116 ], [ -110.370028976898041, 37.217052472104619 ], [ -110.329124674105202, 37.164100928305764 ], [ -110.313785560557903, 37.107034673495235 ], [ -110.330829020054892, 37.064886740452287 ], [ -110.358098555250123, 37.019993837816664 ], [ -110.388776782344777, 37.000940344892086 ], [ -110.434794122986688, 36.962819031943809 ], [ -110.513194036672942, 36.936940121843229 ], [ -110.647837366699349, 36.911052420780216 ], [ -110.775663312926937, 36.893334719243519 ], [ -110.930758794349757, 36.889245434679104 ], [ -111.184706340855229, 36.882429473610692 ], [ -111.467627768505636, 36.872886105917587 ], [ -111.733505736659012, 36.867432217552974 ], [ -111.938027250623165, 36.860614309572526 ], [ -112.183453067380128, 36.855159545194773 ], [ -113.059486885526567, 36.83470071171643 ], [ -113.516251600046516, 36.825151382889572 ], [ -113.795764335797514, 36.818329703999567 ], [ -113.880981633282587, 36.811507417051111 ], [ -113.981538044314959, 36.815600862184809 ], [ -114.030964076856279, 36.821058448524973 ], [ -114.092320531045516, 36.82787988417968 ], [ -114.177537828530603, 36.83197245367861 ], [ -114.223555169172528, 36.8360648042459 ], [ -114.296842045009669, 36.845612770783994 ], [ -114.346268077551002, 36.849704391513008 ], [ -114.412737569589339, 36.851068216429518 ], [ -114.474094023778591, 36.849704391513008 ], [ -114.55419828341455, 36.844248848548943 ], [ -114.607033007855307, 36.838792916324223 ], [ -114.685432921541562, 36.831972453678596 ], [ -114.785989332573934, 36.821058448524958 ], [ -114.866093592209864, 36.814236404794777 ], [ -114.920632662600326, 36.806049149718795 ], [ -114.987102154638663, 36.79922576837231 ], [ -115.014371689833908, 36.803319870135638 ], [ -115.082545527821964, 36.804684522086681 ], [ -115.189919322653125, 36.808778332024858 ], [ -115.30581484723281, 36.812871923083414 ], [ -115.42511906371189, 36.816965295253191 ], [ -115.5665797775371, 36.840156935872393 ], [ -115.696110069714393, 36.849704391513008 ], [ -115.791553442897637, 36.859250654976506 ], [ -115.871657702533625, 36.868795726146779 ], [ -115.927901118873777, 36.887882291143946 ], [ -115.963692383817488, 36.906964085578579 ], [ -115.999483648761228, 36.931490809988048 ], [ -116.038683605604348, 36.970989492598889 ], [ -116.054022719151632, 36.991411807371456 ], [ -116.072770524598369, 37.024076107702406 ], [ -116.081292254346863, 37.047204826715856 ], [ -116.079587908397173, 37.079845141253884 ], [ -116.05913575700076, 37.116548704768434 ], [ -116.036979259654629, 37.14372506413374 ], [ -116.009709724459427, 37.172249736410002 ], [ -115.965396729767178, 37.198048498005207 ], [ -115.917675043175549, 37.210265887887715 ], [ -115.866544664684525, 37.223838445837153 ], [ -115.818822978092896, 37.237408561687943 ], [ -115.803483864545569, 37.250976235118436 ], [ -115.805188210495274, 37.259115666681396 ] ] ] ] } },
{ "type": "Feature", "properties": { "Contours": 40.0 }, "geometry": { "type": "MultiPolygon", "coordinates": [ [ [ [ -115.002441268186004, 36.878339604907858 ], [ -114.924041354499735, 36.891971648729225 ], [ -114.854163170561975, 36.900149706694009 ], [ -114.79962410017157, 36.905601258488964 ], [ -114.762128489278112, 36.909689666724553 ], [ -114.69906768913917, 36.917865825871935 ], [ -114.605328661905602, 36.930128421147529 ], [ -114.533746132018166, 36.935577830406146 ], [ -114.451937526432488, 36.939664631661977 ], [ -114.358198499198934, 36.945113359068372 ], [ -114.274685547663552, 36.942389044071248 ], [ -114.209920401574905, 36.942389044071248 ], [ -114.158790023083895, 36.941026850042952 ], [ -114.100842260794039, 36.949199648910408 ], [ -114.039485806604787, 36.972351150783183 ], [ -114.007103233560485, 37.003662564882355 ], [ -113.98324239026465, 37.033600551032023 ], [ -113.959381546968828, 37.060806664537971 ], [ -113.920181590125694, 37.08800302527942 ], [ -113.863938173785542, 37.11111226183445 ], [ -113.824738216942436, 37.117907754514356 ], [ -113.792355643898091, 37.126061540668921 ], [ -113.748042649205871, 37.138290573037587 ], [ -113.712251384262146, 37.138290573037587 ], [ -113.678164465268125, 37.130138104382389 ], [ -113.662825351720812, 37.121984757376644 ], [ -113.659416659821417, 37.116548704768455 ], [ -113.666234043620236, 37.107034673495235 ], [ -113.67475577336873, 37.100238205072792 ], [ -113.681573157167534, 37.090722124850217 ], [ -113.686686195016648, 37.077125651483058 ], [ -113.690094886916029, 37.054006050380252 ], [ -113.676460119318421, 37.028158158231143 ], [ -113.661121005771122, 37.009106712443923 ], [ -113.632147124626201, 36.985966392750022 ], [ -113.587834129933967, 36.970989492598896 ], [ -113.543521135241718, 36.969627810054561 ], [ -113.49239075675068, 36.966904371887075 ], [ -113.44126037825967, 36.968266103150505 ], [ -113.383312615969814, 36.965542616264592 ], [ -113.327069199629676, 36.962819031943809 ], [ -113.277643167088328, 36.960095350190848 ], [ -113.214582366949386, 36.960095350190848 ], [ -113.132773761363751, 36.960095350190848 ], [ -113.057782539576877, 36.960095350190848 ], [ -112.972565242091804, 36.958733472778121 ], [ -112.887347944606745, 36.962819031943809 ], [ -112.819174106618718, 36.965542616264592 ], [ -112.740774192932463, 36.970989492598896 ], [ -112.672600354944393, 36.972351150783183 ], [ -112.601017825056942, 36.979159076292191 ], [ -112.544774408716805, 36.990050490262831 ], [ -112.515800527571884, 36.995495612505778 ], [ -112.493644030225767, 37.000940344892086 ], [ -112.46637449503055, 37.015911348582833 ], [ -112.449331035533547, 37.022715375446388 ], [ -112.442513651734743, 37.037682089693014 ], [ -112.442513651734743, 37.051285634052988 ], [ -112.461261457181465, 37.071686379313753 ], [ -112.498757068074895, 37.086643438911139 ], [ -112.590791749358758, 37.12062578081877 ], [ -112.643626473799472, 37.141007867388126 ], [ -112.691348160391115, 37.15866790143005 ], [ -112.744182884831844, 37.1749658105119 ], [ -112.802130647121686, 37.189902472733728 ], [ -112.841330603964835, 37.198048498005214 ], [ -112.887347944606745, 37.207551083274339 ], [ -112.936773977148079, 37.212980594830015 ], [ -112.979382625890608, 37.215695204098708 ], [ -113.004947815136148, 37.211623253567922 ], [ -113.03733038818045, 37.208908497789743 ], [ -113.076530345023599, 37.199406083433686 ], [ -113.108912918067901, 37.188544716408053 ], [ -113.142999837061936, 37.181755568597197 ], [ -113.173678064156576, 37.18311344698261 ], [ -113.204356291251187, 37.191260204646504 ], [ -113.229921480496728, 37.200763644446958 ], [ -113.260599707591339, 37.217052472104633 ], [ -113.275938821138638, 37.237408561687943 ], [ -113.296390972535065, 37.260472153107727 ], [ -113.313434432032054, 37.287596750980804 ], [ -113.350930042925512, 37.320133365969276 ], [ -113.386721307869237, 37.343171616551068 ], [ -113.422512572812963, 37.360784334800847 ], [ -113.449782108008151, 37.375684176294939 ], [ -113.500912486499189, 37.402767215333448 ], [ -113.572495016386668, 37.417658716030779 ], [ -113.635555816525581, 37.425780105014489 ], [ -113.720773114010655, 37.429840469188669 ], [ -113.78724260604902, 37.421719520625714 ], [ -113.848599060238243, 37.412243967375915 ], [ -113.923590282025089, 37.406828827278552 ], [ -113.978129352415564, 37.400059351721403 ], [ -114.032668422805969, 37.390581058532241 ], [ -114.080390109397626, 37.375684176294939 ], [ -114.12299875814017, 37.36755735684865 ], [ -114.179242174480308, 37.355365477003154 ], [ -114.24230297461925, 37.335041276026573 ], [ -114.272981201713861, 37.324199452963384 ], [ -114.301955082858782, 37.314711574433566 ], [ -114.347972423500693, 37.302511113627482 ], [ -114.419554953388186, 37.290308673217112 ], [ -114.480911407577395, 37.275391891369658 ], [ -114.518407018470825, 37.267254218788189 ], [ -114.561015667213354, 37.256402620541003 ], [ -114.59169389430798, 37.249619577693466 ], [ -114.622372121402591, 37.237408561687943 ], [ -114.695658997239789, 37.208908497789743 ], [ -114.748493721680504, 37.188544716408053 ], [ -114.79962410017157, 37.166817295304362 ], [ -114.850754478662594, 37.139649232413319 ], [ -114.908702240952394, 37.121984757376666 ], [ -114.971763041091393, 37.109753090114999 ], [ -115.014371689833908, 37.097519446961456 ], [ -115.075728144023145, 37.089362587259231 ], [ -115.123449830614788, 37.081204849559697 ], [ -115.149015019860286, 37.079845141253905 ], [ -115.19844105240162, 37.079845141253905 ], [ -115.3126322310316, 37.078485408561569 ], [ -115.498405939549045, 37.082564533478646 ], [ -115.617710156028124, 37.093441126864448 ], [ -115.696110069714393, 37.102956865618374 ], [ -115.748944794155136, 37.108393894001821 ], [ -115.839275129489295, 37.113830532090866 ], [ -115.852909897086889, 37.112471409159852 ], [ -115.91426635127614, 37.113830532090866 ], [ -115.965396729767178, 37.111112261834457 ], [ -115.989257573063, 37.108393894001821 ], [ -116.016527108258202, 37.100238205072799 ], [ -116.033570567755248, 37.090722124850231 ], [ -116.048909681302518, 37.081204849559697 ], [ -116.057431411051041, 37.060806664537978 ], [ -116.050614027252252, 37.036321601181896 ], [ -116.045500989403138, 37.021354618817689 ], [ -116.030161875855839, 36.999579198345742 ], [ -116.013118416358822, 36.979159076292191 ], [ -115.985848881163591, 36.953285719560093 ], [ -115.965396729767178, 36.939664631661977 ], [ -115.939831540521681, 36.917865825871942 ], [ -115.895518545829447, 36.898786757887848 ], [ -115.808596902394669, 36.885155931055181 ], [ -115.757466523903645, 36.881066208380894 ], [ -115.701223107563493, 36.871522670329448 ], [ -115.648388383122736, 36.866068684624629 ], [ -115.551240663989802, 36.861977939835683 ], [ -115.501814631448454, 36.863341545765643 ], [ -115.443866869158612, 36.855159545194773 ], [ -115.394440836617278, 36.852432017015552 ], [ -115.30581484723281, 36.852432017015552 ], [ -115.264910544439957, 36.852432017015552 ], [ -115.002441268186004, 36.878339604907858 ] ] ] ] } },
{ "type": "Feature", "properties": { "Contours": 100.0 }, "geometry": { "type": "MultiPolygon", "coordinates": [ [ [ [ -115.149015019860286, 37.017272202698898 ], [ -115.102997679218376, 37.017272202698898 ], [ -115.062093376425537, 37.017272202698898 ], [ -115.017780381733303, 37.017272202698898 ], [ -114.990510846538086, 37.017272202698898 ], [ -114.959832619443475, 37.017272202698898 ], [ -114.925745700449426, 37.018633032443624 ], [ -114.910406586902141, 37.018633032443624 ], [ -114.895067473354814, 37.014550470095763 ], [ -114.891658781455405, 37.006384687400541 ], [ -114.896771819304504, 37.000940344892093 ], [ -114.901884857153632, 37.000940344892093 ], [ -114.912110932851832, 36.995495612505778 ], [ -114.944493505896162, 36.985966392750022 ], [ -114.993919538437495, 36.97235115078319 ], [ -115.009258651984766, 36.97098949259891 ], [ -115.034823841230306, 36.964180836283404 ], [ -115.058684684526114, 36.961457203246191 ], [ -115.080841181872216, 36.960095350190848 ], [ -115.097884641369248, 36.960095350190848 ], [ -115.120041138715365, 36.95600964488186 ], [ -115.12856286846386, 36.95600964488186 ], [ -115.181397592904617, 36.953285719560093 ], [ -115.295588771534611, 36.942389044071248 ], [ -115.406371258265153, 36.934215514617698 ], [ -115.5665797775371, 36.92876600795698 ], [ -115.701223107563493, 36.932853174478232 ], [ -115.832457745690476, 36.942389044071248 ], [ -115.890405507980347, 36.947837576650656 ], [ -115.934718502672538, 36.961457203246191 ], [ -115.958579345968388, 36.965542616264592 ], [ -115.9943706109121, 36.984604978184549 ], [ -116.006301032559989, 36.995495612505778 ], [ -116.014822762308512, 37.005023638325632 ], [ -116.033570567755248, 37.021354618817689 ], [ -116.036979259654629, 37.032239989393958 ], [ -116.042092297503757, 37.052645854406585 ], [ -116.028457529906149, 37.060806664537978 ], [ -116.02164014610733, 37.064886740452302 ], [ -116.009709724459427, 37.070326500309228 ], [ -115.972214113565997, 37.070326500309228 ], [ -115.924492426974339, 37.063526739529991 ], [ -115.859727280885707, 37.05672636918645 ], [ -115.767692599601844, 37.044484166597471 ], [ -115.696110069714393, 37.034961088294793 ], [ -115.592144966782641, 37.025436815585429 ], [ -115.491588555750269, 37.015911348582833 ], [ -115.409779950164591, 37.010467688411751 ], [ -115.149015019860286, 37.017272202698898 ] ] ] ] } }
]
}
