{
"type": "FeatureCollection",
"name": "Plumbbob_Smoky_exposure_contours_modified_30012025",
"crs": { "type": "name", "properties": { "name": "urn:ogc:def:crs:OGC:1.3:CRS84" } },
"features": [
{ "type": "Feature", "properties": { "Exposure_rate": 1.0, "AREA": 25278865945.720001, "Area_km2": 25278.87 }, "geometry": { "type": "MultiPolygon", "coordinates": [ [ [ [ -114.530520509902445, 36.624418787262826 ], [ -114.390859677400755, 36.621717856609685 ], [ -114.241102881103757, 36.64737287650474 ], [ -114.059375532788295, 36.682465901130932 ], [ -113.902888093961067, 36.747210974054695 ], [ -113.773323225254714, 36.832106044496243 ], [ -113.667315605404013, 36.923633209202421 ], [ -113.547846700492954, 37.04594637898694 ], [ -113.500732202781492, 37.094279700261481 ], [ -113.460348347600288, 37.111725828588114 ], [ -113.425012474316731, 37.123801563509637 ], [ -113.387993940400619, 37.129167938536007 ], [ -113.35265806711709, 37.130509472839712 ], [ -113.292082284345241, 37.135875372233428 ], [ -113.207949252717711, 37.157335164320713 ], [ -113.117085578559994, 37.19219433761689 ], [ -113.004347316179107, 37.271238168813632 ], [ -112.918531623919051, 37.352874290428602 ], [ -112.856273180514677, 37.411704311324144 ], [ -112.804110700905611, 37.474494473796312 ], [ -112.75194822129653, 37.52655693625141 ], [ -112.667815189669028, 37.553241551478649 ], [ -112.61228738879484, 37.553241551478649 ], [ -112.504597108311614, 37.582583596458399 ], [ -112.423829397949191, 37.615912797023441 ], [ -112.331283063158907, 37.670540358061039 ], [ -112.237054067736082, 37.715810785740132 ], [ -112.11758516282498, 37.76770458735723 ], [ -111.984654972853491, 37.836839713460357 ], [ -111.91734854755147, 37.880680355077907 ], [ -111.673362755831675, 38.017348511691118 ], [ -111.474808801190733, 38.114056393435767 ], [ -111.314956041098441, 38.197413817410272 ], [ -111.259428240224267, 38.242360767501893 ], [ -111.212313742512862, 38.283317606391776 ], [ -111.168564566066522, 38.328211454505713 ], [ -111.121450068355131, 38.380992164762212 ], [ -111.1012581407645, 38.41132364885172 ], [ -111.074335570643711, 38.458773464921492 ], [ -111.069287588746064, 38.48643812104639 ], [ -111.059191624950756, 38.523307815235036 ], [ -111.064239606848417, 38.546999792976834 ], [ -111.074335570643711, 38.586469081353286 ], [ -111.089479516336667, 38.629860255133742 ], [ -111.1012581407645, 38.660087068616413 ], [ -111.123132728987656, 38.685047426979729 ], [ -111.143324656578272, 38.709999081527904 ], [ -111.161833923536335, 38.728378940727715 ], [ -111.232505670103407, 38.796605596619145 ], [ -111.288033470977567, 38.839869440325494 ], [ -111.346926593116848, 38.863456821220126 ], [ -111.414233018418884, 38.872627579091557 ], [ -111.464712837395382, 38.872627579091557 ], [ -111.525288620167203, 38.871317543257739 ], [ -111.557259172185653, 38.868697399155614 ], [ -111.604373669897086, 38.860836387390584 ], [ -111.676728077096755, 38.835937449755619 ], [ -111.732255877970914, 38.804473704898697 ], [ -111.80965826706823, 38.752003242066444 ], [ -111.903887262491082, 38.669284002643323 ], [ -111.971193687793104, 38.607510503226955 ], [ -112.040182773727651, 38.55094769732839 ], [ -112.083931950173991, 38.504875327572826 ], [ -112.142825072313258, 38.448231756416448 ], [ -112.176478284964261, 38.419234117037625 ], [ -112.189939570024649, 38.392862521787848 ], [ -112.233688746470989, 38.345369405370363 ], [ -112.299312511140471, 38.268787177657529 ], [ -112.341379026954257, 38.214602694573685 ], [ -112.396906827828417, 38.147146139026638 ], [ -112.417098755419033, 38.118027954918738 ], [ -112.442338664907282, 38.090222489204784 ], [ -112.477674538190826, 38.051807070778963 ], [ -112.51637573273949, 38.018674140640798 ], [ -112.555076927288155, 37.984199995869652 ], [ -112.597143443101928, 37.956343664446109 ], [ -112.634161977018053, 37.94042101552315 ], [ -112.679593814096904, 37.904582440326209 ], [ -112.740169596868725, 37.867398065847048 ], [ -112.770457488254621, 37.850127509917456 ], [ -112.800745379640517, 37.831523924547483 ], [ -112.834398592291564, 37.812915647200974 ], [ -112.876465108105293, 37.798291566800089 ], [ -112.908435660123757, 37.788983826106573 ], [ -112.945454194039868, 37.777015008015681 ], [ -112.982472727956008, 37.763714048194785 ], [ -113.019491261872119, 37.750410695963183 ], [ -113.117085578560037, 37.717141850472245 ], [ -113.177661361331857, 37.699836143765033 ], [ -113.265159714224481, 37.670540358061025 ], [ -113.325735496996288, 37.650559325198053 ], [ -113.450252383805037, 37.605249077274458 ], [ -113.534385415432567, 37.57591596485431 ], [ -113.605057161999682, 37.547905392456471 ], [ -113.795197813477884, 37.450453403438082 ], [ -113.874282863207739, 37.417050206171879 ], [ -113.923080021551726, 37.384969114329358 ], [ -113.985338464956101, 37.346186140743676 ], [ -114.056010211523201, 37.31273645624163 ], [ -114.143508564415825, 37.27257718051235 ], [ -114.219228292880587, 37.241773886937544 ], [ -114.363937107279952, 37.18281075779268 ], [ -114.476675369660825, 37.151970787162142 ], [ -114.629797487222945, 37.123801563509637 ], [ -114.749266392134032, 37.107700155609933 ], [ -114.865369975780013, 37.100990225121592 ], [ -114.934359061714574, 37.102332258770261 ], [ -115.068971912318588, 37.103674268643729 ], [ -115.176662192801857, 37.105016254741727 ], [ -115.267525866959573, 37.121118233313872 ], [ -115.351658898587118, 37.142582211354743 ], [ -115.450935875907604, 37.161358197416163 ], [ -115.555260835125722, 37.181470151210767 ], [ -115.615836617897557, 37.192194337616883 ], [ -115.662951115608962, 37.197555859721909 ], [ -115.716796255850568, 37.214978176846522 ], [ -115.733622862176063, 37.224357758471136 ], [ -115.78073735988751, 37.243113422482438 ], [ -115.821121215068672, 37.259185991912851 ], [ -115.864870391515026, 37.268560073973205 ], [ -115.888427640370722, 37.275255132465304 ], [ -115.905254246696245, 37.279271881778811 ], [ -115.93049415618448, 37.283288416745904 ], [ -115.950686083775068, 37.284627214100972 ], [ -116.03650177603518, 37.288643463259881 ], [ -116.071837649318724, 37.285965987638519 ], [ -116.098760219439555, 37.285965987638519 ], [ -116.11558682576505, 37.283288416745897 ], [ -116.145874717150932, 37.265881883877533 ], [ -116.1542880203137, 37.2471318862682 ], [ -116.161018662843887, 37.227037424707412 ], [ -116.157653341578808, 37.188172946177268 ], [ -116.139144074620745, 37.153311917132761 ], [ -116.11390416513251, 37.125143192937344 ], [ -116.092029576909354, 37.105016254741727 ], [ -116.068472328053645, 37.08488396698781 ], [ -116.023040490974765, 37.062060908522554 ], [ -115.977608653895899, 37.036544656556202 ], [ -115.915350210491525, 37.001613781204902 ], [ -115.79083332368279, 36.95725531816128 ], [ -115.713430934585489, 36.942463417965371 ], [ -115.67472974003681, 36.93170386831035 ], [ -115.59732735093948, 36.89268776835366 ], [ -115.52665560437238, 36.857690852827091 ], [ -115.445887894009914, 36.813248603168461 ], [ -115.361754862382426, 36.752603933544393 ], [ -115.321371007201208, 36.733726917077405 ], [ -115.274256509489788, 36.72158924057706 ], [ -115.205267423555227, 36.71754292209171 ], [ -115.139643658885745, 36.713496390461984 ], [ -115.060558609155876, 36.71214749922153 ], [ -114.993252183853855, 36.716194101897386 ], [ -114.897340527798463, 36.701355516796198 ], [ -114.782919604785036, 36.677068015777429 ], [ -114.708882536952785, 36.654122777700628 ], [ -114.628114826590377, 36.633871299251155 ], [ -114.530520509902445, 36.624418787262826 ] ] ] ] } },
{ "type": "Feature", "properties": { "Exposure_rate": 10.0, "AREA": 8286131068.4329996, "Area_km2": 8286.13 }, "geometry": { "type": "MultiPolygon", "coordinates": [ [ [ [ -115.659585794343855, 37.047289387146265 ], [ -115.573770102083756, 37.011019827346658 ], [ -115.487954409823729, 36.974732951155005 ], [ -115.422330645154247, 36.953221448434249 ], [ -115.314640364671007, 36.907489327917098 ], [ -115.247333939368986, 36.889996267263811 ], [ -115.168248889639088, 36.887304671275238 ], [ -115.074019894216292, 36.898070485826771 ], [ -114.969694934998145, 36.923633209202414 ], [ -114.892292545900816, 36.934393898138786 ], [ -114.804794193008206, 36.93170386831035 ], [ -114.712247858217921, 36.926323523839592 ], [ -114.606240238367235, 36.918252295137414 ], [ -114.545664455595414, 36.903452823673831 ], [ -114.463214084600438, 36.87922931394305 ], [ -114.370667749810153, 36.871153102615729 ], [ -114.273073433122221, 36.87384526794218 ], [ -114.1418259037833, 36.889996267263811 ], [ -114.091346084806815, 36.90210727480315 ], [ -114.008895713811839, 36.912871001368757 ], [ -113.912984057756461, 36.937083833025838 ], [ -113.803611116640667, 36.973388660308792 ], [ -113.699286157422534, 37.021768169141772 ], [ -113.600009180102035, 37.08488396698781 ], [ -113.568038628083571, 37.127826380450855 ], [ -113.525972112269841, 37.164040100535367 ], [ -113.463713668865466, 37.174766761402452 ], [ -113.398089904195999, 37.181470151210789 ], [ -113.347610085219458, 37.197555859721938 ], [ -113.28198632054999, 37.229716995726747 ], [ -113.204583931452675, 37.273916168396362 ], [ -113.08679768717414, 37.352874290428602 ], [ -113.038000528830153, 37.392990674833989 ], [ -112.967328782263053, 37.451789221242962 ], [ -112.874782447472782, 37.533228985357255 ], [ -112.772140148887189, 37.601249788182372 ], [ -112.645940601445901, 37.635903150076842 ], [ -112.531519678432474, 37.677199507202296 ], [ -112.388493524665691, 37.743758122783056 ], [ -112.235371407103599, 37.824878649788751 ], [ -112.142825072313286, 37.871383004065301 ], [ -112.094027913969342, 37.908565366688464 ], [ -112.048596076890476, 37.943075029974061 ], [ -111.986337633486116, 38.005416772174364 ], [ -111.919031208184094, 38.106112622535697 ], [ -111.888743316798184, 38.164346877862968 ], [ -111.882012674267983, 38.185511448022872 ], [ -111.87864735300289, 38.20138084161519 ], [ -111.87864735300289, 38.205347649679261 ], [ -111.882012674267983, 38.209314241595251 ], [ -111.888743316798184, 38.213280617355899 ], [ -111.892108638063277, 38.214602694573699 ], [ -111.902204601858571, 38.219890763258903 ], [ -111.915665886918958, 38.219890763258903 ], [ -111.972876348425686, 38.213280617355899 ], [ -112.053644058788137, 38.189479120606862 ], [ -112.191622230657259, 38.143176161624488 ], [ -112.267341959122035, 38.116704125089377 ], [ -112.329600402526395, 38.092871084701969 ], [ -112.366618936442521, 38.070354964028212 ], [ -112.403637470358646, 38.023976416655614 ], [ -112.437290683009635, 37.969609902409516 ], [ -112.497866465781456, 37.903254750296739 ], [ -112.600508764367021, 37.822220372322604 ], [ -112.699785741687535, 37.755732323926765 ], [ -112.745217578766372, 37.731781984135552 ], [ -112.8091586828033, 37.690516012547278 ], [ -112.886561071900644, 37.647894781169519 ], [ -112.918531623919094, 37.630572914940927 ], [ -112.958915479100312, 37.61991129772052 ], [ -113.014443279974472, 37.603916004799629 ], [ -113.075019062746279, 37.5959170682858 ], [ -113.145690809313422, 37.58258359645842 ], [ -113.199535949555013, 37.567914018789871 ], [ -113.238237144103692, 37.551907547539521 ], [ -113.276938338652357, 37.531894623282206 ], [ -113.357706049014766, 37.485176912562245 ], [ -113.404820546726171, 37.457132253904895 ], [ -113.497366881516456, 37.401011377019479 ], [ -113.608422483264818, 37.340835192025594 ], [ -113.717795424380583, 37.280610750584543 ], [ -113.805293777273192, 37.241773886937551 ], [ -113.916349379021554, 37.185491899574203 ], [ -113.998799750016531, 37.155994105712374 ], [ -114.086298102909154, 37.129167938536007 ], [ -114.158652510108837, 37.117093059674104 ], [ -114.237737559838678, 37.105016254741734 ], [ -114.299996003243052, 37.090253100063372 ], [ -114.358889125382348, 37.076829554248278 ], [ -114.429560871949462, 37.056689778901635 ], [ -114.46321408460048, 37.04594637898694 ], [ -114.51874188547464, 37.03117172101873 ], [ -114.552395098125629, 37.027141769901242 ], [ -114.596144274571955, 37.029828427737549 ], [ -114.651672075446129, 37.032514990541507 ], [ -114.702151894422656, 37.037887831042177 ], [ -114.744218410236385, 37.04594637898694 ], [ -114.80479419300822, 37.056689778901635 ], [ -114.870417957677688, 37.060718161765095 ], [ -114.94445502550991, 37.068774285817923 ], [ -115.04373200283041, 37.068774285817923 ], [ -115.100942464337109, 37.072802026990168 ], [ -115.20695008418781, 37.087568581069043 ], [ -115.30117907961062, 37.100990225121592 ], [ -115.380264129340503, 37.123801563509637 ], [ -115.442522572744835, 37.139899547057858 ], [ -115.508146337414345, 37.149288455860784 ], [ -115.595644690306969, 37.165381016410699 ], [ -115.659585794343883, 37.181470151210796 ], [ -115.698286988892562, 37.192194337616897 ], [ -115.71847891648315, 37.201576751429009 ], [ -115.725209559013365, 37.204257226909192 ], [ -115.849726445822071, 37.240434327585021 ], [ -115.88842764037075, 37.249810743081532 ], [ -115.898523604166058, 37.255168170991773 ], [ -115.927128834919429, 37.26320359852911 ], [ -115.959099386937893, 37.265881883877555 ], [ -115.986021957058668, 37.269899133300477 ], [ -116.01462718781201, 37.271238168813632 ], [ -116.034819115402669, 37.275255132465304 ], [ -116.063424346156012, 37.272577180512371 ], [ -116.070154988686213, 37.272577180512371 ], [ -116.092029576909354, 37.268560073973205 ], [ -116.098760219439555, 37.264542753109765 ], [ -116.115586825765078, 37.25784674208375 ], [ -116.129048110825465, 37.248471326579477 ], [ -116.135778753355666, 37.237755137458258 ], [ -116.137461413988234, 37.225697603491248 ], [ -116.132413432090587, 37.196215514891001 ], [ -116.122317468295279, 37.170744442009571 ], [ -116.076885631216399, 37.139899547057858 ], [ -116.053328382360689, 37.127826380450855 ], [ -116.026405812239886, 37.121118233313879 ], [ -116.002848563384191, 37.113067672026482 ], [ -115.967512690100648, 37.106358217063907 ], [ -115.878331676575456, 37.095621852781356 ], [ -115.834582500129116, 37.088910852452223 ], [ -115.79588130558048, 37.082199257822282 ], [ -115.71847891648315, 37.063403631514305 ], [ -115.684825703832118, 37.056689778901635 ], [ -115.659585794343855, 37.047289387146265 ] ] ] ] } },
{ "type": "Feature", "properties": { "Exposure_rate": 50.0, "AREA": 1928875227.793, "Area_km2": 1928.88 }, "geometry": { "type": "MultiPolygon", "coordinates": [ [ [ [ -115.667157767190304, 37.063403631514305 ], [ -115.612471296632435, 37.04661788603687 ], [ -115.553578174493182, 37.027141769901242 ], [ -115.480382436977223, 37.009004344010549 ], [ -115.384470780921831, 36.988846571375142 ], [ -115.285193803601359, 36.96666684991397 ], [ -115.184234165648334, 36.955238410005649 ], [ -115.113562419081205, 36.948514997045798 ], [ -115.032794708718797, 36.943808254857856 ], [ -114.970536265314422, 36.944480664402519 ], [ -114.906595161277508, 36.946497857429691 ], [ -114.84265405724058, 36.949187365048516 ], [ -114.781236944152496, 36.949187365048516 ], [ -114.708882536952785, 36.943808254857856 ], [ -114.636528129753145, 36.942463417965378 ], [ -114.568380374134861, 36.939101221884243 ], [ -114.485088672823608, 36.941790990617633 ], [ -114.421147568786665, 36.948514997045798 ], [ -114.334490546210318, 36.955238410005649 ], [ -114.241102881103757, 36.964650191046225 ], [ -114.163700492006456, 36.972044345717876 ], [ -114.138460582518178, 36.97674934290238 ], [ -114.112379342713638, 36.985486423078136 ], [ -114.092187415123036, 36.992878553407174 ], [ -114.072836817848724, 37.003629460499226 ], [ -114.066106175318509, 37.007660658761651 ], [ -114.064423514685984, 37.010348005506309 ], [ -114.063582184369679, 37.014378847471484 ], [ -114.064423514685984, 37.017065956676682 ], [ -114.071995487532433, 37.018409475646841 ], [ -114.080408790695174, 37.019081226223669 ], [ -114.110696682081084, 37.017737719131162 ], [ -114.143508564415825, 37.021096442320705 ], [ -114.193147053076061, 37.017737719131162 ], [ -114.274756093754789, 37.011691643248589 ], [ -114.331966555261474, 37.00631694975992 ], [ -114.419464908154126, 37.007660658761651 ], [ -114.512011242944396, 37.013707055323572 ], [ -114.554077758758154, 37.013707055323572 ], [ -114.591096292674266, 37.011019827346658 ], [ -114.628114826590377, 37.010348005506309 ], [ -114.684483957780813, 37.018409475646841 ], [ -114.736646437389879, 37.027141769901242 ], [ -114.827510111547625, 37.036544656556202 ], [ -114.907436491593771, 37.042588754630998 ], [ -114.97137759563067, 37.052661182158189 ], [ -115.026905396504858, 37.052661182158189 ], [ -115.090846500541772, 37.054004071503265 ], [ -115.143850310467116, 37.059375391242227 ], [ -115.184234165648334, 37.068102974825926 ], [ -115.241444627155047, 37.074815817359024 ], [ -115.286035133917665, 37.086897436463026 ], [ -115.344928256056903, 37.099648167698057 ], [ -115.396249405349707, 37.113067672026482 ], [ -115.434109269582095, 37.122459910301707 ], [ -115.473651794447008, 37.130509472839712 ], [ -115.509828998046856, 37.136546082902129 ], [ -115.56115014733966, 37.145935407937124 ], [ -115.595644690306941, 37.153982473197935 ], [ -115.629297902957944, 37.16404010053536 ], [ -115.672205749087993, 37.174766761402452 ], [ -115.696604328259966, 37.18281075779268 ], [ -115.722685568064506, 37.192864548702069 ], [ -115.738670844073695, 37.198226023213387 ], [ -115.765593414194527, 37.207607687389952 ], [ -115.821962545384991, 37.22368782703473 ], [ -115.879173006891705, 37.239094744425152 ], [ -115.922922183338031, 37.251150135774104 ], [ -115.966671359784328, 37.25784674208375 ], [ -115.998641911802792, 37.259855607898089 ], [ -116.037343106351429, 37.261864420135851 ], [ -116.068472328053645, 37.262534012309033 ], [ -116.097918889123264, 37.253828849729537 ], [ -116.121476137978959, 37.238424943917558 ], [ -116.125682789560329, 37.226367517074841 ], [ -116.124841459244095, 37.205597428950988 ], [ -116.118952147030157, 37.18750269344963 ], [ -116.106332192286004, 37.173426012063189 ], [ -116.092870907225617, 37.162028682116933 ], [ -116.072678979635029, 37.149959047606025 ], [ -116.043232418565353, 37.13922886611855 ], [ -116.002848563384163, 37.127155592490304 ], [ -115.925446174286861, 37.115080392600738 ], [ -115.792515984315358, 37.094279700261481 ], [ -115.718478916483107, 37.076829554248256 ], [ -115.667157767190304, 37.063403631514305 ] ] ] ] } },
{ "type": "Feature", "properties": { "Exposure_rate": 100.0, "AREA": 1279434664.974, "Area_km2": 1279.43 }, "geometry": { "type": "MultiPolygon", "coordinates": [ [ [ [ -115.666316436874055, 37.074815817359024 ], [ -115.624249921060311, 37.062732272989166 ], [ -115.540958219749058, 37.041917211938831 ], [ -115.44925321527505, 37.023783313970497 ], [ -115.356706880484765, 36.998254196957966 ], [ -115.270891188224709, 36.978765681222455 ], [ -115.210315405452889, 36.976077218256243 ], [ -115.172455541220458, 36.971372179518291 ], [ -115.054669296941981, 36.964650191046246 ], [ -114.926787088868153, 36.96666684991397 ], [ -114.831716763129037, 36.962633478757667 ], [ -114.697103912524966, 36.957255318161309 ], [ -114.619701523427679, 36.954566095416915 ], [ -114.565015052869782, 36.953221448434263 ], [ -114.542299134330321, 36.954566095416915 ], [ -114.528837849269948, 36.957927609009495 ], [ -114.515376564209546, 36.961961229457053 ], [ -114.498549957884038, 36.963977959552317 ], [ -114.485088672823608, 36.965322416604515 ], [ -114.479199360609712, 36.96666684991397 ], [ -114.475834039344605, 36.968011259480342 ], [ -114.47162738776322, 36.971372179518291 ], [ -114.470786057446944, 36.975405087673785 ], [ -114.474992709028299, 36.978093574385539 ], [ -114.482564681874806, 36.98010987708679 ], [ -114.501915279149117, 36.982126126358914 ], [ -114.526313858321103, 36.984142322200839 ], [ -114.584365650144093, 36.988846571375142 ], [ -114.643258772283374, 36.990862589108609 ], [ -114.698786573157548, 36.998926125682821 ], [ -114.749266392134061, 37.009676177727606 ], [ -114.816572817436082, 37.019081226223683 ], [ -114.900705849063613, 37.029828427737549 ], [ -114.974742916895849, 37.038559409375182 ], [ -115.018492093342147, 37.043260291382914 ], [ -115.077385215481414, 37.042588754631005 ], [ -115.13375434667185, 37.048632371543384 ], [ -115.168248889639131, 37.055346937084515 ], [ -115.199378111341318, 37.061389538114526 ], [ -115.245651278736474, 37.066760335016639 ], [ -115.293607106764156, 37.074815817359031 ], [ -115.353341559219686, 37.088239719732115 ], [ -115.402980047879922, 37.102332258770261 ], [ -115.448411884958773, 37.115080392600738 ], [ -115.477858446028435, 37.122459910301707 ], [ -115.546847531962968, 37.135204655618978 ], [ -115.611629966316158, 37.149959047606046 ], [ -115.652855151813654, 37.161358197416178 ], [ -115.700810979841336, 37.174766761402459 ], [ -115.725209559013337, 37.184151340580591 ], [ -115.747925477552769, 37.192864548702069 ], [ -115.795881305580465, 37.207607687389952 ], [ -115.869077043096425, 37.226367517074856 ], [ -115.932176816817048, 37.241104110237231 ], [ -115.990228608640052, 37.250480442404026 ], [ -116.043232418565353, 37.254498513336969 ], [ -116.081092282797769, 37.252489504656872 ], [ -116.103808201337202, 37.238424943917558 ], [ -116.11138017418368, 37.22100804178077 ], [ -116.114745495448773, 37.206937607193524 ], [ -116.11138017418368, 37.192194337616897 ], [ -116.094553567858185, 37.174096389706818 ], [ -116.061741685523444, 37.154653023316293 ], [ -116.021357830342225, 37.140570222051181 ], [ -115.955734065672772, 37.128497162466104 ], [ -115.851409106454639, 37.111725828588128 ], [ -115.666316436874055, 37.074815817359024 ] ] ] ] } },
{ "type": "Feature", "properties": { "Exposure_rate": 500.0, "AREA": 499299719.03899997, "Area_km2": 499.3 }, "geometry": { "type": "MultiPolygon", "coordinates": [ [ [ [ -115.682301712883259, 37.090253100063372 ], [ -115.608264645051079, 37.068102974825933 ], [ -115.546006201646705, 37.058032596954313 ], [ -115.484589088558593, 37.043260291382921 ], [ -115.438315921163465, 37.037887831042177 ], [ -115.396249405349707, 37.029828427737549 ], [ -115.366802844280073, 37.025798405346755 ], [ -115.348293577321982, 37.023783313970505 ], [ -115.34156293479181, 37.022439890023783 ], [ -115.334832292261595, 37.024455017035137 ], [ -115.331466970996516, 37.028485110698277 ], [ -115.332308301312793, 37.031843358749946 ], [ -115.333990961945361, 37.033186616393387 ], [ -115.33988027415927, 37.038559409375182 ], [ -115.350817568270841, 37.041245663306427 ], [ -115.360072201749858, 37.046617886036877 ], [ -115.371009495861443, 37.051989728574348 ], [ -115.407186699461292, 37.062732272989173 ], [ -115.445046563693666, 37.071459470367245 ], [ -115.470286473181929, 37.085555129422389 ], [ -115.534227577218829, 37.111054897952386 ], [ -115.599851341888282, 37.135204655618978 ], [ -115.641917857702097, 37.145935407937124 ], [ -115.685667034148395, 37.158676199141013 ], [ -115.722685568064506, 37.168062776791253 ], [ -115.747084147236492, 37.178788866666295 ], [ -115.805977269375774, 37.194875146262994 ], [ -115.85393309740347, 37.208277761636467 ], [ -115.89011030100329, 37.216318188485445 ], [ -115.922922183338031, 37.224357758471157 ], [ -115.968354020416882, 37.232396471526641 ], [ -116.000324572435332, 37.235745682370421 ], [ -116.039867097300288, 37.237755137458258 ], [ -116.064265676472274, 37.237085325047282 ], [ -116.075202970583831, 37.236415506684644 ], [ -116.089505585960495, 37.232396471526641 ], [ -116.096236228490724, 37.223687827034745 ], [ -116.099601549755803, 37.217658176322594 ], [ -116.102966871020925, 37.210957999122357 ], [ -116.102966871020925, 37.206937607193524 ], [ -116.102125540704634, 37.204257226909192 ], [ -116.100442880072094, 37.193534753838179 ], [ -116.099601549755803, 37.190853897599439 ], [ -116.096236228490724, 37.185491899574203 ], [ -116.090346916276815, 37.179459196724913 ], [ -116.071837649318724, 37.167392345617465 ], [ -116.047439070146751, 37.15666463799004 ], [ -116.025564481923595, 37.151300213256761 ], [ -115.997800581486501, 37.146606029414713 ], [ -115.887586310054445, 37.127826380450855 ], [ -115.787468002417683, 37.10904207037953 ], [ -115.682301712883259, 37.090253100063372 ] ] ] ] } },
{ "type": "Feature", "properties": { "Exposure_rate": 1000.0, "AREA": 229279425.95699999, "Area_km2": 229.28 }, "geometry": { "type": "MultiPolygon", "coordinates": [ [ [ [ -115.707541622371551, 37.103003266678925 ], [ -115.653696482129945, 37.094279700261488 ], [ -115.602375332837141, 37.082199257822282 ], [ -115.57545276271631, 37.079514453574923 ], [ -115.564515468604739, 37.077500787993486 ], [ -115.553578174493182, 37.078172015796341 ], [ -115.548530192595535, 37.079514453574923 ], [ -115.544323541014165, 37.082199257822282 ], [ -115.545164871330428, 37.086226285914137 ], [ -115.551054183544352, 37.088910852452223 ], [ -115.568722120186138, 37.096292920126217 ], [ -115.583866065879093, 37.103003266678925 ], [ -115.618360608846373, 37.112396753279498 ], [ -115.655379142762484, 37.121789074780274 ], [ -115.678095061301917, 37.128497162466104 ], [ -115.699128319208782, 37.135875372233436 ], [ -115.711748273952921, 37.139228866118565 ], [ -115.745401486603939, 37.14861785816899 ], [ -115.822803875701268, 37.170744442009571 ], [ -115.875807685626597, 37.18750269344963 ], [ -115.917032871124093, 37.198896180755455 ], [ -115.952368744407636, 37.208277761636467 ], [ -115.983497966109837, 37.213638141406165 ], [ -116.009579205914378, 37.216318188485445 ], [ -116.033136454770045, 37.218328161315426 ], [ -116.049121730779319, 37.218998140357684 ], [ -116.065948337104814, 37.218328161315426 ], [ -116.074361640267568, 37.217658176322594 ], [ -116.080250952481478, 37.215648185641186 ], [ -116.082774943430309, 37.213638141406165 ], [ -116.086981595011679, 37.210287948675983 ], [ -116.088664255644247, 37.205597428950995 ], [ -116.089505585960495, 37.194875146262994 ], [ -116.088664255644247, 37.190853897599439 ], [ -116.07940962216523, 37.181470151210796 ], [ -116.069313658369893, 37.172755628471613 ], [ -116.049963061095568, 37.164710561446753 ], [ -115.707541622371551, 37.103003266678925 ] ] ] ] } },
{ "type": "Feature", "properties": { "Exposure_rate": 1.0, "AREA": 25278865945.720001, "Area_km2": 25278.87 }, "geometry": { "type": "MultiPolygon", "coordinates": [ [ [ [ -114.530520509902445, 36.624418787262826 ], [ -114.390859677400755, 36.621717856609685 ], [ -114.241102881103757, 36.64737287650474 ], [ -114.059375532788295, 36.682465901130932 ], [ -113.902888093961067, 36.747210974054695 ], [ -113.773323225254714, 36.832106044496243 ], [ -113.667315605404013, 36.923633209202421 ], [ -113.547846700492954, 37.04594637898694 ], [ -113.500732202781492, 37.094279700261481 ], [ -113.460348347600288, 37.111725828588114 ], [ -113.425012474316731, 37.123801563509637 ], [ -113.387993940400619, 37.129167938536007 ], [ -113.35265806711709, 37.130509472839712 ], [ -113.292082284345241, 37.135875372233428 ], [ -113.207949252717711, 37.157335164320713 ], [ -113.117085578559994, 37.19219433761689 ], [ -113.004347316179107, 37.271238168813632 ], [ -112.918531623919051, 37.352874290428602 ], [ -112.856273180514677, 37.411704311324144 ], [ -112.804110700905611, 37.474494473796312 ], [ -112.75194822129653, 37.52655693625141 ], [ -112.667815189669028, 37.553241551478649 ], [ -112.61228738879484, 37.553241551478649 ], [ -112.504597108311614, 37.582583596458399 ], [ -112.423829397949191, 37.615912797023441 ], [ -112.331283063158907, 37.670540358061039 ], [ -112.237054067736082, 37.715810785740132 ], [ -112.11758516282498, 37.76770458735723 ], [ -111.984654972853491, 37.836839713460357 ], [ -111.91734854755147, 37.880680355077907 ], [ -111.673362755831675, 38.017348511691118 ], [ -111.474808801190733, 38.114056393435767 ], [ -111.314956041098441, 38.197413817410272 ], [ -111.259428240224267, 38.242360767501893 ], [ -111.212313742512862, 38.283317606391776 ], [ -111.168564566066522, 38.328211454505713 ], [ -111.121450068355131, 38.380992164762212 ], [ -111.1012581407645, 38.41132364885172 ], [ -111.074335570643711, 38.458773464921492 ], [ -111.069287588746064, 38.48643812104639 ], [ -111.059191624950756, 38.523307815235036 ], [ -111.064239606848417, 38.546999792976834 ], [ -111.074335570643711, 38.586469081353286 ], [ -111.089479516336667, 38.629860255133742 ], [ -111.1012581407645, 38.660087068616413 ], [ -111.123132728987656, 38.685047426979729 ], [ -111.143324656578272, 38.709999081527904 ], [ -111.161833923536335, 38.728378940727715 ], [ -111.232505670103407, 38.796605596619145 ], [ -111.288033470977567, 38.839869440325494 ], [ -111.346926593116848, 38.863456821220126 ], [ -111.414233018418884, 38.872627579091557 ], [ -111.464712837395382, 38.872627579091557 ], [ -111.525288620167203, 38.871317543257739 ], [ -111.557259172185653, 38.868697399155614 ], [ -111.604373669897086, 38.860836387390584 ], [ -111.676728077096755, 38.835937449755619 ], [ -111.732255877970914, 38.804473704898697 ], [ -111.80965826706823, 38.752003242066444 ], [ -111.903887262491082, 38.669284002643323 ], [ -111.971193687793104, 38.607510503226955 ], [ -112.040182773727651, 38.55094769732839 ], [ -112.083931950173991, 38.504875327572826 ], [ -112.142825072313258, 38.448231756416448 ], [ -112.176478284964261, 38.419234117037625 ], [ -112.189939570024649, 38.392862521787848 ], [ -112.233688746470989, 38.345369405370363 ], [ -112.299312511140471, 38.268787177657529 ], [ -112.341379026954257, 38.214602694573685 ], [ -112.396906827828417, 38.147146139026638 ], [ -112.417098755419033, 38.118027954918738 ], [ -112.442338664907282, 38.090222489204784 ], [ -112.477674538190826, 38.051807070778963 ], [ -112.51637573273949, 38.018674140640798 ], [ -112.555076927288155, 37.984199995869652 ], [ -112.597143443101928, 37.956343664446109 ], [ -112.634161977018053, 37.94042101552315 ], [ -112.679593814096904, 37.904582440326209 ], [ -112.740169596868725, 37.867398065847048 ], [ -112.770457488254621, 37.850127509917456 ], [ -112.800745379640517, 37.831523924547483 ], [ -112.834398592291564, 37.812915647200974 ], [ -112.876465108105293, 37.798291566800089 ], [ -112.908435660123757, 37.788983826106573 ], [ -112.945454194039868, 37.777015008015681 ], [ -112.982472727956008, 37.763714048194785 ], [ -113.019491261872119, 37.750410695963183 ], [ -113.117085578560037, 37.717141850472245 ], [ -113.177661361331857, 37.699836143765033 ], [ -113.265159714224481, 37.670540358061025 ], [ -113.325735496996288, 37.650559325198053 ], [ -113.450252383805037, 37.605249077274458 ], [ -113.534385415432567, 37.57591596485431 ], [ -113.605057161999682, 37.547905392456471 ], [ -113.795197813477884, 37.450453403438082 ], [ -113.874282863207739, 37.417050206171879 ], [ -113.923080021551726, 37.384969114329358 ], [ -113.985338464956101, 37.346186140743676 ], [ -114.056010211523201, 37.31273645624163 ], [ -114.143508564415825, 37.27257718051235 ], [ -114.219228292880587, 37.241773886937544 ], [ -114.363937107279952, 37.18281075779268 ], [ -114.476675369660825, 37.151970787162142 ], [ -114.629797487222945, 37.123801563509637 ], [ -114.749266392134032, 37.107700155609933 ], [ -114.865369975780013, 37.100990225121592 ], [ -114.934359061714574, 37.102332258770261 ], [ -115.068971912318588, 37.103674268643729 ], [ -115.176662192801857, 37.105016254741727 ], [ -115.267525866959573, 37.121118233313872 ], [ -115.351658898587118, 37.142582211354743 ], [ -115.450935875907604, 37.161358197416163 ], [ -115.555260835125722, 37.181470151210767 ], [ -115.615836617897557, 37.192194337616883 ], [ -115.662951115608962, 37.197555859721909 ], [ -115.716796255850568, 37.214978176846522 ], [ -115.733622862176063, 37.224357758471136 ], [ -115.78073735988751, 37.243113422482438 ], [ -115.821121215068672, 37.259185991912851 ], [ -115.864870391515026, 37.268560073973205 ], [ -115.888427640370722, 37.275255132465304 ], [ -115.905254246696245, 37.279271881778811 ], [ -115.93049415618448, 37.283288416745904 ], [ -115.950686083775068, 37.284627214100972 ], [ -116.03650177603518, 37.288643463259881 ], [ -116.071837649318724, 37.285965987638519 ], [ -116.098760219439555, 37.285965987638519 ], [ -116.11558682576505, 37.283288416745897 ], [ -116.145874717150932, 37.265881883877533 ], [ -116.1542880203137, 37.2471318862682 ], [ -116.161018662843887, 37.227037424707412 ], [ -116.157653341578808, 37.188172946177268 ], [ -116.139144074620745, 37.153311917132761 ], [ -116.11390416513251, 37.125143192937344 ], [ -116.092029576909354, 37.105016254741727 ], [ -116.068472328053645, 37.08488396698781 ], [ -116.023040490974765, 37.062060908522554 ], [ -115.977608653895899, 37.036544656556202 ], [ -115.915350210491525, 37.001613781204902 ], [ -115.79083332368279, 36.95725531816128 ], [ -115.713430934585489, 36.942463417965371 ], [ -115.67472974003681, 36.93170386831035 ], [ -115.59732735093948, 36.89268776835366 ], [ -115.52665560437238, 36.857690852827091 ], [ -115.445887894009914, 36.813248603168461 ], [ -115.361754862382426, 36.752603933544393 ], [ -115.321371007201208, 36.733726917077405 ], [ -115.274256509489788, 36.72158924057706 ], [ -115.205267423555227, 36.71754292209171 ], [ -115.139643658885745, 36.713496390461984 ], [ -115.060558609155876, 36.71214749922153 ], [ -114.993252183853855, 36.716194101897386 ], [ -114.897340527798463, 36.701355516796198 ], [ -114.782919604785036, 36.677068015777429 ], [ -114.708882536952785, 36.654122777700628 ], [ -114.628114826590377, 36.633871299251155 ], [ -114.530520509902445, 36.624418787262826 ] ] ] ] } },
{ "type": "Feature", "properties": { "Exposure_rate": 10.0, "AREA": 8286131068.4329996, "Area_km2": 8286.13 }, "geometry": { "type": "MultiPolygon", "coordinates": [ [ [ [ -115.659585794343855, 37.047289387146265 ], [ -115.573770102083756, 37.011019827346658 ], [ -115.487954409823729, 36.974732951155005 ], [ -115.422330645154247, 36.953221448434249 ], [ -115.314640364671007, 36.907489327917098 ], [ -115.247333939368986, 36.889996267263811 ], [ -115.168248889639088, 36.887304671275238 ], [ -115.074019894216292, 36.898070485826771 ], [ -114.969694934998145, 36.923633209202414 ], [ -114.892292545900816, 36.934393898138786 ], [ -114.804794193008206, 36.93170386831035 ], [ -114.712247858217921, 36.926323523839592 ], [ -114.606240238367235, 36.918252295137414 ], [ -114.545664455595414, 36.903452823673831 ], [ -114.463214084600438, 36.87922931394305 ], [ -114.370667749810153, 36.871153102615729 ], [ -114.273073433122221, 36.87384526794218 ], [ -114.1418259037833, 36.889996267263811 ], [ -114.091346084806815, 36.90210727480315 ], [ -114.008895713811839, 36.912871001368757 ], [ -113.912984057756461, 36.937083833025838 ], [ -113.803611116640667, 36.973388660308792 ], [ -113.699286157422534, 37.021768169141772 ], [ -113.600009180102035, 37.08488396698781 ], [ -113.568038628083571, 37.127826380450855 ], [ -113.525972112269841, 37.164040100535367 ], [ -113.463713668865466, 37.174766761402452 ], [ -113.398089904195999, 37.181470151210789 ], [ -113.347610085219458, 37.197555859721938 ], [ -113.28198632054999, 37.229716995726747 ], [ -113.204583931452675, 37.273916168396362 ], [ -113.08679768717414, 37.352874290428602 ], [ -113.038000528830153, 37.392990674833989 ], [ -112.967328782263053, 37.451789221242962 ], [ -112.874782447472782, 37.533228985357255 ], [ -112.772140148887189, 37.601249788182372 ], [ -112.645940601445901, 37.635903150076842 ], [ -112.531519678432474, 37.677199507202296 ], [ -112.388493524665691, 37.743758122783056 ], [ -112.235371407103599, 37.824878649788751 ], [ -112.142825072313286, 37.871383004065301 ], [ -112.094027913969342, 37.908565366688464 ], [ -112.048596076890476, 37.943075029974061 ], [ -111.986337633486116, 38.005416772174364 ], [ -111.919031208184094, 38.106112622535697 ], [ -111.888743316798184, 38.164346877862968 ], [ -111.882012674267983, 38.185511448022872 ], [ -111.87864735300289, 38.20138084161519 ], [ -111.87864735300289, 38.205347649679261 ], [ -111.882012674267983, 38.209314241595251 ], [ -111.888743316798184, 38.213280617355899 ], [ -111.892108638063277, 38.214602694573699 ], [ -111.902204601858571, 38.219890763258903 ], [ -111.915665886918958, 38.219890763258903 ], [ -111.972876348425686, 38.213280617355899 ], [ -112.053644058788137, 38.189479120606862 ], [ -112.191622230657259, 38.143176161624488 ], [ -112.267341959122035, 38.116704125089377 ], [ -112.329600402526395, 38.092871084701969 ], [ -112.366618936442521, 38.070354964028212 ], [ -112.403637470358646, 38.023976416655614 ], [ -112.437290683009635, 37.969609902409516 ], [ -112.497866465781456, 37.903254750296739 ], [ -112.600508764367021, 37.822220372322604 ], [ -112.699785741687535, 37.755732323926765 ], [ -112.745217578766372, 37.731781984135552 ], [ -112.8091586828033, 37.690516012547278 ], [ -112.886561071900644, 37.647894781169519 ], [ -112.918531623919094, 37.630572914940927 ], [ -112.958915479100312, 37.61991129772052 ], [ -113.014443279974472, 37.603916004799629 ], [ -113.075019062746279, 37.5959170682858 ], [ -113.145690809313422, 37.58258359645842 ], [ -113.199535949555013, 37.567914018789871 ], [ -113.238237144103692, 37.551907547539521 ], [ -113.276938338652357, 37.531894623282206 ], [ -113.357706049014766, 37.485176912562245 ], [ -113.404820546726171, 37.457132253904895 ], [ -113.497366881516456, 37.401011377019479 ], [ -113.608422483264818, 37.340835192025594 ], [ -113.717795424380583, 37.280610750584543 ], [ -113.805293777273192, 37.241773886937551 ], [ -113.916349379021554, 37.185491899574203 ], [ -113.998799750016531, 37.155994105712374 ], [ -114.086298102909154, 37.129167938536007 ], [ -114.158652510108837, 37.117093059674104 ], [ -114.237737559838678, 37.105016254741734 ], [ -114.299996003243052, 37.090253100063372 ], [ -114.358889125382348, 37.076829554248278 ], [ -114.429560871949462, 37.056689778901635 ], [ -114.46321408460048, 37.04594637898694 ], [ -114.51874188547464, 37.03117172101873 ], [ -114.552395098125629, 37.027141769901242 ], [ -114.596144274571955, 37.029828427737549 ], [ -114.651672075446129, 37.032514990541507 ], [ -114.702151894422656, 37.037887831042177 ], [ -114.744218410236385, 37.04594637898694 ], [ -114.80479419300822, 37.056689778901635 ], [ -114.870417957677688, 37.060718161765095 ], [ -114.94445502550991, 37.068774285817923 ], [ -115.04373200283041, 37.068774285817923 ], [ -115.100942464337109, 37.072802026990168 ], [ -115.20695008418781, 37.087568581069043 ], [ -115.30117907961062, 37.100990225121592 ], [ -115.380264129340503, 37.123801563509637 ], [ -115.442522572744835, 37.139899547057858 ], [ -115.508146337414345, 37.149288455860784 ], [ -115.595644690306969, 37.165381016410699 ], [ -115.659585794343883, 37.181470151210796 ], [ -115.698286988892562, 37.192194337616897 ], [ -115.71847891648315, 37.201576751429009 ], [ -115.725209559013365, 37.204257226909192 ], [ -115.849726445822071, 37.240434327585021 ], [ -115.88842764037075, 37.249810743081532 ], [ -115.898523604166058, 37.255168170991773 ], [ -115.927128834919429, 37.26320359852911 ], [ -115.959099386937893, 37.265881883877555 ], [ -115.986021957058668, 37.269899133300477 ], [ -116.01462718781201, 37.271238168813632 ], [ -116.034819115402669, 37.275255132465304 ], [ -116.063424346156012, 37.272577180512371 ], [ -116.070154988686213, 37.272577180512371 ], [ -116.092029576909354, 37.268560073973205 ], [ -116.098760219439555, 37.264542753109765 ], [ -116.115586825765078, 37.25784674208375 ], [ -116.129048110825465, 37.248471326579477 ], [ -116.135778753355666, 37.237755137458258 ], [ -116.137461413988234, 37.225697603491248 ], [ -116.132413432090587, 37.196215514891001 ], [ -116.122317468295279, 37.170744442009571 ], [ -116.076885631216399, 37.139899547057858 ], [ -116.053328382360689, 37.127826380450855 ], [ -116.026405812239886, 37.121118233313879 ], [ -116.002848563384191, 37.113067672026482 ], [ -115.967512690100648, 37.106358217063907 ], [ -115.878331676575456, 37.095621852781356 ], [ -115.834582500129116, 37.088910852452223 ], [ -115.79588130558048, 37.082199257822282 ], [ -115.71847891648315, 37.063403631514305 ], [ -115.684825703832118, 37.056689778901635 ], [ -115.659585794343855, 37.047289387146265 ] ] ] ] } },
{ "type": "Feature", "properties": { "Exposure_rate": 50.0, "AREA": 1928875227.793, "Area_km2": 1928.88 }, "geometry": { "type": "MultiPolygon", "coordinates": [ [ [ [ -115.667157767190304, 37.063403631514305 ], [ -115.612471296632435, 37.04661788603687 ], [ -115.553578174493182, 37.027141769901242 ], [ -115.480382436977223, 37.009004344010549 ], [ -115.384470780921831, 36.988846571375142 ], [ -115.285193803601359, 36.96666684991397 ], [ -115.184234165648334, 36.955238410005649 ], [ -115.113562419081205, 36.948514997045798 ], [ -115.032794708718797, 36.943808254857856 ], [ -114.970536265314422, 36.944480664402519 ], [ -114.906595161277508, 36.946497857429691 ], [ -114.84265405724058, 36.949187365048516 ], [ -114.781236944152496, 36.949187365048516 ], [ -114.708882536952785, 36.943808254857856 ], [ -114.636528129753145, 36.942463417965378 ], [ -114.568380374134861, 36.939101221884243 ], [ -114.485088672823608, 36.941790990617633 ], [ -114.421147568786665, 36.948514997045798 ], [ -114.334490546210318, 36.955238410005649 ], [ -114.241102881103757, 36.964650191046225 ], [ -114.163700492006456, 36.972044345717876 ], [ -114.138460582518178, 36.97674934290238 ], [ -114.112379342713638, 36.985486423078136 ], [ -114.092187415123036, 36.992878553407174 ], [ -114.072836817848724, 37.003629460499226 ], [ -114.066106175318509, 37.007660658761651 ], [ -114.064423514685984, 37.010348005506309 ], [ -114.063582184369679, 37.014378847471484 ], [ -114.064423514685984, 37.017065956676682 ], [ -114.071995487532433, 37.018409475646841 ], [ -114.080408790695174, 37.019081226223669 ], [ -114.110696682081084, 37.017737719131162 ], [ -114.143508564415825, 37.021096442320705 ], [ -114.193147053076061, 37.017737719131162 ], [ -114.274756093754789, 37.011691643248589 ], [ -114.331966555261474, 37.00631694975992 ], [ -114.419464908154126, 37.007660658761651 ], [ -114.512011242944396, 37.013707055323572 ], [ -114.554077758758154, 37.013707055323572 ], [ -114.591096292674266, 37.011019827346658 ], [ -114.628114826590377, 37.010348005506309 ], [ -114.684483957780813, 37.018409475646841 ], [ -114.736646437389879, 37.027141769901242 ], [ -114.827510111547625, 37.036544656556202 ], [ -114.907436491593771, 37.042588754630998 ], [ -114.97137759563067, 37.052661182158189 ], [ -115.026905396504858, 37.052661182158189 ], [ -115.090846500541772, 37.054004071503265 ], [ -115.143850310467116, 37.059375391242227 ], [ -115.184234165648334, 37.068102974825926 ], [ -115.241444627155047, 37.074815817359024 ], [ -115.286035133917665, 37.086897436463026 ], [ -115.344928256056903, 37.099648167698057 ], [ -115.396249405349707, 37.113067672026482 ], [ -115.434109269582095, 37.122459910301707 ], [ -115.473651794447008, 37.130509472839712 ], [ -115.509828998046856, 37.136546082902129 ], [ -115.56115014733966, 37.145935407937124 ], [ -115.595644690306941, 37.153982473197935 ], [ -115.629297902957944, 37.16404010053536 ], [ -115.672205749087993, 37.174766761402452 ], [ -115.696604328259966, 37.18281075779268 ], [ -115.722685568064506, 37.192864548702069 ], [ -115.738670844073695, 37.198226023213387 ], [ -115.765593414194527, 37.207607687389952 ], [ -115.821962545384991, 37.22368782703473 ], [ -115.879173006891705, 37.239094744425152 ], [ -115.922922183338031, 37.251150135774104 ], [ -115.966671359784328, 37.25784674208375 ], [ -115.998641911802792, 37.259855607898089 ], [ -116.037343106351429, 37.261864420135851 ], [ -116.068472328053645, 37.262534012309033 ], [ -116.097918889123264, 37.253828849729537 ], [ -116.121476137978959, 37.238424943917558 ], [ -116.125682789560329, 37.226367517074841 ], [ -116.124841459244095, 37.205597428950988 ], [ -116.118952147030157, 37.18750269344963 ], [ -116.106332192286004, 37.173426012063189 ], [ -116.092870907225617, 37.162028682116933 ], [ -116.072678979635029, 37.149959047606025 ], [ -116.043232418565353, 37.13922886611855 ], [ -116.002848563384163, 37.127155592490304 ], [ -115.925446174286861, 37.115080392600738 ], [ -115.792515984315358, 37.094279700261481 ], [ -115.718478916483107, 37.076829554248256 ], [ -115.667157767190304, 37.063403631514305 ] ] ] ] } },
{ "type": "Feature", "properties": { "Exposure_rate": 100.0, "AREA": 1279434664.974, "Area_km2": 1279.43 }, "geometry": { "type": "MultiPolygon", "coordinates": [ [ [ [ -115.666316436874055, 37.074815817359024 ], [ -115.624249921060311, 37.062732272989166 ], [ -115.540958219749058, 37.041917211938831 ], [ -115.44925321527505, 37.023783313970497 ], [ -115.356706880484765, 36.998254196957966 ], [ -115.270891188224709, 36.978765681222455 ], [ -115.210315405452889, 36.976077218256243 ], [ -115.172455541220458, 36.971372179518291 ], [ -115.054669296941981, 36.964650191046246 ], [ -114.926787088868153, 36.96666684991397 ], [ -114.831716763129037, 36.962633478757667 ], [ -114.697103912524966, 36.957255318161309 ], [ -114.619701523427679, 36.954566095416915 ], [ -114.565015052869782, 36.953221448434263 ], [ -114.542299134330321, 36.954566095416915 ], [ -114.528837849269948, 36.957927609009495 ], [ -114.515376564209546, 36.961961229457053 ], [ -114.498549957884038, 36.963977959552317 ], [ -114.485088672823608, 36.965322416604515 ], [ -114.479199360609712, 36.96666684991397 ], [ -114.475834039344605, 36.968011259480342 ], [ -114.47162738776322, 36.971372179518291 ], [ -114.470786057446944, 36.975405087673785 ], [ -114.474992709028299, 36.978093574385539 ], [ -114.482564681874806, 36.98010987708679 ], [ -114.501915279149117, 36.982126126358914 ], [ -114.526313858321103, 36.984142322200839 ], [ -114.584365650144093, 36.988846571375142 ], [ -114.643258772283374, 36.990862589108609 ], [ -114.698786573157548, 36.998926125682821 ], [ -114.749266392134061, 37.009676177727606 ], [ -114.816572817436082, 37.019081226223683 ], [ -114.900705849063613, 37.029828427737549 ], [ -114.974742916895849, 37.038559409375182 ], [ -115.018492093342147, 37.043260291382914 ], [ -115.077385215481414, 37.042588754631005 ], [ -115.13375434667185, 37.048632371543384 ], [ -115.168248889639131, 37.055346937084515 ], [ -115.199378111341318, 37.061389538114526 ], [ -115.245651278736474, 37.066760335016639 ], [ -115.293607106764156, 37.074815817359031 ], [ -115.353341559219686, 37.088239719732115 ], [ -115.402980047879922, 37.102332258770261 ], [ -115.448411884958773, 37.115080392600738 ], [ -115.477858446028435, 37.122459910301707 ], [ -115.546847531962968, 37.135204655618978 ], [ -115.611629966316158, 37.149959047606046 ], [ -115.652855151813654, 37.161358197416178 ], [ -115.700810979841336, 37.174766761402459 ], [ -115.725209559013337, 37.184151340580591 ], [ -115.747925477552769, 37.192864548702069 ], [ -115.795881305580465, 37.207607687389952 ], [ -115.869077043096425, 37.226367517074856 ], [ -115.932176816817048, 37.241104110237231 ], [ -115.990228608640052, 37.250480442404026 ], [ -116.043232418565353, 37.254498513336969 ], [ -116.081092282797769, 37.252489504656872 ], [ -116.103808201337202, 37.238424943917558 ], [ -116.11138017418368, 37.22100804178077 ], [ -116.114745495448773, 37.206937607193524 ], [ -116.11138017418368, 37.192194337616897 ], [ -116.094553567858185, 37.174096389706818 ], [ -116.061741685523444, 37.154653023316293 ], [ -116.021357830342225, 37.140570222051181 ], [ -115.955734065672772, 37.128497162466104 ], [ -115.851409106454639, 37.111725828588128 ], [ -115.666316436874055, 37.074815817359024 ] ] ] ] } },
{ "type": "Feature", "properties": { "Exposure_rate": 500.0, "AREA": 499299719.03899997, "Area_km2": 499.3 }, "geometry": { "type": "MultiPolygon", "coordinates": [ [ [ [ -115.682301712883259, 37.090253100063372 ], [ -115.608264645051079, 37.068102974825933 ], [ -115.546006201646705, 37.058032596954313 ], [ -115.484589088558593, 37.043260291382921 ], [ -115.438315921163465, 37.037887831042177 ], [ -115.396249405349707, 37.029828427737549 ], [ -115.366802844280073, 37.025798405346755 ], [ -115.348293577321982, 37.023783313970505 ], [ -115.34156293479181, 37.022439890023783 ], [ -115.334832292261595, 37.024455017035137 ], [ -115.331466970996516, 37.028485110698277 ], [ -115.332308301312793, 37.031843358749946 ], [ -115.333990961945361, 37.033186616393387 ], [ -115.33988027415927, 37.038559409375182 ], [ -115.350817568270841, 37.041245663306427 ], [ -115.360072201749858, 37.046617886036877 ], [ -115.371009495861443, 37.051989728574348 ], [ -115.407186699461292, 37.062732272989173 ], [ -115.445046563693666, 37.071459470367245 ], [ -115.470286473181929, 37.085555129422389 ], [ -115.534227577218829, 37.111054897952386 ], [ -115.599851341888282, 37.135204655618978 ], [ -115.641917857702097, 37.145935407937124 ], [ -115.685667034148395, 37.158676199141013 ], [ -115.722685568064506, 37.168062776791253 ], [ -115.747084147236492, 37.178788866666295 ], [ -115.805977269375774, 37.194875146262994 ], [ -115.85393309740347, 37.208277761636467 ], [ -115.89011030100329, 37.216318188485445 ], [ -115.922922183338031, 37.224357758471157 ], [ -115.968354020416882, 37.232396471526641 ], [ -116.000324572435332, 37.235745682370421 ], [ -116.039867097300288, 37.237755137458258 ], [ -116.064265676472274, 37.237085325047282 ], [ -116.075202970583831, 37.236415506684644 ], [ -116.089505585960495, 37.232396471526641 ], [ -116.096236228490724, 37.223687827034745 ], [ -116.099601549755803, 37.217658176322594 ], [ -116.102966871020925, 37.210957999122357 ], [ -116.102966871020925, 37.206937607193524 ], [ -116.102125540704634, 37.204257226909192 ], [ -116.100442880072094, 37.193534753838179 ], [ -116.099601549755803, 37.190853897599439 ], [ -116.096236228490724, 37.185491899574203 ], [ -116.090346916276815, 37.179459196724913 ], [ -116.071837649318724, 37.167392345617465 ], [ -116.047439070146751, 37.15666463799004 ], [ -116.025564481923595, 37.151300213256761 ], [ -115.997800581486501, 37.146606029414713 ], [ -115.887586310054445, 37.127826380450855 ], [ -115.787468002417683, 37.10904207037953 ], [ -115.682301712883259, 37.090253100063372 ] ] ] ] } },
{ "type": "Feature", "properties": { "Exposure_rate": 1000.0, "AREA": 229279425.95699999, "Area_km2": 229.28 }, "geometry": { "type": "MultiPolygon", "coordinates": [ [ [ [ -115.707541622371551, 37.103003266678925 ], [ -115.653696482129945, 37.094279700261488 ], [ -115.602375332837141, 37.082199257822282 ], [ -115.57545276271631, 37.079514453574923 ], [ -115.564515468604739, 37.077500787993486 ], [ -115.553578174493182, 37.078172015796341 ], [ -115.548530192595535, 37.079514453574923 ], [ -115.544323541014165, 37.082199257822282 ], [ -115.545164871330428, 37.086226285914137 ], [ -115.551054183544352, 37.088910852452223 ], [ -115.568722120186138, 37.096292920126217 ], [ -115.583866065879093, 37.103003266678925 ], [ -115.618360608846373, 37.112396753279498 ], [ -115.655379142762484, 37.121789074780274 ], [ -115.678095061301917, 37.128497162466104 ], [ -115.699128319208782, 37.135875372233436 ], [ -115.711748273952921, 37.139228866118565 ], [ -115.745401486603939, 37.14861785816899 ], [ -115.822803875701268, 37.170744442009571 ], [ -115.875807685626597, 37.18750269344963 ], [ -115.917032871124093, 37.198896180755455 ], [ -115.952368744407636, 37.208277761636467 ], [ -115.983497966109837, 37.213638141406165 ], [ -116.009579205914378, 37.216318188485445 ], [ -116.033136454770045, 37.218328161315426 ], [ -116.049121730779319, 37.218998140357684 ], [ -116.065948337104814, 37.218328161315426 ], [ -116.074361640267568, 37.217658176322594 ], [ -116.080250952481478, 37.215648185641186 ], [ -116.082774943430309, 37.213638141406165 ], [ -116.086981595011679, 37.210287948675983 ], [ -116.088664255644247, 37.205597428950995 ], [ -116.089505585960495, 37.194875146262994 ], [ -116.088664255644247, 37.190853897599439 ], [ -116.07940962216523, 37.181470151210796 ], [ -116.069313658369893, 37.172755628471613 ], [ -116.049963061095568, 37.164710561446753 ], [ -115.707541622371551, 37.103003266678925 ] ] ] ] } }
]
}
