{
"type": "FeatureCollection",
"name": "Smoky_TOA_FINAL",
"crs": { "type": "name", "properties": { "name": "urn:ogc:def:crs:OGC:1.3:CRS84" } },
"features": [
{ "type": "Feature", "properties": { "Time of arrival": 1.0 }, "geometry": { "type": "MultiLineString", "coordinates": [ [ [ -115.364478257564244, 37.22230452155955 ], [ -115.444582517200217, 37.185652266277401 ], [ -115.516165047087668, 37.157132652688276 ], [ -115.608199728371531, 37.129961109804178 ], [ -115.684895296108081, 37.117730731335264 ] ] ] } },
{ "type": "Feature", "properties": { "Time of arrival": 2.0 }, "geometry": { "type": "MultiLineString", "coordinates": [ [ [ -115.18722627879535, 37.172072840372302 ], [ -115.250287078934264, 37.134037463464395 ], [ -115.325278300721124, 37.098701770550164 ], [ -115.413904290105577, 37.068789459372368 ], [ -115.54173023633318, 37.034783871356353 ], [ -115.611608420270912, 37.023898865364778 ], [ -115.61672145812004, 37.023898865364778 ] ] ] } },
{ "type": "Feature", "properties": { "Time of arrival": 3.0 }, "geometry": { "type": "MultiLineString", "coordinates": [ [ [ -114.786704980615568, 37.192441063803756 ], [ -114.81397451581077, 37.151699124991232 ], [ -114.8514701267042, 37.116371678411682 ], [ -114.892374429497011, 37.081027740598628 ], [ -114.93668742418923, 37.053828877897082 ], [ -114.987817802680269, 37.033423330918559 ], [ -115.061104678517452, 37.010290414328963 ], [ -115.204269738292354, 36.981704735230288 ], [ -115.326982646670842, 36.973535424834004 ], [ -115.442878171250527, 36.977620189659653 ], [ -115.516165047087668, 36.984427643797908 ], [ -115.580930193176272, 36.996679526328627 ], [ -115.621834495969111, 37.002124173943287 ] ] ] } },
{ "type": "Feature", "properties": { "Time of arrival": 4.0 }, "geometry": { "type": "MultiLineString", "coordinates": [ [ [ -113.975436308557761, 37.426957286631556 ], [ -114.053836222244044, 37.298267253261578 ], [ -114.12371440618179, 37.22230452155955 ], [ -114.193592590119536, 37.180220788840103 ], [ -114.300966384950698, 37.139472260082613 ], [ -114.391296720284885, 37.115012601092793 ], [ -114.454357520423827, 37.10957604787054 ], [ -114.520827012462163, 37.105498376819035 ], [ -114.597522580198714, 37.094623514093428 ], [ -114.653765996538866, 37.081027740598628 ], [ -114.723644180476569, 37.053828877897082 ], [ -114.778183250867059, 37.026620263107041 ], [ -114.858287510503018, 36.995318303508313 ], [ -114.93327873228985, 36.959917958688635 ], [ -114.989522148630002, 36.938124946668871 ], [ -115.067922062316242, 36.912237647970713 ], [ -115.136095900304312, 36.886341560505052 ], [ -115.194043662594112, 36.868618122171981 ], [ -115.246878387034883, 36.856345640286399 ], [ -115.296304419576217, 36.848162890750054 ], [ -115.326982646670842, 36.85089057125149 ], [ -115.345730452117536, 36.854981909524511 ], [ -115.412199944155887, 36.878162023122492 ], [ -115.4803737821439, 36.909512157862451 ], [ -115.54684327418228, 36.935400381802488 ], [ -115.597973652673318, 36.955832243861771 ], [ -115.649104031164342, 36.978981729211995 ] ] ] } },
{ "type": "Feature", "properties": { "Time of arrival": 5.0 }, "geometry": { "type": "MultiLineString", "coordinates": [ [ [ -115.659330106862569, 36.944935932669154 ], [ -115.594564960773937, 36.905423740113818 ], [ -115.516165047087668, 36.846799014004517 ], [ -115.436060787451694, 36.781304325072789 ], [ -115.347434798067255, 36.747170319844464 ], [ -115.197452354493535, 36.769017833453717 ], [ -115.074739446115061, 36.816787570859162 ], [ -114.958843921535347, 36.867254610408423 ], [ -114.8514701267042, 36.901335103269744 ], [ -114.744096331872996, 36.891794098646741 ], [ -114.600931272098094, 36.874071925874425 ], [ -114.452653174474136, 36.85089057125149 ], [ -114.343575033693227, 36.85770934671649 ], [ -114.176549130622533, 36.889067878255702 ], [ -114.001001497803287, 36.931313351868845 ], [ -113.876584243475122, 36.987150454912168 ], [ -113.758984372945719, 37.057909329062369 ], [ -113.67376707546066, 37.178862858453428 ], [ -113.620932351019931, 37.249442862948811 ], [ -113.539123745434253, 37.314535012462173 ], [ -113.489697712892919, 37.356543764876697 ], [ -113.455610793898927, 37.417482396145132 ], [ -113.421523874904892, 37.4797240109109 ], [ -113.3874369559109, 37.579743118797808 ], [ -113.368689150464164, 37.666137928019005 ], [ -113.360167420715641, 37.703904076114135 ] ] ] } },
{ "type": "Feature", "properties": { "Time of arrival": 6.0 }, "geometry": { "type": "MultiLineString", "coordinates": [ [ [ -115.652512723063722, 36.897246247339289 ], [ -115.599677998623008, 36.868618122171974 ], [ -115.538321544433771, 36.797683250406038 ], [ -115.449695555049317, 36.719852178369379 ], [ -115.340617414268436, 36.68842430065866 ], [ -115.205974084242044, 36.68705757968609 ], [ -115.08496552181326, 36.71438738369924 ], [ -114.93327873228985, 36.764921898654869 ], [ -114.769661521118536, 36.790859123700756 ], [ -114.650357304639428, 36.794953672673088 ], [ -114.461174904222602, 36.778574163784725 ], [ -114.377661952687262, 36.771748335103467 ], [ -114.24301862266087, 36.793588847331691 ], [ -114.098149216936278, 36.837251195580869 ], [ -113.936236351714655, 36.894520221675521 ], [ -113.772619140543327, 36.998040724782612 ], [ -113.670358383561279, 37.079668029116313 ], [ -113.605593237472632, 37.182936576381266 ], [ -113.520375939987574, 37.237231818309013 ], [ -113.394254339709661, 37.288776101861551 ], [ -113.297106620576713, 37.333509616310963 ], [ -113.228932782588657, 37.37821650817191 ], [ -113.186324133846128, 37.428310744543595 ], [ -113.140306793204218, 37.500008991181708 ], [ -113.070428609266457, 37.595949793041996 ], [ -113.019298230775419, 37.668836147702407 ], [ -112.980098273932285, 37.74299873989316 ], [ -112.961350468485591, 37.811701358136723 ], [ -112.957941776586168, 37.827857399629522 ] ] ] } },
{ "type": "Feature", "properties": { "Time of arrival": 8.0 }, "geometry": { "type": "MultiLineString", "coordinates": [ [ [ -112.765350684269933, 37.931441159824601 ], [ -112.797733257314277, 37.800928699352433 ], [ -112.835228868207693, 37.666137928018983 ], [ -112.871020133151418, 37.589197440952702 ], [ -112.903402706195749, 37.517584851116609 ], [ -112.954533084686787, 37.432370971465183 ], [ -113.000550425328697, 37.375507757635127 ], [ -113.04656776597065, 37.319956816733288 ], [ -113.133489409405414, 37.246729468454426 ], [ -113.218706706890472, 37.195156411921879 ], [ -113.271541431331187, 37.178862858453428 ], [ -113.348236999067751, 37.166640386549425 ], [ -113.441976026301305, 37.144906666286985 ], [ -113.511854210239079, 37.117730731335257 ], [ -113.573210664428302, 37.063349589277593 ], [ -113.593662815824715, 37.023898865364757 ], [ -113.634567118617568, 36.980343244402292 ], [ -113.711262686354104, 36.883615145397485 ], [ -113.827158210933788, 36.809965146464215 ], [ -113.948166773362573, 36.758094854481683 ], [ -114.108375292634477, 36.719852178369379 ], [ -114.251540352409407, 36.699357193980696 ], [ -114.345279379642932, 36.692524317836707 ], [ -114.444131444725599, 36.697990667335453 ], [ -114.560026969305312, 36.71028853258462 ], [ -114.621383423494564, 36.711654840585176 ], [ -114.663992072237093, 36.707555843698124 ], [ -114.730461564275416, 36.678856743786291 ], [ -114.808861477961685, 36.640574616718496 ], [ -114.900896159245548, 36.606378062011238 ], [ -114.981000418881507, 36.58722136563339 ], [ -115.054287294718634, 36.57627254670092 ], [ -115.07303510016537, 36.573535099349499 ] ] ] } },
{ "type": "Feature", "properties": { "Time of arrival": 10.0 }, "geometry": { "type": "MultiLineString", "coordinates": [ [ [ -112.617072586645918, 38.002654397864099 ], [ -112.637524738042345, 37.920685992897688 ], [ -112.649455159690248, 37.8655410759443 ], [ -112.654568197539376, 37.821126145424763 ], [ -112.657976889438757, 37.729520152292118 ], [ -112.671611657036379, 37.636451037960512 ], [ -112.7108116138795, 37.540562423054922 ], [ -112.74830722477293, 37.440490764615006 ], [ -112.828411484408875, 37.311823963671031 ], [ -112.894880976447212, 37.22773297137968 ], [ -112.968167852284395, 37.155774307370848 ], [ -113.039750382171846, 37.108216848579957 ] ] ] } },
{ "type": "Feature", "properties": { "Time of arrival": 12.0 }, "geometry": { "type": "MultiLineString", "coordinates": [ [ [ -112.690359462483102, 37.076948532992596 ], [ -112.60343781904831, 37.162565789903802 ], [ -112.554011786507004, 37.239945554761896 ], [ -112.523333559412393, 37.353834231798487 ], [ -112.499472716116571, 37.432370971465183 ], [ -112.473907526871017, 37.528398707857086 ], [ -112.444933645726096, 37.582444476221482 ], [ -112.426185840279416, 37.710646007477237 ], [ -112.434707570027911, 37.751084714546295 ], [ -112.443229299776405, 37.772642994066587 ], [ -112.463681451172846, 37.783419777419894 ], [ -112.487542294468668, 37.798235289121095 ], [ -112.497768370166867, 37.81574070002646 ], [ -112.496064024217134, 37.876304303227073 ], [ -112.47561187282075, 37.924719364846311 ], [ -112.444933645726096, 37.971759023192547 ], [ -112.417664110530922, 38.009369062013377 ], [ -112.383577191536887, 38.077823503913621 ], [ -112.36312504014046, 38.159616305201752 ], [ -112.356307656341684, 38.227930110180154 ], [ -112.356307656341684, 38.241317458593898 ] ] ] } }
]
}
